{"type":"Topology","bbox":[-75.27122771081777,10.253286307986325,-74.71832913514802,11.105371761371787],"transform":{"scale":[0.000003385120954067422,0.0000034456095261769775],"translate":[-81.73562055563167,-4.229406466336059]},"objects":{"MGN_ADM_MPIO_GRAFICO":{"type":"GeometryCollection","geometries":[{"type":"Polygon","arcs":[[29,15,16,30,31]],"bbox":[-74.91914128038522,10.913916468049763,-74.7558362753191,11.105371761371787],"properties":{"dpto_ccdgo":"08","mpio_ccdgo":"001","mpio_cdpmp":"08001","dpto_cnmbr":"ATLÁNTICO","mpio_cnmbr":"BARRANQUILLA"}},{"type":"Polygon","arcs":[[32,33,34,35,36,37,38]],"bbox":[-74.99558746689092,10.704798980296555,-74.86663128414573,10.85856275101173],"properties":{"dpto_ccdgo":"08","mpio_ccdgo":"078","mpio_cdpmp":"08078","dpto_cnmbr":"ATLÁNTICO","mpio_cnmbr":"BARANOA"}},{"type":"Polygon","arcs":[[25,26,27,39,40,41,42,43]],"bbox":[-74.96278902996697,10.338565143759205,-74.80653184672721,10.49410340338036],"properties":{"dpto_ccdgo":"08","mpio_ccdgo":"137","mpio_cdpmp":"08137","dpto_cnmbr":"ATLÁNTICO","mpio_cnmbr":"CAMPO DE LA CRUZ"}},{"type":"Polygon","arcs":[[44,-43,45,46]],"bbox":[-74.9324075694042,10.40876943785506,-74.81755718567462,10.566082186382197],"properties":{"dpto_ccdgo":"08","mpio_ccdgo":"141","mpio_cdpmp":"08141","dpto_cnmbr":"ATLÁNTICO","mpio_cnmbr":"CANDELARIA"}},{"type":"Polygon","arcs":[[47,48,-33,49,-32]],"bbox":[-74.94499683423238,10.843643261763383,-74.82667331640391,10.9519353235616],"properties":{"dpto_ccdgo":"08","mpio_ccdgo":"296","mpio_cdpmp":"08296","dpto_cnmbr":"ATLÁNTICO","mpio_cnmbr":"GALAPA"}},{"type":"Polygon","arcs":[[50,-38,51,52,12]],"bbox":[-75.21675434442491,10.766971558586894,-74.98494803173229,10.886840868393064],"properties":{"dpto_ccdgo":"08","mpio_ccdgo":"372","mpio_cdpmp":"08372","dpto_cnmbr":"ATLÁNTICO","mpio_cnmbr":"JUAN DE ACOSTA"}},{"type":"Polygon","arcs":[[53,54,9,55]],"bbox":[-75.24775189700131,10.558160730081516,-75.05366937222081,10.702111404866137],"properties":{"dpto_ccdgo":"08","mpio_ccdgo":"421","mpio_cdpmp":"08421","dpto_cnmbr":"ATLÁNTICO","mpio_cnmbr":"LURUACO"}},{"type":"Polygon","arcs":[[18,56,57,-34,-49,58]],"bbox":[-74.8823382453726,10.81223653093228,-74.73731966370035,10.891737079529761],"properties":{"dpto_ccdgo":"08","mpio_ccdgo":"433","mpio_cdpmp":"08433","dpto_cnmbr":"ATLÁNTICO","mpio_cnmbr":"MALAMBO"}},{"type":"Polygon","arcs":[[-46,-42,59,3,60,61]],"bbox":[-75.07427798858917,10.36897953904677,-74.91028918909034,10.543758082262096],"properties":{"dpto_ccdgo":"08","mpio_ccdgo":"436","mpio_cdpmp":"08436","dpto_cnmbr":"ATLÁNTICO","mpio_cnmbr":"MANATÍ"}},{"type":"Polygon","arcs":[[21,22,62,63]],"bbox":[-74.84005131441438,10.649018007677277,-74.7228415013798,10.750298254089723],"properties":{"dpto_ccdgo":"08","mpio_ccdgo":"520","mpio_cdpmp":"08520","dpto_cnmbr":"ATLÁNTICO","mpio_cnmbr":"PALMAR DE VARELA"}},{"type":"Polygon","arcs":[[64,65,-56,10,11,-53]],"bbox":[-75.27122771081777,10.673650670179915,-75.02958085151167,10.81192987168445],"properties":{"dpto_ccdgo":"08","mpio_ccdgo":"549","mpio_cdpmp":"08549","dpto_cnmbr":"ATLÁNTICO","mpio_cnmbr":"PIOJÓ"}},{"type":"Polygon","arcs":[[66,67,68,-35,-58]],"bbox":[-74.89612584301851,10.707393524269767,-74.80755415325534,10.813042803561405],"properties":{"dpto_ccdgo":"08","mpio_ccdgo":"558","mpio_cdpmp":"08558","dpto_cnmbr":"ATLÁNTICO","mpio_cnmbr":"POLONUEVO"}},{"type":"Polygon","arcs":[[69,-63,23,24,-44,-45,70,-69]],"bbox":[-74.87558492906923,10.48293618290602,-74.72420909024524,10.72592056669202],"properties":{"dpto_ccdgo":"08","mpio_ccdgo":"560","mpio_cdpmp":"08560","dpto_cnmbr":"ATLÁNTICO","mpio_cnmbr":"PONEDERA"}},{"type":"Polygon","arcs":[[71,14,-30]],"bbox":[-74.98128871598094,10.945285297176078,-74.82694074095929,11.048302130789716],"properties":{"dpto_ccdgo":"08","mpio_ccdgo":"573","mpio_cdpmp":"08573","dpto_cnmbr":"ATLÁNTICO","mpio_cnmbr":"PUERTO COLOMBIA"}},{"type":"Polygon","arcs":[[72,-61,4,5,6,7,8,-55]],"bbox":[-75.2421664474271,10.398535977562315,-75.02256011065293,10.607539760201158],"properties":{"dpto_ccdgo":"08","mpio_ccdgo":"606","mpio_cdpmp":"08606","dpto_cnmbr":"ATLÁNTICO","mpio_cnmbr":"REPELÓN"}},{"type":"Polygon","arcs":[[19,73,-67,-57]],"bbox":[-74.81709003898295,10.77082375003716,-74.72511291753999,10.83445382115707],"properties":{"dpto_ccdgo":"08","mpio_ccdgo":"634","mpio_cdpmp":"08634","dpto_cnmbr":"ATLÁNTICO","mpio_cnmbr":"SABANAGRANDE"}},{"type":"Polygon","arcs":[[-47,-62,-73,-54,-66,74,-36,-71]],"bbox":[-75.06332373718182,10.516840980643602,-74.8410600804587,10.725772405482395],"properties":{"dpto_ccdgo":"08","mpio_ccdgo":"638","mpio_cdpmp":"08638","dpto_cnmbr":"ATLÁNTICO","mpio_cnmbr":"SABANALARGA"}},{"type":"Polygon","arcs":[[-41,75,1,2,-60]],"bbox":[-75.03334510601259,10.289565130687443,-74.91685970886218,10.394921533169356],"properties":{"dpto_ccdgo":"08","mpio_ccdgo":"675","mpio_cdpmp":"08675","dpto_cnmbr":"ATLÁNTICO","mpio_cnmbr":"SANTA LUCÍA"}},{"type":"Polygon","arcs":[[20,-64,-70,-68,-74]],"bbox":[-74.84941455897334,10.68620991690283,-74.72511291753999,10.78281791679778],"properties":{"dpto_ccdgo":"08","mpio_ccdgo":"685","mpio_cdpmp":"08685","dpto_cnmbr":"ATLÁNTICO","mpio_cnmbr":"SANTO TOMÁS"}},{"type":"Polygon","arcs":[[-48,-31,17,-59]],"bbox":[-74.83911702103106,10.874471130194088,-74.71832913514802,10.945374883023758],"properties":{"dpto_ccdgo":"08","mpio_ccdgo":"758","mpio_cdpmp":"08758","dpto_cnmbr":"ATLÁNTICO","mpio_cnmbr":"SOLEDAD"}},{"type":"Polygon","arcs":[[28,0,-76,-40]],"bbox":[-74.94134428872295,10.253286307986325,-74.86841862800947,10.354001474436478],"properties":{"dpto_ccdgo":"08","mpio_ccdgo":"770","mpio_cdpmp":"08770","dpto_cnmbr":"ATLÁNTICO","mpio_cnmbr":"SUAN"}},{"type":"Polygon","arcs":[[-50,-39,-51,13,-72]],"bbox":[-75.07435584637112,10.815010246600853,-74.91839993889627,10.980788857733806],"properties":{"dpto_ccdgo":"08","mpio_ccdgo":"832","mpio_cdpmp":"08832","dpto_cnmbr":"ATLÁNTICO","mpio_cnmbr":"TUBARÁ"}},{"type":"Polygon","arcs":[[-75,-65,-52,-37]],"bbox":[-75.04660800991063,10.680586682156111,-74.92602323128483,10.791966010089782],"properties":{"dpto_ccdgo":"08","mpio_ccdgo":"849","mpio_cdpmp":"08849","dpto_cnmbr":"ATLÁNTICO","mpio_cnmbr":"USIACURÍ"}}]}},"arcs":[[[2016124,4203491],[-46,359],[-179,244],[-1845,2106],[-1337,1856],[-4414,5704]],[[2008303,4213760],[-6094,7780],[-1984,2737],[-1898,1253],[-3317,3579],[-484,350],[-1507,813],[-3139,2885],[-991,833],[-456,286],[-449,183],[-3406,677],[-1920,135]],[[1982658,4235271],[-638,154],[-711,340],[-1387,1043]],[[1979922,4236808],[-3126,1696],[-2954,2325],[-600,753],[-3814,5451],[-650,708],[-893,700]],[[1967885,4248441],[-1518,592],[-1149,245],[-783,-65],[-1067,-378]],[[1963368,4248835],[-5377,-1912],[-961,-195],[-1999,-163],[-725,-170],[-1917,-1009]],[[1952389,4245386],[-2020,1795],[74,354],[282,195],[-1277,651],[-80,103],[61,113],[-436,329],[-480,-34],[-189,449],[109,158],[-369,88],[-316,-87],[-25,633],[-251,771],[-296,224],[-212,321],[-997,418],[-254,372],[-624,568],[-100,308],[63,619],[-110,1129],[-178,233],[-100,-16],[-123,107],[-21,691],[-216,165],[-377,88],[-142,233],[-310,215],[-280,475],[-38,254],[103,416],[-266,567],[-277,235],[-665,249],[-909,650],[-336,144],[-248,235],[-76,457],[-252,130],[16,98],[-204,336],[-847,476],[-536,177],[-358,278],[-757,161],[-140,-559],[-398,-425],[-1814,-442],[-758,10],[-420,-124],[-338,44],[-754,-99]],[[1932923,4260322],[-829,-331],[-533,713],[-2412,1952],[1462,3597],[-431,106],[-45,-80],[-228,-18],[-55,127],[-232,-117],[-106,169],[-508,41],[-125,80],[-61,-91],[-189,65],[27,212],[-200,169],[215,212],[-78,206],[-433,326],[-149,-49],[-129,94],[-332,52],[-328,-172],[-793,-39],[-23,100],[-445,218],[-393,97],[-1365,1244],[-587,81],[-152,-101],[-105,-419],[-101,-96],[-349,-87],[10,-697],[-387,16],[-311,-99],[-83,56],[-76,517],[-127,150],[-756,281],[-407,14],[-163,813],[163,768],[-548,1361],[-170,39],[-298,671],[-268,227],[-80,408],[-730,446],[-75,1245],[-367,374],[155,869]],[[1918393,4276042],[462,500],[379,603],[265,717],[382,349],[-597,485],[-172,1082],[283,982],[208,245],[-105,411],[83,620],[386,1110],[453,747],[961,817],[366,892],[778,292],[698,1033],[1,625],[-271,518],[-517,416],[-33,595],[51,137],[287,192],[418,531],[663,258],[-203,405],[174,174],[-51,157],[-102,-39],[-306,356],[207,106],[-88,467],[-169,77],[-126,250],[-112,-51],[-188,70]],[[1922858,4292171],[-202,-93],[-82,106],[-171,-7],[-33,-226],[-209,194],[-252,-393],[-99,22],[-63,236],[-252,-120],[-81,-161],[-160,-16],[-335,210],[-39,-119],[-212,-16],[-54,332],[-120,202],[164,172],[-139,4],[-43,193],[-172,13],[-144,234],[34,140],[-185,782],[-213,395],[-23,249],[377,836],[335,1139],[400,540],[454,854],[876,683],[113,382],[76,1052],[299,751],[-23,450],[-152,561],[103,67],[146,-106],[82,27],[179,397],[-131,387],[219,264],[88,338],[-521,503],[83,391],[150,164],[17,264],[231,382],[-662,927],[113,197],[-12,155],[162,149],[118,356],[-151,369],[-13,340],[-321,209],[-79,273],[-208,247],[134,115],[177,391],[158,43],[229,-65],[418,269],[181,270],[-13,235],[103,169],[-189,167],[-72,259],[492,279],[102,253],[-331,380],[89,541],[-110,574],[55,237],[-186,-15],[129,431],[226,226],[-551,646],[-308,865],[-393,585],[-216,927],[-22,895],[-549,445],[-884,447],[-559,474],[-462,225],[-1444,1249],[341,379],[137,-49],[382,965],[-167,495],[-76,824],[-195,404],[-28,279],[-154,202],[132,569],[-700,-199],[-221,1120],[-336,1024],[-279,606],[-292,254],[648,1002],[248,550],[323,266],[-197,514],[80,1146],[-635,1203],[-752,566]],[[1916584,4331689],[-114,366],[17,251],[357,1034],[-110,164],[-376,204],[6,106],[758,2242],[23,479],[-180,283],[380,491],[178,413],[-150,260],[-146,35],[-397,-92],[-207,341],[-333,102],[-122,427],[286,293],[32,142],[-86,271],[-340,42],[1365,2271],[91,5],[175,-175],[-152,-43],[-85,-318],[-189,-235],[62,-61],[148,45],[384,410],[5,163],[147,63],[61,319],[300,238],[-82,194],[-501,-58],[-251,320],[272,451],[-191,316],[405,742],[-29,364],[443,507],[329,175],[-35,160],[134,234],[-6,212],[-348,709],[11,108],[314,92],[264,275],[408,221],[478,689],[919,794],[393,455],[8,110],[149,-58],[66,110],[197,-72],[45,483],[-161,91],[304,12],[-93,367],[94,178],[66,91],[134,-140],[283,131],[-60,1255],[201,465],[108,1521],[-742,845],[-70,236],[-842,404],[-665,175],[-275,-235],[-937,53],[-535,-69],[-852,345],[-480,-320],[-883,-122],[-305,193],[-374,-528],[-1066,595],[446,1036],[-1008,37],[-812,154],[-1494,113],[-478,-1599],[-308,105],[-391,380],[-283,160],[-225,40],[-296,-72]],[[1909765,4355655],[-116,242],[50,88],[256,240],[325,107],[447,324],[263,588],[-64,421],[776,656],[295,709],[-85,535],[41,297],[344,600],[193,1170],[-44,469],[387,225],[869,-434],[743,-99],[1757,-467],[264,-132],[665,-17],[2248,-548],[2305,-202],[1464,183],[1357,412],[610,518],[529,675],[240,595],[-109,452]],[[1925775,4363262],[-34,580],[609,787],[470,888],[126,394],[243,0],[597,810],[219,214],[415,204],[696,-172],[286,91],[366,-74],[1170,52],[774,70],[1212,251],[264,494],[484,249],[609,821],[808,261],[333,304],[138,270],[795,620],[69,146],[1415,113],[282,151],[1486,-216],[1951,43],[413,166],[919,112],[449,148],[768,476],[542,476],[562,238],[318,293],[202,1185],[374,421],[36,455],[205,275],[241,1021],[542,548],[74,347],[280,201],[75,165],[187,91],[2362,664],[281,147],[524,549],[281,128],[205,201],[36,656],[-151,219],[-188,72],[-20,218],[56,37],[507,2],[1013,-297],[575,25],[300,141],[83,140],[301,32],[243,173],[763,-91],[390,46],[347,251],[524,-5],[959,139],[1944,502],[710,381],[304,452],[94,728],[-326,309],[149,142],[1378,289],[224,-34],[770,117],[1893,658],[392,247],[136,322],[239,266],[104,312],[-11,468],[278,214],[24,295],[340,697],[255,-47],[1774,92]],[[1967807,4387088],[742,21],[1317,214],[476,143],[48,85],[749,98],[680,241],[81,286],[290,307],[1067,366],[1255,681],[1831,1497],[835,1452],[284,89],[754,1498],[1447,3462],[98,659],[-124,529],[106,352],[629,345],[265,342],[619,1737],[148,1321],[102,225],[424,185],[141,238],[-103,930],[-151,217],[-262,751],[-364,352],[-470,277],[-380,52],[-374,-80],[-314,-322],[-127,13],[-239,-148],[-248,-626],[68,-371],[-439,-14],[-388,-294],[-280,-347],[-797,218],[-509,-154],[-196,-239],[-157,-591],[-156,-139],[-86,-416],[-415,-158],[-114,-175],[-200,102],[-150,-77],[-117,-207],[-17,-415],[-187,66],[-380,-136],[-397,72],[-328,-32],[-192,-355],[-130,-640],[-450,-118],[-276,-412],[-215,-53],[-133,434],[249,1064],[1522,2192],[613,668],[1269,983],[2351,652],[149,105],[357,298],[1976,2748],[1230,941],[3247,2040],[800,720],[1012,546],[1209,352],[2931,14],[3987,339]],[[1995300,4414088],[1574,443],[450,79],[620,-27],[264,78],[513,336],[613,185],[448,373],[711,252],[712,533],[268,329],[15,110],[-112,96],[153,-83],[398,287],[379,467],[128,363],[350,184],[-455,-52],[20,259],[-163,80],[309,-104],[266,239],[246,702],[-188,98],[145,-60],[182,304],[-57,107],[150,519],[-171,50],[151,-23],[152,652],[-142,110],[149,-22],[312,738],[-55,119],[-301,77],[368,-58],[43,297],[110,-43],[262,205],[448,522],[345,-70],[693,258],[667,1034],[136,373],[372,456],[-82,160],[72,288],[247,67],[446,-58],[526,73],[674,204],[-40,104],[215,-2],[1139,492],[121,23],[32,-63],[742,443],[280,343],[902,546],[670,587],[227,284],[76,420],[181,272],[192,1070],[-60,14],[-145,555],[-363,431],[-159,473],[163,1327],[190,239],[292,55],[837,-50],[510,-209],[1022,9],[1021,-226],[739,0],[1126,-277],[849,-18],[1078,109],[686,-58],[1087,225],[395,-29],[1682,229],[452,152],[1087,571],[1195,321]],[[2027082,4433956],[1452,370],[1293,476],[1413,301],[2632,1247],[839,538],[316,14],[413,573],[221,459],[95,500],[-523,870],[-508,2299],[-101,53],[4,416],[-1315,5888],[-70,253],[-165,25],[152,129],[-496,2160],[800,-1]],[[2033534,4450526],[158,-785],[528,-1347],[339,-1280],[582,-4802],[390,-1838],[355,-962],[633,-1234],[658,-1089],[734,-989],[1258,-1360],[1366,-1133],[596,-380],[1676,-830],[1110,-865],[770,-487],[2400,-1195],[965,-563],[879,-712],[1967,-2036],[2418,-1434],[814,-842],[1224,-922],[1441,-1401],[1785,-2109],[1155,-1648],[611,-1168],[544,-1453],[183,-768],[155,-1365],[648,-2343],[-73,-1458],[91,-819],[-329,-1460],[-153,-1392],[58,-1967]],[[2061470,4404090],[181,-1108],[837,-1574],[1074,-664],[1423,-1087],[443,-450],[715,-1038],[786,-694],[1172,-769],[1843,-899],[1073,-714],[1061,-375],[472,-421],[414,-693],[3,-234],[-131,-388],[-472,-634],[-1881,-1448],[-1479,-1010],[-809,-913],[-583,-1316],[-340,-1340],[-142,-1078],[9,-1285]],[[2067139,4383958],[217,-2721],[-5,-1237],[-149,-1031],[-688,-2085],[-325,-1757],[-89,-2286],[265,-942]],[[2066365,4371899],[321,-1886],[567,-5901],[438,-2163],[658,-1660],[1962,-3867],[537,-1742],[129,-985]],[[2070977,4353695],[-45,-1246],[-640,-2073],[-97,-1292],[4,-1869]],[[2070199,4347215],[42,-2099],[410,-1258],[68,-530],[8,-2391]],[[2070727,4340937],[11,-6124],[146,-550],[57,-680],[14,-4009],[336,-1553],[80,-858],[269,-944],[8,-1300],[-236,-1620],[-2634,-1316],[-1116,-707],[-2190,-1589],[-788,-988]],[[2064684,4318699],[-190,-565],[10,-854],[129,-389],[369,-638],[1010,-1317],[625,-1076],[239,-249],[351,-173],[1135,-56],[585,-454],[521,-507],[488,-726],[567,-966],[425,-959],[293,-2034],[3,-1354],[-234,-1477],[-339,-691]],[[2070671,4304214],[-273,-28],[-695,-570],[-861,-1221],[-500,-976],[-517,-2106],[-171,-235],[-435,-194],[-111,-230],[-68,-596],[295,-3379],[441,-2341],[50,-1818],[-137,-1546],[-418,-1183],[-373,-683],[-1634,-1185],[-2382,-1051],[-1402,-457],[-2896,-1416],[-1120,-1048],[-1214,-866],[-1680,-1367],[-514,-456],[-1305,-1503],[-559,-820],[-1812,-2286],[-130,81],[-922,-1011],[-1239,-2199],[181,-122],[-692,-883],[-653,-638]],[[2046925,4269881],[-1016,-2224],[-387,-3070],[-207,-3998]],[[2045315,4260589],[22,-1180],[-95,-1343],[-527,-2284],[-255,-767],[-942,-1997],[-1239,-1365],[-727,-1056],[-726,-1536],[-1193,77],[-321,-55],[-1087,-294],[-665,-346],[-2668,-1733],[-543,-454],[-2136,-1936],[-1006,-1276],[-640,-1145],[-464,-1026],[-363,-1177],[-119,-885],[-188,-507],[-43,-302],[68,-539],[634,-1303]],[[2030092,4236160],[268,-840],[465,-2905],[-58,-345],[-172,-456],[-1952,-3036]],[[2028643,4228578],[-3479,-6421],[-2303,-3448],[-1048,-1434],[-1116,-1809],[-975,-2218],[-1324,-3645],[-1391,-5438],[-93,-934],[-148,114],[-642,146]],[[2013878,4404066],[-219,1159],[385,956],[-40,441],[159,236],[730,482],[29,226],[696,16],[242,307],[1091,-168],[323,252],[-35,309],[-125,187],[57,134],[485,-186],[1591,117],[352,561],[-933,774],[-538,329],[-500,762],[-342,368],[-722,329],[169,306],[1010,-252],[261,586],[1793,1112],[522,778],[221,598],[589,231],[537,1],[1445,-899],[92,-280],[566,-546],[567,-773],[164,272],[73,613],[-488,421],[332,2],[173,121],[-317,403],[256,65],[176,147],[136,-53],[442,164],[40,106],[-75,164],[390,67],[34,133],[224,98],[89,304],[242,57],[-38,242],[212,301],[614,173],[8,159],[-240,91],[-101,138],[202,434],[-180,123],[-361,-166],[-91,145],[197,521],[-116,275],[-177,34],[-50,119],[431,220],[96,205],[-385,44],[-66,189],[131,179],[-2076,1489],[2575,2624],[884,-581],[553,729],[297,537],[703,510],[24,137],[3665,446],[629,-30],[623,-166],[2083,-1077],[297,-38],[517,200],[184,175],[2028,4859],[460,830],[1042,1011],[69,148],[12,209],[-163,159],[-2128,-1177],[-879,-118],[-687,-529],[-2944,-767],[-1024,35],[-1742,416],[-428,-904],[-238,-116],[-297,17],[-272,-270],[-346,-632],[-237,342],[-407,-290],[-277,-371],[-334,-241],[-302,-468],[-473,327],[1007,1219],[-898,244],[-306,366],[169,271],[-357,473],[-154,71],[141,690],[121,131],[516,1277],[45,348],[-161,214],[-143,416],[389,345],[35,133],[-127,55],[236,679],[-412,32],[-119,184],[-105,-2],[-91,-357],[-133,-152],[-75,222],[260,354],[-112,69],[-176,-140],[-39,76],[241,292],[-355,-107],[-19,99]],[[2061470,4404090],[-951,-357],[-522,350],[-413,-37],[-504,-473],[-130,96],[-20,152],[-253,-45],[-186,243],[-260,59],[-370,-26],[-75,-188],[-455,-128],[-723,-16],[-752,-469],[-75,-371],[-302,-152],[-700,-1797],[55,-109],[-88,-416],[-72,-18],[1,459],[-369,498],[-157,498],[-1820,-1127],[-298,53],[-418,-91],[-263,-554],[-225,-174],[-247,22],[-427,-168],[-308,-539],[-314,-203],[-91,-445],[-209,-38],[-50,-559],[-73,-22],[70,-144],[194,-124],[-234,-88],[-76,-274],[-298,-192],[2,-67],[-468,147],[-767,6],[-517,172],[-662,-211],[-277,-11],[-299,54],[-5,121],[-421,5],[-4,66],[-162,-7],[-8,77],[-927,-48],[-2,-75],[-307,-100],[-316,-293],[-583,-288],[-360,-366],[-205,-81],[-164,36],[-117,-320],[-333,-346],[-802,-348],[-383,-337]],[[2040975,4394962],[-467,241],[-342,43],[-498,214],[-313,18],[-479,437],[42,210],[-444,188],[-1057,753],[-481,172],[538,1233],[-333,201],[-608,176],[-588,444],[-1528,1823],[20,110],[-426,968],[-672,-53],[-804,-187],[-886,-405],[-730,239],[-2594,525],[-2484,1522],[80,200],[-538,-39],[-1263,114],[-2535,56],[14,82],[-161,13],[-8,229],[-62,-9],[34,278],[78,12],[83,307],[-69,489],[-450,17],[-532,-119],[-318,41],[-570,-141],[-1095,95],[92,-252],[-117,-51],[-143,291],[-435,-2],[-42,551],[-4006,-1930]],[[2006075,4378856],[483,-54],[209,76],[618,-20],[462,-285],[510,12],[275,-217],[412,-605],[288,-86],[379,-271],[970,54],[303,199],[-87,280],[105,193],[736,165],[299,-40],[314,-233],[34,-413],[146,-277],[528,-420],[309,-399],[-237,-401],[9,-153],[805,-216],[1097,-33],[72,-435],[68,-65],[180,30],[294,-308],[486,15],[257,346],[934,531],[440,439],[911,-93],[70,-59],[-24,-813],[727,-733],[1222,1952],[77,257],[-72,407],[299,40],[461,-738],[467,-123],[651,122],[2450,789],[2625,40]],[[2027637,4377313],[-55,-624],[226,-583],[-81,-1578],[519,-1276],[925,-665],[-734,-688],[-191,-474],[-700,-1043],[-348,-867],[-370,-538],[-566,-606],[-351,-674],[-1380,-1987],[871,-24]],[[2025402,4365686],[-91,-426],[147,-161],[-309,-303],[9,-242],[1072,-378],[-345,-454],[-892,-159],[-1060,-328],[-229,-1916],[1295,-5],[1210,-758],[-303,-708],[-395,-257],[-755,516],[-367,-929],[-433,33],[-223,-688],[-147,-111],[-78,-550],[-264,-608],[-1,-81],[1079,-233],[739,-417],[-661,-1292],[-79,28],[-268,-515],[-6,-165],[-178,-200],[-97,-475],[434,-558],[-117,-918],[196,-846],[-682,76],[-443,288],[-1160,51],[-603,109],[-35,-413],[-474,-966],[-53,-1096],[-323,-782],[45,-457],[-82,-2167],[106,-228],[315,-295],[-166,-147],[227,-98],[-38,-125],[62,-108],[629,-159],[-120,-372],[-642,-473],[-62,-184],[102,-82],[123,139],[239,-81],[226,50],[233,-142],[160,-351],[-97,-443],[529,-204],[61,-354],[117,-148],[-12,-133],[-279,-309],[840,-771],[189,-300],[120,-9],[244,298],[261,163],[157,283],[231,91],[86,-158],[-108,-101],[-51,-401],[151,-125],[134,-3],[167,-223],[204,-25],[175,85],[299,331],[968,-586],[32,-93],[-146,-268],[4,-155],[240,75],[141,272]],[[2026526,4340358],[-109,-454],[-623,-667],[-2293,-761],[-101,-196],[49,-688],[-520,-491],[-1137,570],[-465,44],[-517,385],[-439,451],[-761,-336],[-271,-492],[-713,639],[-141,-283],[-503,-491],[-182,-354],[-27,-766],[222,-435],[28,-414],[-360,-1304],[-62,342],[-425,689],[-91,-50],[-128,-439],[-520,-311],[-273,-275],[-832,61],[-1425,455],[-113,67],[233,203],[341,998],[-99,41],[-1657,195],[-67,-764],[-791,40],[-629,386],[-788,221],[-627,26]],[[2009710,4336200],[-798,-66],[-555,78],[-1377,646],[-107,125],[3,241],[174,597],[527,480],[289,515],[409,382],[34,401],[128,150],[83,445],[527,708],[55,546],[-82,708],[-520,536],[603,797],[784,538],[165,27],[-6,344],[-228,195],[-55,437],[-201,24],[-233,205],[-571,264],[33,142],[206,351],[817,883],[671,876],[688,352],[354,374],[64,189],[27,306],[-86,216],[-213,174],[-779,222],[-370,184],[-80,189],[-146,98],[27,301],[-256,217],[92,451],[-132,317],[393,181],[-58,303],[168,375],[-353,352],[-63,221],[-273,28],[-63,212],[-243,138],[30,250],[-495,58],[-308,-131],[-280,280],[-399,171],[-83,636],[-297,70],[-109,314],[-191,174],[2,83],[156,84],[-19,115],[-172,106],[-25,-70],[-327,-107],[-511,190],[-81,481],[-54,66],[-117,-108],[-63,55],[60,208],[-124,192],[-466,-62],[-175,-129],[-118,108],[-133,-189],[-601,-71],[82,219],[-77,192],[-285,-57],[-181,171],[-263,3],[-65,250],[-250,388],[97,263],[-94,146],[58,97],[-173,261],[-176,-181],[-356,218],[-350,-272],[-935,-195],[-578,291],[-305,-21],[-320,223],[-197,-44],[-552,124],[-90,49],[37,116],[-535,251],[-92,196],[-162,39],[80,513],[-201,14],[37,118],[-69,79],[-309,35],[-138,132],[-97,-91],[134,-115],[-185,-56],[-13,-98],[-99,-22],[-201,122],[-260,-271],[-182,-69],[-504,166],[-109,-77],[-109,59],[-35,-124],[-873,254],[-322,-116],[-398,-46],[-89,77],[-360,-84]],[[1994219,4359076],[-659,122],[-33,381],[-234,296],[-418,41],[-190,-83],[-232,350],[-482,-52],[-377,319],[81,423],[-93,170],[267,52],[274,185],[45,372],[321,20],[-59,230],[169,266],[-181,369],[97,323],[-120,129],[-17,257],[-379,169],[-273,245],[-23,139],[-103,-9],[-310,-324],[-214,125],[100,361],[189,16],[139,139],[377,41],[255,220],[-74,294],[125,110],[106,-160],[127,83],[16,145],[-187,225],[94,216],[-176,106],[115,218],[-151,309],[-150,-6],[-150,-221],[-366,-21],[-115,396],[83,298]],[[1991433,4366360],[263,225],[412,154],[-175,140],[93,97],[-45,130],[-166,12],[32,235],[552,-44],[-27,239],[-138,-7],[-7,79],[505,-40],[37,407],[324,-198],[334,112],[404,-140],[354,-484],[-33,-212],[-113,-140],[241,-335],[187,-5],[338,227],[418,-70],[118,-121],[83,312],[339,60],[155,-183],[386,-234],[58,52],[-167,90],[94,161],[96,-9],[102,137],[357,-116],[104,98],[-45,74],[163,-61],[-132,-181],[179,-152],[60,56],[-105,117],[87,128],[214,-78],[205,61],[93,221],[220,-112],[-157,-106],[48,-87],[382,-160],[94,165],[13,273],[184,-68],[-126,246],[-167,-96],[23,245],[216,84],[11,121],[686,205],[576,652],[198,385],[-72,273],[81,131],[207,101],[-131,99],[107,638],[-120,14],[6,317],[-206,490],[-18,429],[113,266],[-94,257],[753,288],[39,446],[144,388],[811,303],[138,414],[332,459],[703,353],[462,343],[92,234],[166,127],[972,371],[792,1397],[653,1387],[100,451],[177,-41]],[[2028643,4228578],[-820,644],[-1013,568],[-316,-175],[-702,94],[-979,442],[-143,452],[-146,181],[-1323,664],[355,771],[-595,121],[-328,-612],[-1489,-57],[-45,-885],[-103,-463],[-508,146],[197,1283],[-151,149],[-76,349],[-170,147],[-280,63],[-55,-53],[44,-229],[-640,-122],[-653,9],[-551,148],[-191,-1002],[99,-195],[-1398,-26],[-684,-283],[-305,184],[-440,-473],[-381,284],[-765,-1087],[292,-173],[189,-232],[191,-596],[-438,-179],[-126,-454]],[[2014196,4227981],[-3038,428],[-1029,237],[-993,365],[-591,519],[796,1307],[314,284],[352,120],[510,41],[843,-245],[40,173],[315,228],[125,193],[56,557],[95,166],[1328,1383],[229,475],[-566,375],[-326,-40],[-264,-187],[-158,499],[147,196],[-183,-81],[-769,1],[-1760,-909],[-676,719],[-105,861],[-318,510],[-168,628],[-312,615],[-105,405],[-256,-11],[-15,296],[-209,403],[-66,630],[-807,-225],[-892,-8],[-1803,430],[-815,397],[-2284,95],[-73,727],[63,378]],[[2000828,4240916],[560,266],[271,46],[201,-31],[29,-317],[213,-33],[1210,687],[312,1022],[780,816],[176,465],[249,-41],[203,757],[-605,1279],[1043,451],[319,349],[249,318],[191,626],[573,393],[259,874],[169,189],[185,73],[1733,-4],[456,125],[660,-674],[68,-212],[791,-754],[16,-899],[495,-602],[-309,-428],[859,-329],[142,329],[530,190],[240,717],[-456,140],[-621,405],[483,646],[365,1335],[116,-63],[749,-25],[693,268],[-68,86]],[[2014357,4249356],[521,98],[1992,842],[398,27],[49,350],[386,-135],[808,204],[760,-648],[70,-385],[260,-261],[636,-432],[988,-508],[475,-152],[392,1209],[122,1295],[122,64],[237,-185],[299,-25],[581,378],[374,147],[254,-1],[468,-196],[867,1232],[319,159],[902,-387],[569,131],[530,663],[363,143],[596,67],[249,148],[351,798],[1136,1198],[1211,-1094],[291,90],[332,-88],[398,-547],[445,131],[281,420],[159,537],[87,729],[-60,688],[280,916],[-235,576],[-11,734],[-245,618],[-60,367],[823,-258],[452,-39],[287,1091],[-1,1107],[217,459],[159,623],[579,659],[359,734],[523,211],[298,310],[460,-150],[627,1131],[386,969],[393,328],[1121,1467],[302,914],[403,488],[-67,410],[108,287],[465,136],[134,218],[233,5],[1253,2749]],[[2042818,4273120],[945,2],[563,-150],[869,-812],[1235,-1740],[495,-539]],[[2032203,4293618],[147,-229],[1046,-950],[292,-106],[312,-236],[375,-47],[453,-381],[550,-267],[403,-622],[285,-162],[343,-665],[64,-281],[93,-67],[33,-270],[167,-188],[239,-117],[607,-72],[2,-102],[283,16],[28,110],[329,-242],[92,-176],[-4,-344],[-343,-797],[-15,-188],[22,-275],[230,-429],[-181,-118],[-17,-256],[-264,-47],[-61,-142],[-112,-37],[32,-193],[-478,-160],[-138,-481],[297,-537],[155,-823],[218,-100],[189,-468],[213,-147],[1,-382],[409,-307],[69,-471],[204,-185],[486,-720],[245,-663],[149,-153],[111,-423],[531,-355],[397,-556],[1520,-1274],[-418,-1080],[214,-99],[61,188],[1516,-1405],[74,-330],[-388,-910],[-380,172],[-77,-233],[367,-149],[-362,-567]],[[2014357,4249356],[-62,842],[195,1236],[-375,-312],[-535,-137],[-73,-92],[-110,207],[42,553],[556,1731],[94,668],[-965,1934],[-858,382],[-378,69],[-343,-117],[-36,416],[370,658],[-305,312],[-186,340],[-192,-203],[-184,-66],[-819,360],[-453,-63],[617,790],[-126,946],[-5,862],[74,-18],[41,192],[61,1373],[249,1418],[-30,1507],[813,-213],[1588,-774],[1168,-271],[308,570],[249,1298],[208,652],[-8,552],[236,793],[-365,64],[-196,843],[-130,1381],[106,460],[-186,1124],[15,394],[-210,289],[-316,167],[-92,251],[302,747],[789,1132],[21,1127],[134,892],[626,1037],[193,735],[222,470],[-49,1339],[30,255],[157,-27],[40,185],[-1388,557],[-832,122],[-524,375],[228,392],[179,1159],[492,242],[155,425],[-386,141],[-544,-70],[-751,717],[-253,63]],[[2012650,4284739],[10,303],[-99,-2],[147,107],[78,197],[-348,440],[10,384],[220,195],[66,340],[281,126],[338,805],[671,485],[29,174],[-93,166],[175,235],[133,-100],[616,93],[509,-74],[233,213],[273,15],[163,-110],[84,-183],[138,47],[137,-109],[190,96],[123,-250],[145,-52],[464,335],[200,-183],[172,9],[111,164],[159,63],[520,-197],[222,-6],[179,156],[146,-94],[-48,403],[91,119],[2621,-746],[-57,268],[-407,615],[-126,356],[-408,481],[-184,475],[418,179],[632,110],[1233,-128],[1963,285],[-311,697],[1434,198],[399,-45],[750,-236],[367,36],[1363,-191],[460,7],[301,-123],[17,186],[-626,644],[-390,657],[1164,1238],[1218,-740],[765,-830],[512,1176]],[[2040975,4394962],[-266,-528],[-243,-260],[100,-420],[-59,-429],[-499,-263],[-244,-356],[-750,-498],[-422,-770],[-395,-276],[-129,-632],[41,-574],[-91,-712],[-243,-734],[-49,-410],[-382,-947],[-44,-446],[87,-13]],[[2037387,4386694],[-271,-434],[-473,-288],[-356,-619],[-588,-584],[-168,-417],[163,-293],[536,-165],[46,-321],[-80,-313],[62,-145],[1119,-375],[-1008,-855],[-775,-383],[-596,-193],[-633,-18],[-837,-372],[-1308,-287],[-924,-431],[-477,-2],[-229,-158],[-172,-443],[-1353,-19],[-336,-417],[-494,-350],[-406,-796],[-192,-703]],[[2006075,4378856],[-54,326],[268,316],[331,151],[100,250],[199,216],[-1,236],[-136,208],[28,160],[514,194],[642,426],[599,530],[672,43],[201,291],[-446,396],[-94,305],[377,584],[562,19],[147,136],[-142,-79],[-61,79],[339,246],[195,437],[150,-66],[38,101],[-23,185],[125,483],[-49,399],[93,202],[-209,534],[77,334],[-85,224],[24,224],[-98,-39],[-486,109],[-193,306],[-68,455],[29,102],[372,279],[94,427],[453,401],[65,336],[346,349],[85,754],[-49,479],[1061,10207],[520,822],[-22,1241],[515,556],[798,336]],[[1967807,4387088],[81,-131],[827,-508],[285,-275],[995,-549],[473,-469],[208,-561],[196,-221],[372,74],[645,2012],[304,351],[337,157],[443,23],[366,-85],[255,-193],[68,-387],[-20,-785],[-196,-926],[36,-162],[83,-72],[76,56],[149,-170],[170,16],[22,488],[243,568],[135,-98],[-62,-455],[124,26],[242,243],[337,-1],[240,-139],[37,-128],[-81,-154],[220,-309],[-57,-183],[-156,-137],[129,-110],[-66,-259],[270,-139],[-26,-141],[-265,-17],[157,-231],[-119,-229],[40,-139],[158,6],[-11,186],[101,36],[273,-173],[90,-171],[160,-58],[409,152],[28,-135],[233,37],[243,-381],[292,-78],[-288,-317],[175,-179],[-176,-339],[255,0],[220,-146],[499,71],[133,-199],[70,-435],[57,-53],[169,123],[194,-572],[126,-97],[267,103],[-51,329],[122,122],[221,-64],[97,-137],[-89,-402],[222,-73],[123,85],[8,166],[209,-213],[57,-276],[99,-99],[278,194],[212,-222],[580,-82],[18,-233],[258,13],[76,110],[94,-1090],[398,-421],[301,170],[1064,-68],[401,157],[779,8],[514,-281],[389,-402],[320,-191],[955,109],[288,-238],[-25,-128],[-147,-124],[-184,-1462],[286,-22],[150,-305],[130,-96],[330,-124],[222,21],[-210,-1148],[49,-174],[232,-250],[49,-253],[-155,-649],[-298,-386],[94,-211],[384,-395],[828,-531],[1260,-123],[139,175],[426,-199],[466,-364],[16,-403],[-139,-89],[80,-798],[-591,-1589],[136,-208],[-20,-156],[-287,-151],[66,-474],[112,-159],[225,-59],[865,103]],[[1994219,4359076],[-379,-459],[-734,-227],[-1144,-841],[-370,1075],[-30,408],[-115,100],[-266,81],[-1401,-67],[-482,66],[-39,-292],[99,-429],[627,-358],[24,-761],[-118,-420],[-415,-717],[-497,-6],[-110,-1342],[-634,-71],[-886,240],[-1505,-125],[-2087,68],[87,241],[128,66],[-126,-12],[-208,-396],[127,-229],[149,-14],[64,-273],[-451,-449],[-229,-410],[-71,104],[-54,-82],[-65,-375],[140,-182],[-59,-136],[-393,-68],[-244,118],[-1043,213],[-806,-101],[-330,188],[-449,-108],[-676,205],[-223,259],[-174,58],[-414,-186]],[[1978437,4353430],[-688,472],[-69,78],[59,187],[-76,70],[-230,-119],[-852,129],[-329,-177],[-398,235],[-481,48],[-1187,-828],[-3,71],[-260,61],[-583,-9],[-146,-924],[-255,-152],[-907,-60],[-348,49],[-601,-246],[79,390],[-938,282],[-311,-66],[-605,243],[-758,646],[-99,225],[-1482,-106],[131,455],[-23,489],[-111,274],[-334,-23],[-614,-231],[-135,37],[-348,255],[-264,356],[-731,482],[-780,1168],[-725,483],[-127,-200],[-256,-54],[-1513,635],[-670,438],[-1555,-3],[-137,-253],[-351,54],[-20,175],[-1006,76],[-1086,416],[-949,155],[-230,1039],[331,653],[-1303,482],[-461,1194],[-54,582],[-528,734],[-246,495],[-283,-123],[-262,53],[-155,-141],[-1321,31],[-889,795],[-1585,354],[-613,102],[-1218,-14],[-197,-66],[-814,-963],[-671,-1168],[-953,0],[-30,508],[-1993,27],[-2008,128],[-61,-633],[-954,-107],[-707,-254],[-235,142],[-1087,-419],[-968,-135],[-675,90],[-2094,686],[-261,13],[-32,-603],[-2019,77],[-89,1005],[-217,139],[-633,-271],[-352,-398],[-308,-63],[-936,-14],[-1414,208],[-1065,-16]],[[1971066,4328422],[210,-387],[180,-111],[82,-531],[-273,-444],[55,-1044],[163,-502],[-34,-302],[568,-396],[595,-77],[117,-293],[147,-22],[-46,-198],[262,-379],[101,-770],[145,-185],[-228,-506],[-239,-306],[-32,-230],[-207,-137],[-125,16],[106,-729],[-125,-311],[-119,-6],[-411,-303],[-6,-95],[135,47],[10,-78],[-122,-89],[-153,-331],[-100,-49],[-160,66],[-35,-171],[-222,-69],[93,-250],[-194,-203],[111,-105],[-76,-811],[138,-233],[-64,-104],[60,-46],[-182,-635],[498,-869],[528,-390],[125,-206],[152,13],[236,-573],[127,-67],[62,59],[224,-211],[62,-200],[165,-179],[165,-40],[83,-158],[-113,-245],[219,-617],[-30,-513],[-297,-309],[-79,-795],[472,20],[-176,-1001],[304,-204],[-19,-460],[-328,-281],[-101,-621],[-381,-896],[-160,-137],[176,-950],[-1102,-4897]],[[1972003,4302386],[-1465,1383],[-633,428],[-966,437],[-3773,1410],[-1781,-2597],[-1949,-1621],[-938,239],[-1286,-198],[-591,148],[-1443,1078],[-1791,1859],[-650,-289],[-449,-58],[-437,-344],[-556,-207],[-136,-162],[31,-1168],[-639,-577],[-359,-686],[-427,-323],[-220,-280],[-90,-227],[0,-463],[-224,-422],[-96,-5],[-558,-1531],[-559,42],[-653,444],[-761,705],[-383,200],[-721,-976],[-76,-430],[-222,-372],[-32,-687],[-880,53],[-175,123],[-614,88],[-509,-58],[-616,415],[-417,21],[-974,346],[-718,-48],[-847,290],[-439,-204],[-254,-249],[-344,-868],[-449,-756],[24,-349],[-797,-689],[-799,-155],[-415,109],[-677,-170],[-440,-310],[-12724,-2406],[-1004,15],[-244,-163]],[[1916584,4331689],[857,-298],[468,76],[429,286],[854,817],[679,430],[574,253],[1295,227],[1155,-20],[582,-343],[406,-660],[483,-1046],[921,-1389],[1102,-1388],[369,-626],[564,-1675],[843,-936],[687,-166],[397,5],[535,393],[1697,2516],[273,279],[374,218],[874,123],[659,190],[214,-130],[558,-10],[659,98],[386,-54],[286,350],[520,249],[344,-300],[317,97],[466,-117],[324,116],[217,291],[410,39],[484,317],[921,181],[163,-136],[300,3],[75,-77],[-29,-115],[218,5],[86,-139],[183,35],[166,-81],[-11,151],[63,20],[167,-168],[568,-241],[761,-481],[130,193],[226,38],[153,-136],[162,192],[552,-234],[275,-334],[12428,1924],[2892,-122],[244,-322],[57,-468],[489,-514],[703,-225],[10278,-428]],[[2066365,4371899],[-3605,-7],[-685,-338],[-207,-277],[57,-567],[122,-187],[184,-103],[132,-301],[331,-231],[56,-168],[-171,-494],[-299,-400],[-40,-252],[-3892,715],[57,-208],[-83,-46],[-10415,-3523],[-1354,-47]],[[2046553,4365465],[-21151,221]],[[2037387,4386694],[820,91],[1284,334],[1096,492],[615,444],[789,269],[196,201],[192,-143],[496,1],[493,-113],[103,-138],[-500,-497],[-240,-485],[-14,-215],[-646,-1274],[-563,-828],[1462,-516],[1775,-179],[801,1009],[923,58],[164,88],[306,579],[261,992],[1037,-901],[894,-914],[-107,-184],[51,-44],[-211,-266],[56,-23],[-196,-491],[320,-76],[153,265],[478,339],[196,-178],[359,1151],[900,-364],[46,103],[253,-136],[-148,-196],[243,-209],[14,-114],[-213,-288],[114,-25],[300,221],[220,-156],[82,-87],[-157,-418],[526,-169],[159,221],[123,523],[282,-78],[235,56],[0,121],[184,115],[752,-840],[125,-53],[64,-249],[364,-2],[234,146],[-41,485],[1092,241],[133,477],[-999,126],[398,1082],[200,-204],[619,-65],[303,-169],[-85,-142],[1317,-148],[37,1129],[-163,990],[36,535],[728,13],[790,185],[311,-616],[671,-221],[1163,-614],[1035,-218],[852,146],[1814,-81],[-299,-486],[429,87],[30,120],[738,-42],[141,-451],[584,-955],[373,-910]],[[2000828,4240916],[-293,-76],[-433,125],[-690,-122],[-443,192],[-283,248],[-254,449],[95,390],[-111,386],[13,287],[-303,55],[-110,105],[272,144],[-176,326],[461,633],[-443,191],[-356,88],[-6050,-32],[-102,-333],[204,-313],[-460,44],[-512,-100],[-2655,-1387],[852,-985],[-268,-510],[-273,-235],[132,-800],[-64,-139],[-303,-28],[-462,-247],[-371,-15],[-584,-208],[-2024,409],[-527,206],[-498,-47],[-862,-450],[-84,-998],[447,-61],[247,-198],[102,-228],[16,-250],[-373,-362],[-836,-178],[-2133,216],[-244,-33],[-167,-267]],[[1967885,4248441],[-55,85],[144,307],[274,139],[126,-70],[986,311],[1307,64],[151,264],[74,408],[924,186],[189,366],[609,633],[3621,13816],[0,272],[-452,516],[56,198],[1808,2347],[1321,944],[0,-52],[330,216],[1581,56],[864,280],[516,67],[158,298],[298,218],[393,108],[-217,157],[-1119,10282]],[[1981772,4280857],[5003,191],[393,-229],[228,-276],[-164,-114],[58,-56],[138,119],[214,-248],[571,-136],[297,-264],[1186,88],[503,-211],[597,1316],[88,526],[1018,-719],[136,-190],[407,-156],[776,43],[572,208],[-7,271],[682,60],[543,488],[333,92],[409,-43],[1744,1762],[154,632],[805,297],[384,54],[1440,-22],[234,-102],[124,-156],[584,120],[444,387],[254,683],[-257,340],[-51,219],[38,484],[247,383],[12,192],[-373,643],[10455,-2634],[-3,-62],[-220,-42],[99,-228],[76,163],[100,22],[541,-103],[66,90]],[[2064684,4318699],[-329,-70],[-509,-246],[-173,-3],[-466,211],[-719,-119],[-355,269],[54,114],[285,146],[-56,105],[-457,80],[-311,-383],[-313,263],[-313,55],[-231,-228],[-612,-15],[-360,-110],[-278,-358],[-280,10],[-46,-284],[-102,-54],[-203,104],[-4,205],[-131,174],[-672,195],[-319,-84],[-246,-175],[-291,122],[30,225],[-85,112],[-510,-427],[-250,88],[-220,322],[-230,98],[-413,-68],[-387,-166],[-68,93],[49,329],[-287,489],[-171,120],[-45,472],[-146,-29],[-112,-219],[-78,-8],[17,-585],[-46,-113],[-116,-8],[-295,101],[-64,206],[-243,166],[-246,43],[-329,-148],[-210,308],[-549,-30],[-131,226],[-485,349],[-298,27],[-154,103],[-63,104],[80,139],[-468,115],[-445,-46],[-100,194],[-94,-13],[17,-328],[-632,-52],[-211,-258],[-269,-68],[-210,-206],[-167,55],[-203,253],[-646,-321],[-389,0],[23,290],[-575,-126],[-346,81],[-535,-116],[-450,48],[-61,475],[-277,392],[-444,-241],[-155,13],[-238,79],[-12,163],[-321,462],[-210,47],[23,-285],[-84,27],[-62,389],[81,335],[-388,382],[-316,21],[-160,133],[-5,179],[266,426],[-889,678],[-139,18],[-88,-73],[-76,-260],[59,-367],[-69,-37],[-242,133],[-151,578],[-173,23],[-178,-123],[-507,92],[-408,446],[-444,249],[-303,309],[-237,-58],[-251,-245],[-447,-83],[-313,-204],[-174,21],[-280,213],[-72,277],[316,508],[1,128],[-407,140],[116,368],[-82,381],[-246,27],[-98,118],[48,85],[385,16],[121,105],[34,89],[-148,191],[62,345],[-95,308],[-320,-137],[-92,44],[-72,120],[-13,563],[-234,304],[112,103],[551,-252],[206,155],[-177,139]],[[2037715,4328876],[110,58],[178,751],[471,440],[398,-249],[442,911],[488,-165],[130,529],[532,-80],[66,544],[-111,19],[-16,100],[229,455],[563,-145],[86,366],[389,32],[180,1049],[2001,-477],[-224,-667],[889,-176],[275,1177],[294,-111],[169,305],[-32,239],[86,339],[151,232],[360,290],[1032,10],[174,96],[458,40],[1140,-283],[298,1320],[148,0],[56,329],[235,-69],[166,577],[26,768],[85,151],[522,-6],[432,2112],[744,1289],[382,-53],[342,1440],[339,-40],[0,-261],[939,-93],[104,527],[1122,-244],[727,29],[-23,562],[317,426],[423,-116],[1390,209],[105,254],[959,-19],[387,1142],[266,511],[6,213],[127,96],[1301,-481],[268,524],[82,383],[277,516],[54,-12],[74,518],[846,-339],[-21,-250],[921,414],[934,-30],[946,-366],[568,223],[646,587],[638,224],[476,-29],[506,-279],[909,-162],[626,183],[901,32]],[[1978437,4353430],[-785,-143],[-132,-160],[-510,-311],[-345,-503],[66,-192],[-298,-460],[53,-195],[-163,-432],[48,-440],[-367,-230],[154,-305],[-89,-300],[80,-252],[263,78],[276,-56],[412,174],[487,-273],[496,155],[507,-14],[389,-131],[366,-237],[647,-78],[499,111],[49,-59],[71,-350],[161,-264],[116,-801],[-181,-357],[-321,-369],[-97,-548],[182,-418],[-79,-628],[-570,-5],[142,-603],[785,171],[285,-4072],[-1302,-690],[-705,-206],[-290,-197],[-617,-561],[-658,-1018],[-241,-787],[322,-1258],[-119,-1043],[-302,-394],[-806,-1412]],[[1976316,4333367],[-934,-598],[-119,-152],[-419,-141],[-655,-1389],[-347,-455],[-482,639],[-60,245],[-241,349],[-695,-189],[-61,93],[-623,-72],[-347,-280],[1636,-1429],[377,-1653],[-2280,87]],[[2046553,4365465],[-8,-448],[-307,-31],[-64,-978],[-497,224],[-392,-478],[-433,-358],[-211,-436],[-60,-464],[-189,24],[-43,-571],[-126,15],[-165,-242],[-119,-5],[-133,-535],[114,-1468],[2313,516],[-89,-1019],[479,-104],[-278,-2263],[2,-793],[-679,-291],[-292,-264]],[[2045376,4355496],[-94,-633],[-1216,-247],[-440,18],[-520,202],[-489,-848],[-204,-14],[-250,-191],[-249,-509],[-129,-508],[-31,-600],[151,-28],[-30,-171],[-240,-433],[-492,-1389],[-401,-757],[-254,-317],[-1010,-2701],[6,-767],[-582,-1],[-194,-525],[-99,-1080],[-341,-1504],[-287,-16],[-134,-706],[-284,-76],[-259,203],[-84,-333],[-200,-281],[-180,-805],[374,-238],[-593,-1424],[220,-188],[55,-230],[-338,-2478],[-150,-64],[-49,-833],[-1347,368],[-755,-112]],[[2034257,4335280],[-1102,-102],[-300,-95],[-539,195],[-425,-242],[-207,117],[-42,141],[75,372],[124,155],[-65,136],[57,373],[-121,358],[-104,-3],[-270,-257],[-368,-81],[-348,241],[-258,-151],[-147,53],[-108,157],[-204,-88],[-24,198],[-221,75],[64,152],[-63,79],[-682,-198],[-104,5],[-45,136],[-200,-76],[118,189],[356,-59],[120,213],[-77,159],[-564,-36],[-116,126],[-2,95],[538,394],[37,229],[-124,112],[-145,-16],[-235,-168],[-41,-239],[-321,-48],[231,657],[-130,152],[-100,-152],[-84,0],[109,419],[-33,131],[-343,231],[-92,190],[-157,49],[-221,-152],[50,-208],[206,-178],[-256,0],[-188,361],[-19,606],[-343,134],[2,209],[-65,57],[-215,-29]],[[2034257,4335280],[280,-147],[98,-211],[-225,-853],[9,-388],[136,-57],[203,298],[127,51],[106,-207],[173,-92],[-25,-85],[-287,-156],[17,-106],[478,60],[63,-247],[-170,-346],[69,-57],[154,100],[263,-120],[-327,-164],[-130,-150],[248,-176],[263,30],[69,-74],[-26,-626],[-131,-224],[50,-245],[172,-152],[206,250],[189,72],[470,-288],[-30,-97],[-322,-157],[177,-244],[254,-154],[-339,-147],[-1,-142],[272,-131],[373,129],[112,-236],[210,92],[118,-384],[-117,-98],[-328,-33],[-26,-112],[130,-145],[298,-13],[155,-222]],[[2032203,4293618],[2879,6835],[-242,1482],[55,250],[92,202],[305,-97],[-33,245],[213,260],[-71,49],[1324,1385],[-10199,36129]],[[2013878,4404066],[-455,488],[15,364],[-159,489],[-268,298],[-620,295],[-221,232],[-217,-555],[-453,104],[-694,-9],[-688,386],[285,247],[258,390],[240,770],[18,732],[-302,639],[63,202],[450,438],[-291,326],[-19,247],[78,188],[102,160],[589,-236],[576,40],[713,555],[245,485],[433,541],[-678,209],[-362,360],[-606,81],[-344,135],[-552,13],[-389,-122],[-217,75],[-413,271],[-27,194],[109,234],[-319,171],[-233,-270],[-1276,-738],[-682,144],[-630,-310],[-449,307],[-1043,289],[98,-874],[-157,-385],[-326,-150],[-594,-7],[-549,548],[-1055,563],[-199,178],[229,475],[-9,285],[-93,112],[-166,31],[-504,661],[-969,-53],[-215,61],[-858,-248],[-48,96],[-779,-200],[-549,-8],[-262,-107],[-267,26],[-455,-99],[-468,-178],[-351,-360],[-568,-278],[-81,-198],[-11,345],[-160,226],[-145,69],[-137,316],[-497,316]],[[1972003,4302386],[846,-375],[496,-539],[1283,-506],[1813,-1721],[977,-1348],[605,-614],[1170,-2234],[576,-2001],[441,-846],[195,-1117],[698,-2753],[429,-2420],[309,-632],[-146,-2496],[77,-1927]],[[2070977,4353695],[-798,-4],[-2020,-239],[-1147,-19],[-153,399],[86,717],[-5291,476],[-194,90],[-465,-130],[-1991,161],[-611,-79],[-264,151],[-688,113],[-920,-34],[-50,-285],[-651,175],[-332,-6],[-500,115],[243,686],[-787,245],[-3,379],[-158,308],[-771,-585],[-462,-248],[-322,-28],[-678,-324],[-517,-42],[-655,-506],[-415,-26],[-742,-211],[-378,111],[-492,12],[-475,-267],[-542,-125],[-230,-254],[-377,-4],[-723,556],[-1128,523]],[[1976316,4333367],[336,158],[816,114],[291,-78],[263,-156],[244,-301],[130,-387],[361,1033],[322,564],[412,500],[421,1168],[355,704],[1081,-664],[1039,-1449],[662,-355],[171,233],[2113,-81],[434,-157],[114,150],[394,1247],[608,-86],[483,85],[493,-43],[280,515],[1295,-1308],[-61,-122],[507,-310],[1038,-404],[-488,-421],[677,-566],[880,-63],[1615,-373],[599,891],[155,-72],[609,-7],[442,-259],[-179,-543],[401,-194],[288,8],[705,-1414],[-291,-344],[1088,-883],[-663,-590],[930,-630],[573,-615],[403,-618],[629,439],[152,246],[-110,1010],[171,731],[140,178],[369,222],[313,484],[1027,278],[404,35],[415,-295],[447,349],[-19,218],[68,27],[2259,364],[687,384],[594,-449],[773,-166],[224,-269],[472,68],[801,-212],[306,139],[18,494],[-775,647],[-188,1028],[369,52],[276,356],[227,160],[622,1663],[17,252],[360,523]],[[2014196,4227981],[-467,-988],[604,78],[-136,-383],[-651,-1095],[165,-183],[-140,-201],[-79,-1039],[-805,-106],[-818,-294],[-1202,-700],[-1718,-1616],[217,-884],[-764,-607],[-541,-860],[-761,-663],[787,-551],[221,-542],[83,-619],[-121,-471],[690,-1523],[-5,-157],[-164,-270],[58,-150],[-346,-397]]]}
