{"type":"Topology","bbox":[-74.45085041784144,3.730633769818942,-73.98612747278325,4.836970750141003],"transform":{"scale":[0.000003385120954067422,0.0000034456095261769775],"translate":[-81.73562055563167,-4.229406466336059]},"objects":{"MGN_ADM_MPIO_GRAFICO":{"type":"GeometryCollection","geometries":[{"type":"Polygon","arcs":[[224,225,226,227,228,229,230,231,232,233,234,235,236,237,238,239,240,241,242,243,244,245,246,247,248,249,250,251,252,253,254,255,256,257,258,259,260,261,262,263,264,265,266,267,268,269,270,271,272,273,274,275,276,277,278,279,280,281,282,283,284,285,286,287,288,289,290,291,292,293,294,295,296,297,298,299,300,301,302,303,304,305,306,307,308,309,310,311,312,313,314,315,316,317,318,319,320,321,322,323,324,325,326,327,328,329,330,331,332,333,334,335,336,337,338,339,340,341,342,343,344,345,346,347,348,349,350,351,352,353,354,355,356,357,358,359,360,361,362,363,364,365,366,367,368,369,370,371,372,373,374,375,376,377,378,379,380,381,382,383,384,385,386,387,388,389,390,391,392,393,394,395,396,397,398,399,400,401,402,403,404,405,406,407,408,409,410,411,412,413,414,415,416,417,418,419,420,421,422,423,424,425,426,427,428,429,430,431,432,433,434,435,436,437,438,439,440,441,442,443,444,445,446,447,448,449,450,451,452,453,454,455,456,457,458,459,460,461,462,463,464,465,466,467,468,469,470,471,472,473,474,475,476,477,478,479,480,481,482,483,484,485,486,487,488,489,490,491,492,493,494,495,496,497,498,499,500,501,502,503,504,505,506,507,508,509,510,511,512,513,514,515,516,517,518,519,520,521,522,523,524,525,526,527,528,529,530,531,532,533,534,535,536,537,538,539,540,541,542,543,544,545,546,547,548,549,550,551,552,553,554,555,556,557,558,559,560,561,562,563,564,565,566,567,568,569,570,571,572,573,574,575,576,577,578,579,580,581,582,583,584,585,586,587,588,589,590,591,592,593,594,595,596,597,598,599,600,601,602,603,604,605,606,607,608,609,610,611,612,613,614,615,616,617,618,619,620,621,622,623,624,625,626,627,628,629,630,631,632,633,634,635,636,637,638,639,640,641,642,643,644,645,646,647,648,649,650,651,652,653,654,655,656,657,658,659,660,661,662,663,664,665,666,667,668,669,670,671,672,673,674,675,676,677,678,679,680,681,682,683,684,685,686,687,688,689,690,691,692,693,694,695,696,697,698,699,700,701,702,703,704,705,706,707,708,709,710,711,712,713,714,715,716,717,718,719,720,721,722,723,724,725,726,727,728,729,730,731,732,733,734,735,736,737,738,739,740,741,742,743,744,745,746,747,748,749,750,751,752,753,754,755,756,757,758,759,760,761,762,763,764,765,766,767,768,769,770,771,772,773,774,775,776,777,778,779,780,781,782,783,784,785,786,787,788,789,790,791,792,793,794,795,796,797,798,799,800,801,802,803,804,805,806,807,808,809,810,811,812,813,814,815,816,817,818,819,820,821,822,823,824,825,826,827,828,829,830,831,832,833,834,835,836,837,838,839,840,841,842,843,844,845,846,847,848,849,850,851,852,853,854,855,856,857,858,859,860,861,862,863,864,865,866,867,868,869,870,871,872,873,874,875,876,877,878,879,880,881,882,883,884,885,886,887,888,889,890,891,892,893,894,895,896,897,898,899,900,901,902,903,904,905,906,907,908,909,910,911,912,913,914,915,916,917,918,919,920,921,922,923,924,925,926,927,928,929,930,931,932,933,934,935,936,937,938,939,940,941,942,943,944,945,946,947,948,949,950,951,952,953,954,955,956,957,958,959,960,961,962,963,964,965,966,967,968,969,970,971,972,973,974,975,976,977,978,979,980,981,982,983,984,0,1,2,3,4,5,6,7,8,9,10,11,12,13,14,15,16,17,18,19,20,21,22,23,24,25,26,27,28,29,30,31,32,33,34,35,36,37,38,39,40,41,42,43,44,45,46,47,48,49,50,51,52,53,54,55,56,57,58,59,60,61,62,63,64,65,66,67,68,69,70,71,72,73,74,75,76,77,78,79,80,81,82,83,84,85,86,87,88,89,90,91,92,93,94,95,96,97,98,99,100,101,102,103,104,105,106,107,108,109,110,111,112,113,114,115,116,117,118,119,120,121,122,123,124,125,126,127,128,129,130,131,132,133,134,135,136,137,138,139,140,141,142,143,144,145,146,147,148,149,150,151,152,153,154,155,156,157,158,159,160,161,162,163,164,165,166,167,168,169,170,171,172,173,174,175,176,177,178,179,180,181,182,183,184,185,186,187,188,189,190,191,192,193,194,195,196,197,198,199,200,201,202,203,204,205,206,207,208,209,210,211,212,213,214,215,216,217,218,219,220,221,222,223]],"bbox":[-74.45085041784144,3.730633769818942,-73.98612747278325,4.836970750141003],"properties":{"dpto_ccdgo":"11","mpio_ccdgo":"001","mpio_cdpmp":"11001","dpto_cnmbr":"BOGOTÁ, D.C.","mpio_cnmbr":"BOGOTÁ, D.C."}}]}},"arcs":[[[2269484,2630197],[32,-4]],[[2269516,2630193],[84,-21]],[[2269600,2630172],[88,-43]],[[2269688,2630129],[139,-108]],[[2269827,2630021],[61,-57]],[[2269888,2629964],[150,-186]],[[2270038,2629778],[60,-78]],[[2270098,2629700],[239,-215],[286,-57]],[[2270623,2629428],[31,6]],[[2270654,2629434],[39,9]],[[2270693,2629443],[8,4]],[[2270701,2629447],[6,4]],[[2270707,2629451],[23,103]],[[2270730,2629554],[-4,50]],[[2270726,2629604],[-16,64]],[[2270710,2629668],[-23,45]],[[2270687,2629713],[-37,57]],[[2270650,2629770],[-30,40]],[[2270620,2629810],[-60,136]],[[2270560,2629946],[-9,34]],[[2270551,2629980],[-18,71]],[[2270533,2630051],[-5,44]],[[2270528,2630095],[-10,62]],[[2270518,2630157],[-80,241]],[[2270438,2630398],[-27,46]],[[2270411,2630444],[-5,21]],[[2270406,2630465],[4,41]],[[2270410,2630506],[7,38]],[[2270417,2630544],[-13,115]],[[2270404,2630659],[28,37]],[[2270432,2630696],[202,-45],[316,-727]],[[2270950,2629924],[67,-135]],[[2271017,2629789],[155,-315]],[[2271172,2629474],[-7,-40]],[[2271165,2629434],[218,-122]],[[2271383,2629312],[55,-14]],[[2271438,2629298],[27,-3]],[[2271465,2629295],[133,5],[310,214],[150,458],[128,154]],[[2272186,2630126],[14,-7]],[[2272200,2630119],[846,-1145],[85,-625],[1843,-379],[-161,-1038],[272,7],[317,-358],[365,94],[170,124],[-52,563],[343,53],[147,-140],[1214,-11],[336,-349],[441,-51]],[[2278366,2626864],[-6,35]],[[2278360,2626899],[31,20]],[[2278391,2626919],[29,26]],[[2278420,2626945],[8,11]],[[2278428,2626956],[6,9]],[[2278434,2626965],[29,34]],[[2278463,2626999],[96,47]],[[2278559,2627046],[29,13]],[[2278588,2627059],[25,9]],[[2278613,2627068],[10,5]],[[2278623,2627073],[18,7]],[[2278641,2627080],[30,9]],[[2278671,2627089],[47,8]],[[2278718,2627097],[10,2]],[[2278728,2627099],[152,-8]],[[2278880,2627091],[18,-7]],[[2278898,2627084],[10,-3]],[[2278908,2627081],[16,-9]],[[2278924,2627072],[16,-9]],[[2278940,2627063],[15,-9]],[[2278955,2627054],[38,-19]],[[2278993,2627035],[26,-11]],[[2279019,2627024],[119,-13]],[[2279138,2627011],[35,-8]],[[2279173,2627003],[113,-24]],[[2279286,2626979],[18,-6]],[[2279304,2626973],[38,-12]],[[2279342,2626961],[18,-6]],[[2279360,2626955],[26,-8]],[[2279386,2626947],[16,-7]],[[2279402,2626940],[79,-23]],[[2279481,2626917],[43,-12]],[[2279524,2626905],[93,-27]],[[2279617,2626878],[7,-3]],[[2279624,2626875],[20,-6]],[[2279644,2626869],[1,-1]],[[2279645,2626868],[5,-1]],[[2279650,2626867],[70,-13]],[[2279720,2626854],[2,0]],[[2279722,2626854],[18,-1]],[[2279740,2626853],[20,-1]],[[2279760,2626852],[2,0]],[[2279762,2626852],[3,-1]],[[2279765,2626851],[3,0]],[[2279768,2626851],[16,0]],[[2279784,2626851],[37,4]],[[2279821,2626855],[10,3]],[[2279831,2626858],[113,-13]],[[2279944,2626845],[3,-3]],[[2279947,2626842],[17,-16]],[[2279964,2626826],[22,-29]],[[2279986,2626797],[57,-61]],[[2280043,2626736],[21,-16]],[[2280064,2626720],[11,-7]],[[2280075,2626713],[5,-3]],[[2280080,2626710],[34,-17]],[[2280114,2626693],[2,-1]],[[2280116,2626692],[67,-22]],[[2280183,2626670],[15,-4]],[[2280198,2626666],[3,0]],[[2280201,2626666],[7,-1]],[[2280208,2626665],[2,-1]],[[2280210,2626664],[16,-2]],[[2280226,2626662],[29,4]],[[2280255,2626666],[9,1]],[[2280264,2626667],[5,2]],[[2280269,2626669],[16,3]],[[2280285,2626672],[2,0]],[[2280287,2626672],[16,4]],[[2280303,2626676],[33,6]],[[2280336,2626682],[20,-1]],[[2280356,2626681],[22,-3]],[[2280378,2626678],[7,-1]],[[2280385,2626677],[8,0]],[[2280393,2626677],[10,1]],[[2280403,2626678],[5,0]],[[2280408,2626678],[13,2]],[[2280421,2626680],[61,11]],[[2280482,2626691],[87,24]],[[2280569,2626715],[18,5]],[[2280587,2626720],[28,7]],[[2280615,2626727],[12,3]],[[2280627,2626730],[52,14]],[[2280679,2626744],[17,3]],[[2280696,2626747],[120,35]],[[2280816,2626782],[18,9]],[[2280834,2626791],[45,26]],[[2280879,2626817],[17,7]],[[2280896,2626824],[26,3]],[[2280922,2626827],[7,-2]],[[2280929,2626825],[3,-1]],[[2280932,2626824],[5,-2]],[[2280937,2626822],[5,-3]],[[2280942,2626819],[6,-5]],[[2280948,2626814],[12,-10]],[[2280960,2626804],[2,-2]],[[2280962,2626802],[13,-12]],[[2280975,2626790],[9,-8]],[[2280984,2626782],[14,-10]],[[2280998,2626772],[5,-2]],[[2281003,2626770],[25,-8]],[[2281028,2626762],[2,0]],[[2281030,2626762],[1,0]],[[2281031,2626762],[42,-12]],[[2281073,2626750],[10,-13]],[[2281083,2626737],[18,-12]],[[2281101,2626725],[8,1]],[[2281109,2626726],[16,7]],[[2281125,2626733],[13,3]],[[2281138,2626736],[8,1]],[[2281146,2626737],[16,8]],[[2281162,2626745],[6,5]],[[2281168,2626750],[7,6]],[[2281175,2626756],[2,3]],[[2281177,2626759],[4,3]],[[2281181,2626762],[0,1]],[[2281181,2626763],[11,18]],[[2281192,2626781],[1,3]],[[2281193,2626784],[7,10]],[[2281200,2626794],[2,1]],[[2281202,2626795],[1,1]],[[2281203,2626796],[1,1]],[[2281204,2626797],[11,8]],[[2281215,2626805],[10,6]],[[2281225,2626811],[13,9]],[[2281238,2626820],[5,3]],[[2281243,2626823],[4,2]],[[2281247,2626825],[5,1]],[[2281252,2626826],[8,0]],[[2281260,2626826],[56,8]],[[2281316,2626834],[14,-4]],[[2281330,2626830],[3,-1]],[[2281333,2626829],[10,0]],[[2281343,2626829],[60,-13]],[[2281403,2626816],[2,0]],[[2281405,2626816],[10,-3]],[[2281415,2626813],[5,-2]],[[2281420,2626811],[4,-2]],[[2281424,2626809],[8,-4]],[[2281432,2626805],[11,-4]],[[2281443,2626801],[26,-5]],[[2281469,2626796],[10,-2]],[[2281479,2626794],[14,-4]],[[2281493,2626790],[9,-3]],[[2281502,2626787],[7,-3]],[[2281509,2626784],[3,-2]],[[2281512,2626782],[35,-16]],[[2281547,2626766],[25,-7]],[[2281572,2626759],[28,6]],[[2281600,2626765],[10,4]],[[2281610,2626769],[21,1]],[[2281631,2626770],[18,-5]],[[2281649,2626765],[18,-6]],[[2281667,2626759],[20,-4]],[[2281687,2626755],[46,-6]],[[2281733,2626749],[43,7]],[[2281776,2626756],[35,2]],[[2281811,2626758],[26,4]],[[2281837,2626762],[13,2]],[[2281850,2626764],[54,-16]],[[2281904,2626748],[7,-4]],[[2281911,2626744],[20,-9]],[[2281931,2626735],[29,-6]],[[2281960,2626729],[5,-1]],[[2281965,2626728],[15,4]],[[2281980,2626732],[5,5]],[[2281985,2626737],[3,3]],[[2281988,2626740],[7,6]],[[2281995,2626746],[4,1]],[[2281999,2626747],[8,-2]],[[2282007,2626745],[14,-4]],[[2282021,2626741],[14,-3]],[[2282035,2626738],[13,-3]],[[2282048,2626735],[12,-3]],[[2282060,2626732],[14,-6]],[[2282074,2626726],[34,-21]],[[2282108,2626705],[26,-14]],[[2282134,2626691],[97,-20]],[[2282231,2626671],[1,-3]],[[2282232,2626668],[1,-3]],[[2282233,2626665],[12,-14]],[[2282245,2626651],[8,-3]],[[2282253,2626648],[26,-8]],[[2282279,2626640],[11,-9]],[[2282290,2626631],[5,-13]],[[2282295,2626618],[24,-35]],[[2282319,2626583],[16,-4]],[[2282335,2626579],[2,-1]],[[2282337,2626578],[5,-3]],[[2282342,2626575],[3,-2]],[[2282345,2626573],[7,-8]],[[2282352,2626565],[2,-1]],[[2282354,2626564],[2,-4]],[[2282356,2626560],[36,-31]],[[2282392,2626529],[10,-1]],[[2282402,2626528],[11,-6]],[[2282413,2626522],[15,-5]],[[2282428,2626517],[6,1]],[[2282434,2626518],[5,-3]],[[2282439,2626515],[66,-7]],[[2282505,2626508],[22,-4]],[[2282527,2626504],[64,-5]],[[2282591,2626499],[6,-6]],[[2282597,2626493],[3,-16]],[[2282600,2626477],[4,-26]],[[2282604,2626451],[36,-58]],[[2282640,2626393],[68,-125]],[[2282708,2626268],[30,-44]],[[2282738,2626224],[19,-22]],[[2282757,2626202],[6,-10]],[[2282763,2626192],[54,-49]],[[2282817,2626143],[62,-5]],[[2282879,2626138],[32,-19]],[[2282911,2626119],[15,-12]],[[2282926,2626107],[34,-36]],[[2282960,2626071],[137,-54]],[[2283097,2626017],[15,-8]],[[2283112,2626009],[10,-24]],[[2283122,2625985],[24,-9]],[[2283146,2625976],[34,-18]],[[2283180,2625958],[58,-75]],[[2283238,2625883],[8,-22]],[[2283246,2625861],[69,-76]],[[2283315,2625785],[7,-23]],[[2283322,2625762],[28,-36]],[[2283350,2625726],[21,1]],[[2283371,2625727],[30,-35]],[[2283401,2625692],[5,-35]],[[2283406,2625657],[224,-87]],[[2283630,2625570],[125,-23]],[[2283755,2625547],[62,-7]],[[2283817,2625540],[47,-10]],[[2283864,2625530],[84,-28]],[[2283948,2625502],[26,-1]],[[2283974,2625501],[-94,-51]],[[2283880,2625450],[-180,-167]],[[2283700,2625283],[31,-164],[228,-120],[-61,-174]],[[2283898,2624825],[-24,-40]],[[2283874,2624785],[-73,-120]],[[2283801,2624665],[9,-20]],[[2283810,2624645],[16,-84]],[[2283826,2624561],[-182,-97]],[[2283644,2624464],[-156,-81]],[[2283488,2624383],[-105,-54]],[[2283383,2624329],[-133,-67],[-140,-299]],[[2283110,2623963],[-85,-192]],[[2283025,2623771],[95,-102]],[[2283120,2623669],[274,-49]],[[2283394,2623620],[157,-39]],[[2283551,2623581],[188,-67]],[[2283739,2623514],[385,-328],[199,-282]],[[2284323,2622904],[89,-135]],[[2284412,2622769],[35,-25]],[[2284447,2622744],[47,-34]],[[2284494,2622710],[27,-10]],[[2284521,2622700],[22,-27]],[[2284543,2622673],[277,-331]],[[2284820,2622342],[143,-108]],[[2284963,2622234],[129,-75],[-59,-75]],[[2285033,2622084],[-17,-22]],[[2285016,2622062],[-4,-5]],[[2285012,2622057],[-14,-18]],[[2284998,2622039],[-81,-121]],[[2284917,2621918],[-16,-143]],[[2284901,2621775],[65,-35],[-65,-274],[-174,-155]],[[2284727,2621311],[-61,-50]],[[2284666,2621261],[-61,-49]],[[2284605,2621212],[-191,-138]],[[2284414,2621074],[-100,-156]],[[2284314,2620918],[-56,-180],[-165,-58]],[[2284093,2620680],[-185,-138]],[[2283908,2620542],[-91,-63]],[[2283817,2620479],[-99,-87]],[[2283718,2620392],[-102,-361],[-236,18]],[[2283380,2620049],[-90,-39]],[[2283290,2620010],[-87,-12]],[[2283203,2619998],[-147,-4]],[[2283056,2619994],[-90,-36]],[[2282966,2619958],[-202,-34]],[[2282764,2619924],[-122,-74]],[[2282642,2619850],[-1238,95]],[[2281404,2619945],[-52,-43]],[[2281352,2619902],[-83,-79],[-49,-288]],[[2281220,2619535],[-25,-48]],[[2281195,2619487],[-90,-64]],[[2281105,2619423],[-25,-24]],[[2281080,2619399],[-37,-39]],[[2281043,2619360],[-111,-214]],[[2280932,2619146],[25,-31]],[[2280957,2619115],[36,-48]],[[2280993,2619067],[-51,-65]],[[2280942,2619002],[6,-17]],[[2280948,2618985],[-2,-68]],[[2280946,2618917],[-11,-25]],[[2280935,2618892],[-27,-34]],[[2280908,2618858],[-18,-118]],[[2280890,2618740],[-19,-137]],[[2280871,2618603],[-35,-70]],[[2280836,2618533],[-226,-329]],[[2280610,2618204],[-16,-42]],[[2280594,2618162],[-13,-105]],[[2280581,2618057],[3,-87]],[[2280584,2617970],[38,-188],[-104,-446]],[[2280518,2617336],[-37,-66]],[[2280481,2617270],[-13,-60]],[[2280468,2617210],[10,-14]],[[2280478,2617196],[51,28]],[[2280529,2617224],[-21,-124]],[[2280508,2617100],[-58,-17]],[[2280450,2617083],[-39,6]],[[2280411,2617089],[-22,-23]],[[2280389,2617066],[141,-130],[-109,-443]],[[2280421,2616493],[-6,-90]],[[2280415,2616403],[-12,-198]],[[2280403,2616205],[2,-101]],[[2280405,2616104],[15,-82]],[[2280420,2616022],[18,-92]],[[2280438,2615930],[2,-48]],[[2280440,2615882],[38,-525]],[[2280478,2615357],[1,-33]],[[2280479,2615324],[49,-370],[-99,-393]],[[2280429,2614561],[30,-57]],[[2280459,2614504],[-2,-216]],[[2280457,2614288],[9,-69]],[[2280466,2614219],[-13,-710]],[[2280453,2613509],[23,-56]],[[2280476,2613453],[23,-12]],[[2280499,2613441],[38,6]],[[2280537,2613447],[28,-10]],[[2280565,2613437],[-31,-40]],[[2280534,2613397],[-214,-154]],[[2280320,2613243],[-44,-177]],[[2280276,2613066],[-18,-85]],[[2280258,2612981],[-142,-299]],[[2280116,2612682],[-98,-228]],[[2280018,2612454],[-121,-231]],[[2279897,2612223],[-98,-197]],[[2279799,2612026],[-27,-300]],[[2279772,2611726],[-34,-403]],[[2279738,2611323],[-8,-63]],[[2279730,2611260],[-60,-511]],[[2279670,2610749],[-54,-740],[188,-42]],[[2279804,2609967],[9,-3]],[[2279813,2609964],[79,-19]],[[2279892,2609945],[4,0]],[[2279896,2609945],[82,-15],[114,-589],[234,-136],[98,104],[204,-363],[450,207],[81,-222],[-76,-43],[324,-358]],[[2281407,2608530],[75,-77]],[[2281482,2608453],[74,-35]],[[2281556,2608418],[38,-1]],[[2281594,2608417],[112,9]],[[2281706,2608426],[73,-11]],[[2281779,2608415],[279,-178],[123,-281]],[[2282181,2607956],[42,-32]],[[2282223,2607924],[-58,-115]],[[2282165,2607809],[-9,-48]],[[2282156,2607761],[7,-26]],[[2282163,2607735],[27,-20]],[[2282190,2607715],[29,-5]],[[2282219,2607710],[37,17]],[[2282256,2607727],[25,10]],[[2282281,2607737],[22,-20]],[[2282303,2607717],[31,-290],[-80,-313],[59,-176]],[[2282313,2606938],[30,-138]],[[2282343,2606800],[43,-125]],[[2282386,2606675],[156,-83]],[[2282542,2606592],[43,-116]],[[2282585,2606476],[1,-118]],[[2282586,2606358],[-3,-296]],[[2282583,2606062],[-3,-82]],[[2282580,2605980],[20,-525]],[[2282600,2605455],[6,-110]],[[2282606,2605345],[27,-56]],[[2282633,2605289],[59,-57]],[[2282692,2605232],[75,-546]],[[2282767,2604686],[55,-210]],[[2282822,2604476],[27,-94]],[[2282849,2604382],[66,-209]],[[2282915,2604173],[45,-229]],[[2282960,2603944],[15,-143]],[[2282975,2603801],[-16,-147],[156,-301]],[[2283115,2603353],[38,-81]],[[2283153,2603272],[-131,-342]],[[2283022,2602930],[-33,-116]],[[2282989,2602814],[-118,-244]],[[2282871,2602570],[-10,-25]],[[2282861,2602545],[-22,-145]],[[2282839,2602400],[-5,-284]],[[2282834,2602116],[-4,-99]],[[2282830,2602017],[-97,-219]],[[2282733,2601798],[1,-89]],[[2282734,2601709],[7,-235]],[[2282741,2601474],[-5,-70]],[[2282736,2601404],[-42,-356]],[[2282694,2601048],[11,-103]],[[2282705,2600945],[162,-141]],[[2282867,2600804],[47,-104],[-103,-290],[227,-732],[-13,-420]],[[2283025,2599258],[-49,-152]],[[2282976,2599106],[-135,-228]],[[2282841,2598878],[-86,-187]],[[2282755,2598691],[-50,-426]],[[2282705,2598265],[-21,-139]],[[2282684,2598126],[53,-303]],[[2282737,2597823],[-4,-66]],[[2282733,2597757],[-8,-41]],[[2282725,2597716],[-8,-26]],[[2282717,2597690],[-25,-56]],[[2282692,2597634],[-45,-103]],[[2282647,2597531],[-31,-271]],[[2282616,2597260],[-66,-82]],[[2282550,2597178],[-23,-110]],[[2282527,2597068],[7,-47]],[[2282534,2597021],[18,-29]],[[2282552,2596992],[41,-74]],[[2282593,2596918],[63,-79]],[[2282656,2596839],[-21,-81]],[[2282635,2596758],[362,-240]],[[2282997,2596518],[29,-36]],[[2283026,2596482],[59,-55]],[[2283085,2596427],[48,-135]],[[2283133,2596292],[-149,-102]],[[2282984,2596190],[-807,-541],[-89,-300]],[[2282088,2595349],[-25,-123]],[[2282063,2595226],[38,-34]],[[2282101,2595192],[-12,-43]],[[2282089,2595149],[-93,-419]],[[2281996,2594730],[-32,-173]],[[2281964,2594557],[-109,-596]],[[2281855,2593961],[-50,-269]],[[2281805,2593692],[-201,-953],[-212,-233]],[[2281392,2592506],[-6,-64]],[[2281386,2592442],[-43,-253]],[[2281343,2592189],[-65,-54]],[[2281278,2592135],[-4,-7]],[[2281274,2592128],[3,-36]],[[2281277,2592092],[73,-104]],[[2281350,2591988],[80,-120]],[[2281430,2591868],[-31,-113]],[[2281399,2591755],[-14,-30]],[[2281385,2591725],[-26,-76]],[[2281359,2591649],[0,-20]],[[2281359,2591629],[-44,-92]],[[2281315,2591537],[-50,-106]],[[2281265,2591431],[7,-31]],[[2281272,2591400],[-37,-81]],[[2281235,2591319],[-198,-243]],[[2281037,2591076],[-73,-83]],[[2280964,2590993],[-5,-462],[180,-282]],[[2281139,2590249],[118,-83]],[[2281257,2590166],[63,-56]],[[2281320,2590110],[125,-98]],[[2281445,2590012],[34,-26]],[[2281479,2589986],[36,-27]],[[2281515,2589959],[35,-27]],[[2281550,2589932],[53,-69]],[[2281603,2589863],[12,-33]],[[2281615,2589830],[31,-79]],[[2281646,2589751],[51,-69]],[[2281697,2589682],[-6,-49]],[[2281691,2589633],[-69,-161]],[[2281622,2589472],[-9,-85]],[[2281613,2589387],[-2,-16]],[[2281611,2589371],[10,-38]],[[2281621,2589333],[8,-67]],[[2281629,2589266],[-39,-60]],[[2281590,2589206],[-17,-48]],[[2281573,2589158],[5,-48]],[[2281578,2589110],[55,-83]],[[2281633,2589027],[59,-83]],[[2281692,2588944],[38,-238]],[[2281730,2588706],[12,-107]],[[2281742,2588599],[69,-145]],[[2281811,2588454],[87,-144]],[[2281898,2588310],[41,-154],[-62,-73]],[[2281877,2588083],[-18,-69]],[[2281859,2588014],[-21,-71]],[[2281838,2587943],[4,-68]],[[2281842,2587875],[-71,-249]],[[2281771,2587626],[-15,-57]],[[2281756,2587569],[-18,-68]],[[2281738,2587501],[-26,-139]],[[2281712,2587362],[13,-24]],[[2281725,2587338],[30,-61]],[[2281755,2587277],[107,-118]],[[2281862,2587159],[-1,-22]],[[2281861,2587137],[25,-114],[83,-19]],[[2281969,2587004],[34,-15]],[[2282003,2586989],[133,-65],[-178,-191]],[[2281958,2586733],[3,-72]],[[2281961,2586661],[122,-66]],[[2282083,2586595],[142,-97]],[[2282225,2586498],[51,-18]],[[2282276,2586480],[155,-112]],[[2282431,2586368],[164,-61]],[[2282595,2586307],[88,-39]],[[2282683,2586268],[216,-85]],[[2282899,2586183],[55,-19]],[[2282954,2586164],[80,-43]],[[2283034,2586121],[30,-28]],[[2283064,2586093],[118,-65]],[[2283182,2586028],[90,32]],[[2283272,2586060],[467,-342]],[[2283739,2585718],[126,-2]],[[2283865,2585716],[157,-82]],[[2284022,2585634],[116,4]],[[2284138,2585638],[91,4]],[[2284229,2585642],[67,-328]],[[2284296,2585314],[34,-167]],[[2284330,2585147],[-119,-157]],[[2284211,2584990],[101,-42]],[[2284312,2584948],[103,-13]],[[2284415,2584935],[63,-122]],[[2284478,2584813],[14,-77]],[[2284492,2584736],[18,-68]],[[2284510,2584668],[22,-159]],[[2284532,2584509],[-9,-233]],[[2284523,2584276],[67,-114],[-136,-154]],[[2284454,2584008],[-32,-52]],[[2284422,2583956],[-135,-271]],[[2284287,2583685],[-5,-32]],[[2284282,2583653],[-4,-196]],[[2284278,2583457],[-13,-77]],[[2284265,2583380],[-37,-71]],[[2284228,2583309],[-8,-12]],[[2284220,2583297],[-72,-88]],[[2284148,2583209],[-75,-117]],[[2284073,2583092],[-43,-44]],[[2284030,2583048],[-25,-32]],[[2284005,2583016],[-61,-49]],[[2283944,2582967],[-61,-62]],[[2283883,2582905],[-40,-41]],[[2283843,2582864],[-68,-142]],[[2283775,2582722],[-60,-47]],[[2283715,2582675],[-110,-94]],[[2283605,2582581],[-131,-121]],[[2283474,2582460],[-67,-95]],[[2283407,2582365],[-124,-155]],[[2283283,2582210],[-35,-60]],[[2283248,2582150],[-141,-925],[-924,-228],[-71,48],[216,-411],[377,-170],[-132,-62],[-388,322],[-503,-96],[-554,419],[-272,-365],[-415,54],[-121,-158],[-207,-89],[-401,-13],[-776,355],[-43,-88],[-209,51],[-23,-68]],[[2278661,2580726],[-45,-129]],[[2278616,2580597],[-99,-19],[-209,132],[-424,-29],[-50,-81]],[[2277834,2580600],[11,-20]],[[2277845,2580580],[-148,-163]],[[2277697,2580417],[-26,-64]],[[2277671,2580353],[0,-1]],[[2277671,2580352],[-63,-177]],[[2277608,2580175],[-53,-59]],[[2277555,2580116],[-37,-65]],[[2277518,2580051],[-18,-47]],[[2277500,2580004],[12,-153]],[[2277512,2579851],[46,-481]],[[2277558,2579370],[22,-229]],[[2277580,2579141],[38,-164]],[[2277618,2578977],[-10,-16]],[[2277608,2578961],[-121,-77]],[[2277487,2578884],[-621,-367]],[[2276866,2578517],[-140,-185]],[[2276726,2578332],[-147,-281]],[[2276579,2578051],[-75,-183]],[[2276504,2577868],[-49,-284]],[[2276455,2577584],[45,-119]],[[2276500,2577465],[215,-334]],[[2276715,2577131],[23,-116]],[[2276738,2577015],[-7,-189]],[[2276731,2576826],[-3,-58]],[[2276728,2576768],[33,-80]],[[2276761,2576688],[90,-145],[-70,-106],[-425,-271],[-282,-43],[-12,-75]],[[2276062,2576048],[-150,-182]],[[2275912,2575866],[-52,-68]],[[2275860,2575798],[166,-204]],[[2276026,2575594],[39,-73]],[[2276065,2575521],[37,-60]],[[2276102,2575461],[42,-14]],[[2276144,2575447],[18,-109],[485,-313]],[[2276647,2575025],[143,-23]],[[2276790,2575002],[350,-57]],[[2277140,2574945],[74,-17]],[[2277214,2574928],[24,-11]],[[2277238,2574917],[79,-38]],[[2277317,2574879],[118,-9]],[[2277435,2574870],[48,-17]],[[2277483,2574853],[261,17]],[[2277744,2574870],[223,-23]],[[2277967,2574847],[112,65]],[[2278079,2574912],[58,-2]],[[2278137,2574910],[160,-94],[464,41],[500,-303]],[[2279261,2574554],[62,-24]],[[2279323,2574530],[157,-178]],[[2279480,2574352],[66,7]],[[2279546,2574359],[94,-22]],[[2279640,2574337],[85,38]],[[2279725,2574375],[163,117]],[[2279888,2574492],[60,-4]],[[2279948,2574488],[53,-49]],[[2280001,2574439],[124,-123]],[[2280125,2574316],[240,-222]],[[2280365,2574094],[295,-137]],[[2280660,2573957],[41,-28]],[[2280701,2573929],[79,24]],[[2280780,2573953],[87,59]],[[2280867,2574012],[26,16]],[[2280893,2574028],[60,17]],[[2280953,2574045],[37,-14]],[[2280990,2574031],[90,-36]],[[2281080,2573995],[174,1]],[[2281254,2573996],[16,-3]],[[2281270,2573993],[403,-111]],[[2281673,2573882],[90,-74]],[[2281763,2573808],[163,-55]],[[2281926,2573753],[43,5]],[[2281969,2573758],[69,-8]],[[2282038,2573750],[31,16]],[[2282069,2573766],[6,13]],[[2282075,2573779],[14,21]],[[2282089,2573800],[13,0]],[[2282102,2573800],[14,-17]],[[2282116,2573783],[17,-13]],[[2282133,2573770],[9,-11]],[[2282142,2573759],[231,-39]],[[2282373,2573720],[9,-45]],[[2282382,2573675],[-12,-175]],[[2282370,2573500],[-8,-28]],[[2282362,2573472],[-56,-93]],[[2282306,2573379],[-29,-70]],[[2282277,2573309],[14,-57]],[[2282291,2573252],[-32,-36]],[[2282259,2573216],[-49,-259]],[[2282210,2572957],[7,-48]],[[2282217,2572909],[1,-2]],[[2282218,2572907],[3,-4]],[[2282221,2572903],[11,-15]],[[2282232,2572888],[19,-47]],[[2282251,2572841],[-1,-196],[-139,-149]],[[2282111,2572496],[-30,-106]],[[2282081,2572390],[-20,-69]],[[2282061,2572321],[0,-91]],[[2282061,2572230],[-9,-121]],[[2282052,2572109],[-61,-133]],[[2281991,2571976],[-10,-25]],[[2281981,2571951],[24,-85]],[[2282005,2571866],[162,-172]],[[2282167,2571694],[27,-29]],[[2282194,2571665],[-180,-214],[46,-146],[180,-47]],[[2282240,2571258],[48,-1]],[[2282288,2571257],[38,35]],[[2282326,2571292],[13,8]],[[2282339,2571300],[28,-5]],[[2282367,2571295],[22,-37]],[[2282389,2571258],[7,-30]],[[2282396,2571228],[-65,-208]],[[2282331,2571020],[-92,-39]],[[2282239,2570981],[-68,-133]],[[2282171,2570848],[113,-82]],[[2282284,2570766],[76,-41]],[[2282360,2570725],[72,-137]],[[2282432,2570588],[-75,-42]],[[2282357,2570546],[-131,-23]],[[2282226,2570523],[1,-43]],[[2282227,2570480],[55,-96]],[[2282282,2570384],[-23,-103]],[[2282259,2570281],[-7,-76]],[[2282252,2570205],[66,-39]],[[2282318,2570166],[80,-38]],[[2282398,2570128],[68,-24]],[[2282466,2570104],[138,-44]],[[2282604,2570060],[182,30],[214,-185]],[[2283000,2569905],[41,-1]],[[2283041,2569904],[158,29]],[[2283199,2569933],[173,59]],[[2283372,2569992],[306,253],[249,60]],[[2283927,2570305],[154,47]],[[2284081,2570352],[399,42]],[[2284480,2570394],[55,-23]],[[2284535,2570371],[231,4]],[[2284766,2570375],[91,-13]],[[2284857,2570362],[319,-20]],[[2285176,2570342],[68,-17]],[[2285244,2570325],[327,118],[137,186]],[[2285708,2570629],[258,110]],[[2285966,2570739],[232,74]],[[2286198,2570813],[87,67]],[[2286285,2570880],[105,14]],[[2286390,2570894],[74,0]],[[2286464,2570894],[86,-3]],[[2286550,2570891],[99,26]],[[2286649,2570917],[249,17]],[[2286898,2570934],[49,9]],[[2286947,2570943],[63,47]],[[2287010,2570990],[150,227],[174,55],[641,-50],[498,-149]],[[2288473,2571073],[299,251]],[[2288772,2571324],[97,161]],[[2288869,2571485],[35,52]],[[2288904,2571537],[75,-99]],[[2288979,2571438],[277,-303],[25,-187],[-280,-590],[-1061,-830],[-478,-696],[-57,-498],[97,-502],[248,-385],[-442,-219],[-741,-593],[112,-1335],[-313,-373],[-111,-355],[-210,-225],[579,-722],[223,-689],[21,-243],[-283,-390],[42,-308],[-333,-82],[17,-506],[-343,-325],[100,-251],[-625,-275],[-303,163],[-484,19],[406,-802],[29,-214],[-182,-217],[-39,-345],[-491,-329],[-214,-387],[-56,-1259],[215,-246],[20,-198],[-49,-367],[-98,-93],[10,-281],[-237,-585],[185,-495],[-26,-252],[-270,-272],[-32,-150],[146,-220],[68,-400],[-231,-495],[-543,-294],[225,-239],[130,-291],[39,-527],[-124,-342],[67,-366]],[[2283604,2551072],[-1144,65],[-184,-339],[-1039,15],[-354,543],[-1014,-84],[-241,-198],[-669,-274],[-2324,-321],[-107,-98],[-136,-210],[-21,-792],[195,-159],[143,-407],[35,-393],[-253,-1140],[-649,-938],[81,-750],[-165,-666],[-666,-516],[-171,-544],[-261,-36],[-285,-856],[-224,-412],[-220,-764],[-191,-349],[-97,-707],[-303,-615],[-159,-1098],[-312,-512],[-157,-775],[-19,-656],[-715,-154],[-583,266],[-472,-10]],[[2270923,2537188],[-1062,-104],[-1194,-979],[-702,93],[-4214,1098],[-329,-1406],[280,-1469],[-4,-332],[-414,-1438],[20,-1460],[-74,-466],[-201,-400],[-59,-615],[231,-1345],[-90,-1089],[-245,-1201],[250,-591],[14,-391],[-33,-429],[-173,-461],[69,-288],[-88,-698],[-144,-423],[-213,-253],[-969,-318],[-209,-594],[-235,-377],[-212,-103],[-366,13],[-434,-327],[-687,398],[-1408,334],[-576,-570],[-2123,-1269],[-1741,-1695],[-720,-1256],[-815,-2696],[-301,-2153],[-28,-1332],[151,-558],[59,-685],[-275,-437],[-200,-624],[-30,-881],[-90,-332],[-172,-209],[-345,-160],[-186,-547],[50,-418],[420,-728],[142,-1065],[302,-960],[-10,-970],[-165,-1720],[146,-163],[398,151],[420,45],[551,-689],[194,-370],[339,-277],[285,-110],[249,-351],[398,-71],[481,-286],[773,119],[792,354],[320,-94],[31,-211],[-231,-544],[105,-418],[-15,-357],[662,-2074],[-36,-512],[72,-537],[-623,-1434],[-359,-623],[155,-953],[-352,-776],[51,-1351],[-381,-978],[-762,-1056],[-1060,-719],[120,-73],[318,-734],[-383,-1303],[-226,-386],[-947,-317],[-504,135],[-376,-548],[-66,-1620],[-263,-178],[-402,-465],[401,-393],[-130,-698],[-420,-381],[-413,110],[-699,-574]],[[2249988,2478592],[-723,-696],[-1083,-2495],[-452,-2204],[-718,-2338],[-1039,-1443],[-995,-1785],[-3019,-2333],[-544,-963],[-558,-573],[-134,-376],[-511,-641],[-141,-513],[211,-400],[172,-135],[-106,-159],[86,-385],[455,-397],[234,-470],[341,-221],[249,-30],[558,-559],[-55,-441],[179,-140],[-182,-905],[108,-147],[-6,-162],[237,-274],[27,-178],[275,-191],[12,-152],[122,-105],[-4,-203],[227,-290],[66,-275],[258,-235],[1451,-696],[133,-565],[-126,-124],[-140,-539],[-119,-51],[-143,-306],[-5,-119],[156,-234],[-315,-569],[74,-1246],[-248,-581],[138,-348],[108,-71],[-42,-217],[578,-581],[-25,-99],[-156,-75],[-57,-359],[286,-677],[0,-389],[385,-436],[479,242],[-115,-393],[27,-544],[441,-530],[144,-320],[224,-255],[407,-290],[258,-60],[149,-174],[253,-25],[122,173],[273,12],[316,-95],[142,-154],[-18,-210],[-186,-313],[-270,-186],[47,-517],[-153,-475],[65,-174],[-62,-296],[53,-252],[235,-210],[15,-102],[435,-242],[15,-267],[115,-247],[-26,-167],[-152,-181],[52,-312],[397,-64],[206,-278],[201,-27],[611,150],[392,464],[346,-72],[220,244],[441,-224],[236,8],[270,178],[276,-186],[243,117],[74,-35]],[[2252666,2441207],[-108,-222],[5,-299],[-284,-467],[307,-440],[238,-585],[31,-904],[-69,-152],[138,-617],[-322,-594],[-290,-324],[-29,-281],[-382,-279],[-15,-243],[209,-354],[-352,-422],[-49,-531],[-201,-551],[-21,-302],[-101,-130],[71,-304],[-144,-456],[20,-261],[364,-347],[2,-720],[-86,-361],[69,-318],[568,-659],[604,-2677],[-30,-580],[-2279,-1659],[-534,-280],[-703,-146],[-836,59],[-820,211],[-422,-143],[-168,-138],[-105,-1590],[-337,-1104],[-276,-3820],[348,-374],[752,-408],[2279,-743],[-351,-40],[-135,-234],[-446,-96],[-260,-278],[-903,-185],[-233,-431],[-197,-62],[-352,-417],[-39,-715],[-258,-916],[21,-233],[-500,-1019],[52,-226],[-114,-139],[294,-398],[-40,-373],[138,-153],[2,-146],[602,-702],[-46,-178],[109,-32],[100,-244],[161,70],[142,-131],[-113,-374],[147,-417],[433,-401],[110,-427],[-79,-537],[106,-248],[-74,-183],[320,-702],[-34,-856],[128,-164],[-249,-356],[53,-355],[-411,-310],[-142,-372],[-202,-865],[241,-403],[-264,-357],[-124,8],[38,-89],[-151,-14],[9,82],[-66,-16],[-312,-594],[5,-237],[-182,-292],[-85,-355],[-173,-140],[-154,-595],[-153,-61],[-106,79],[99,-370],[-141,-275],[-118,-37],[-27,-156],[80,-14],[-123,-252],[39,-108],[-224,-67],[4,-265],[-254,-261],[-204,-434],[-212,123],[-82,-62],[-226,29],[-81,-252],[-200,-43],[-80,-254],[145,-150],[-2,-178],[-71,-253],[-270,-381],[-39,-252],[-110,-146],[-264,-137],[-119,-295],[-252,-52],[-556,-999],[-672,25],[-148,-66],[-323,-373],[-3,-223],[149,-93],[120,-382],[-273,-360],[-74,-672],[-142,-415],[-156,-179],[-62,-430],[-215,-61],[62,-279],[-274,-1032]],[[2240672,2389782],[-581,241],[-187,220],[-155,402],[-18,694],[-167,874],[-528,568],[-837,296],[-358,478],[-1738,-83],[-1082,-539],[-326,-18],[-607,157],[-777,534],[-979,-1002],[-275,-759],[-1200,-923],[-1132,521],[-704,510],[-624,180],[-421,254],[-451,738],[-99,43],[-946,-174],[-1090,-536]],[[2225390,2392458],[-596,121],[-541,-30],[-1672,-878],[-1615,-134],[-57,-145],[23,-645],[-124,-245],[-530,-468],[-260,-557],[-688,-790],[-169,-301],[-1354,-1269],[-485,-668],[-175,-844],[-29,-740],[-489,-858],[-389,-978],[164,-690],[-21,-299],[-970,-895],[-446,-670],[-525,-1067],[-259,-1272],[-960,-2015],[-69,-780],[-131,-191],[-459,-425],[-651,-384],[-290,-272],[-636,-873],[-121,-7],[-693,335],[-1032,202],[-382,-14],[-325,-195],[-99,-161],[49,-230],[630,-1542],[403,-1961],[85,-683],[-70,-1500],[-127,-105],[-198,-21],[-904,440],[-680,-196],[-693,153],[-1568,-514],[-495,-255],[-405,-362],[-226,-395],[-86,-677],[-164,-201],[19,-475],[-245,-1040],[18,-739],[-662,-1604],[-504,-493],[-667,-1492],[-958,-945],[-644,-948],[-461,-432],[-1201,-1557],[-1289,-1081],[-154,-62],[-693,159],[-1192,-190],[-943,727],[-354,579],[-445,272],[-1351,-1738],[-551,-328],[-85,-154],[-141,-516],[299,-441],[309,-771],[248,-302],[538,-2062],[233,-573],[727,-1119],[116,-297],[1042,-1286],[297,-612],[155,-612],[26,-191],[-258,-880],[-426,-918],[-271,-918],[51,-230],[827,-395],[1318,-38],[233,-76],[228,-265],[535,-1010],[504,-434],[142,-280],[130,-804],[-39,-306],[-310,-1453],[-478,-1161],[-284,-280],[-258,-64],[-621,127],[-1007,-153],[-285,89],[-232,191],[-323,64],[-401,-128],[-297,-268],[-1176,-497],[-1068,-167],[-122,177],[-115,1150],[-220,1135],[-168,178],[-311,153],[-503,89],[-569,255],[-801,217],[-285,-13],[-129,-153],[-542,-1276],[-1021,77],[-846,-141],[-91,-212],[240,-770],[0,-306],[-479,-1779],[-216,-190],[-196,-8],[-957,638],[-297,63],[-284,-63],[-1535,-1377],[-581,-164],[-852,-22],[-16,-146],[243,-190],[152,-265],[-37,-1558],[-120,-143],[-703,-282],[-598,-385],[-268,-313],[-329,-699],[-220,-289],[-524,-373],[-256,-433],[-55,-712],[-139,-291],[-294,-50],[-524,318],[-715,169],[-298,-109],[-914,-622],[-1184,-414],[-146,-145],[64,-470],[-77,-252],[137,-583],[-79,-248],[-202,-171],[-734,-107],[-375,-135],[-907,-668],[-489,-114],[-1469,-839],[-828,-271],[130,-391],[648,-561],[187,-433],[252,-320],[152,-419],[612,-547],[123,-1322],[-115,-1003],[-763,-632],[-252,-71],[-180,42],[-375,469],[-561,455],[-649,128],[-237,-93],[-432,-682],[-21,-491],[286,-1343]],[[2167628,2314384],[-374,-668],[-177,-689],[-520,-859],[-751,65],[-514,-163],[-283,26],[-975,435],[-752,598],[-615,139],[-261,-16],[-92,-96]],[[2162314,2313156],[-552,330],[-1494,12],[-544,-170],[-1279,-1241],[-657,-366],[-478,-377],[-1226,-624],[-220,-241],[-540,-281]],[[2155324,2310198],[-187,178],[-342,135],[-533,695],[-711,326],[-395,408],[-227,375],[-347,1069],[-313,429],[-93,842],[-179,455],[52,669],[398,399],[207,353],[254,102],[-73,182],[64,108],[274,129],[50,155],[-59,121],[639,394],[65,218],[69,-113],[93,-3],[106,122],[301,35],[75,122],[235,-72],[304,75],[307,430],[23,168],[142,110],[-56,141],[257,-42],[-39,480],[120,-6],[114,-135],[28,130],[129,8],[349,246],[83,146],[218,-28],[95,163],[254,146],[16,601],[-173,193],[45,521],[-104,292],[210,452],[-129,-100],[-42,44],[304,712],[118,74],[64,284],[-62,157],[-215,162],[126,155],[-59,267],[151,127],[-241,-9],[-8,237],[229,72],[53,573],[159,133],[16,383],[155,39],[-33,217],[253,182],[222,-180],[341,327],[528,-160],[277,295],[122,-17],[274,-261],[182,250],[39,-46],[217,176],[894,1249],[-15,452],[76,168],[307,198],[516,75],[224,113],[273,267],[126,530],[298,159],[388,453],[137,253],[-243,325],[101,585],[250,429],[620,466],[226,436],[505,474],[229,105],[263,333],[103,585],[502,275],[176,284],[279,802],[684,717],[285,99],[321,571],[781,620],[-50,367],[229,534],[-14,441],[215,353],[66,744],[304,979],[226,385],[-123,408],[95,414],[586,543],[-139,333],[153,403],[-103,421],[298,152],[140,242],[19,510],[-207,176],[6,83],[276,416],[59,348],[346,146],[128,493],[288,135],[-48,171],[79,198],[-366,207],[187,116],[19,303],[195,491],[316,471],[-59,85],[-436,75],[-97,154],[159,298],[75,501],[243,328],[33,287],[218,234],[229,88],[282,-82],[167,104],[-159,331],[179,584],[388,199],[100,198],[293,111],[411,358],[142,474],[196,39],[203,-86],[137,75],[42,138],[-78,159],[586,436],[89,433],[369,829],[64,665],[293,121],[72,116],[39,520],[232,430],[371,1420],[511,862],[413,276],[39,331],[374,568],[190,697],[-31,427],[61,135],[-232,322],[59,94],[508,146],[120,163],[187,458],[8,355],[380,664],[-42,383],[-271,474],[-23,347],[324,353],[-36,226],[299,474],[-42,279],[114,529],[131,204],[-20,766],[235,391],[-101,372],[176,232],[36,871],[459,1015],[-24,338],[176,603],[45,1104],[-180,267],[-394,350],[133,609],[-147,403],[315,672],[-353,537],[129,340],[23,609],[-217,1014],[289,9],[45,759],[-240,748],[-52,1333],[-64,137],[-270,148],[-165,277],[-193,108],[-216,453],[-508,474],[-655,1196],[-320,148],[-243,247],[-759,-113],[-542,397],[-377,464],[-505,119],[-139,181],[-269,87],[341,828],[513,169],[245,282],[185,601],[-105,332],[35,284],[296,504],[120,413],[243,196],[326,474],[181,693],[350,198],[433,459],[61,622],[240,456],[88,355],[107,1010],[-38,780],[-222,142],[-53,129],[200,211],[-91,353],[53,314],[-77,229],[-273,87],[227,487],[64,356],[-529,1803],[-6,408],[123,498],[-379,507]],[[2177186,2398455],[-165,445],[289,83],[137,671],[394,877],[-114,375],[380,904],[285,146],[163,454],[1782,1032],[1273,1564],[178,918],[-30,570],[-179,682],[102,360],[-182,161],[-67,333],[144,210],[384,1042],[-72,203],[-206,135],[-38,240],[80,374],[262,323],[-99,202],[4,259],[133,113],[235,45],[110,435],[285,258],[-83,510],[399,323],[-42,577],[330,323],[137,289],[83,1364],[-84,424],[327,352],[300,743],[216,97],[76,139],[-60,356],[-282,225],[-23,218],[126,86],[479,41],[490,353],[-73,476],[54,143],[296,112],[243,368],[217,123],[144,469],[163,135],[167,323],[99,296],[-38,483],[83,349],[396,-7],[847,1736],[-84,821],[467,574],[-65,881],[-304,318],[27,252],[167,270],[460,-251],[239,-338],[483,-213],[289,-278],[779,-258],[825,-75],[198,-304],[42,-303],[258,-349],[859,-824],[232,-405],[719,-701],[855,-371],[23,-176],[471,-911],[301,-356],[350,-308],[456,-198],[346,-23],[516,-326],[103,-416],[312,8],[608,-214],[179,-153],[1011,-278],[292,45],[304,-138],[551,19],[1236,-277],[289,86],[338,-56],[361,49],[433,-143],[1186,-708],[327,-105],[429,15],[118,-79],[350,-371],[312,-659],[654,-514],[391,-142],[372,-434],[1137,-131],[524,22],[1359,1077],[22,341],[268,748],[334,352],[1577,812],[691,141],[211,803],[18,369],[-105,612],[-206,332],[-156,595],[50,635],[282,633],[141,581],[-166,751],[145,1300],[-35,479],[442,1110],[37,654],[-37,510],[-325,709],[8,487],[173,828],[-112,446],[284,850],[129,1308],[146,554],[-214,778],[89,373],[-65,668],[381,1492],[83,1092],[556,848],[-92,343],[54,735],[-202,967],[-176,293],[-100,384],[321,442],[91,1270]],[[2214268,2442571],[248,1207],[438,1333]],[[2214954,2445111],[194,91],[84,197],[53,823],[98,315],[444,333],[-33,936],[413,751],[235,1572],[239,415],[38,719],[581,724],[479,889],[502,-134],[643,111],[1290,1000],[160,295],[-19,710],[535,1567],[56,475],[117,115],[1600,701],[901,687],[586,4],[470,-480],[181,-48],[39,64],[-11,243],[-170,253],[-884,690],[-164,723],[203,690],[396,571],[622,626],[-156,571],[-448,903],[-8,652],[87,508],[-346,229],[388,520],[150,335],[69,407],[-101,550],[-491,226],[-1014,724],[-807,143],[-601,-30],[-462,142],[119,778],[-141,443],[-979,1122],[-355,134],[-100,139],[1019,1010],[532,388],[145,883],[234,630],[-65,2499],[542,1915],[-14,633],[-219,1072],[-134,1502],[-95,3708],[-210,1155],[38,1880],[-436,1124],[-43,455],[65,660],[199,554],[193,285],[210,829],[5,333],[-123,285],[-425,174],[-167,164],[-91,460],[97,559],[531,714],[39,691],[148,336],[0,1078],[185,487],[271,347],[13,117],[-233,488],[79,1350]],[[2221926,2499000],[216,-203],[292,-7],[395,359],[101,228],[27,862],[-244,755],[8,873],[-249,681],[160,229],[135,727],[579,1713],[280,346],[157,428],[-8,142],[-190,289],[27,176],[687,1338],[633,766],[-4,1079],[217,340],[652,606],[442,1087],[198,301],[194,84],[905,-107],[209,114],[78,774],[-241,1064],[20,412],[430,663],[342,1125],[388,560],[-3,830],[355,915],[8,186],[754,412],[312,560],[-3,129],[-256,363],[29,652],[105,438],[206,306],[54,632],[518,539],[242,979],[-32,180],[-169,199],[269,880],[-228,546],[116,568],[298,224],[-56,143],[35,624],[-101,451],[126,78],[-13,148],[175,379],[178,30],[495,751],[282,211],[121,366],[-87,326],[-224,318],[0,238],[-71,87],[97,323],[-107,847],[117,120],[43,601],[-116,377],[-135,45],[-45,354],[-495,1452],[2056,945],[-1376,1566],[-305,83],[-306,211],[-450,1302],[-101,1261],[-1029,1263],[-321,711],[587,313],[593,803],[-483,621],[217,271],[1389,175],[1792,1034],[71,173],[-47,367],[-304,530],[-443,122],[-144,594],[-173,107],[937,621],[4,708],[-54,380],[-98,132],[-318,-15],[-412,127],[-72,110],[249,554],[-29,368],[-142,296],[19,384],[103,195],[-283,433],[-82,274],[23,168],[-128,274],[3,948],[-80,47],[-79,455],[-276,210],[638,231],[320,302],[264,17],[119,1085],[-219,15],[-26,269],[-523,432],[-462,-220],[-226,1177],[39,148],[-238,1631],[-368,980],[-210,293],[-280,1388],[-81,-34],[-67,68],[-5835,1260],[-71,-357],[-3441,4212],[-408,451],[-93,-24],[-167,125],[-77,165],[22,384],[-416,-183],[-57,424],[-324,-86],[-210,70],[22,122],[283,185],[-131,170],[-346,99],[-65,88],[134,99],[318,-40],[146,518],[-150,246],[-435,48],[-218,151],[-82,156],[26,315],[327,581],[-62,349]],[[2219434,2571042],[417,258],[1019,-257],[430,138],[80,128],[1,285],[-437,835],[1056,44],[361,102],[832,445],[-59,146],[-516,-289],[-99,196],[555,323],[-361,920],[1128,-29],[401,143],[173,167],[85,327],[-446,766],[-9,297],[192,93],[225,-66],[1085,-754],[144,-34],[227,117],[-77,173],[-529,167],[-84,129],[68,261],[464,514],[1374,691],[355,510],[321,711],[358,50],[306,-85],[1509,-996],[298,36],[426,333],[195,-22],[38,-170],[-667,-1279],[13,-182],[194,-45],[772,550],[735,1090],[804,518],[154,80],[505,-23],[308,329],[605,447],[360,-39],[496,-263],[443,48],[96,55],[168,389],[77,528],[246,4],[394,-344],[191,3],[93,86],[96,171],[40,817],[118,235],[168,29],[698,-208],[313,108],[-33,232],[-715,286],[-15,162],[207,435],[-90,81],[-883,50],[-1848,566],[-465,1019],[-17,486],[-970,686],[-3,261],[387,1476],[685,415],[379,503],[706,649],[-144,223],[-432,183],[-274,309],[-228,796],[-318,279],[-14,579]],[[2234275,2590425],[202,289],[582,423],[151,356],[-25,321],[-1550,-74],[-597,293],[-147,207],[12,138],[1786,612],[120,389],[-34,741],[-468,460],[-11,250],[849,1109],[2577,1386],[181,918],[119,249],[457,433],[321,48],[70,-71]],[[2238870,2598902],[-194,-343],[169,-156],[1649,-272],[208,109],[485,733],[1792,956],[589,133],[969,411],[192,-119],[183,-553],[181,-86],[772,230],[289,177],[283,389],[150,28],[363,-238],[-84,-410],[165,-518],[114,-90],[134,60],[664,735],[11,181],[-450,634],[-237,1026],[94,114],[379,115],[28,152],[-84,62],[-673,14],[-173,485],[-590,180],[-59,263],[407,810],[46,594],[101,149],[252,110],[654,-41],[513,363],[-20,293],[-132,286],[-521,22],[114,335],[141,70],[294,-19],[471,-229],[211,-755],[171,-73],[116,50],[-1,156],[-350,820],[-226,415],[-276,284],[-24,215],[105,62],[1415,53],[-141,1072],[-172,581],[164,244],[259,188],[832,71],[135,104],[356,1600],[-78,122],[-135,25],[-443,-418],[-107,57],[-37,189],[105,267],[686,393],[231,350],[15,358],[-488,-28],[-68,117],[389,517],[171,734],[230,447],[-36,97],[-101,17],[-502,-345],[-351,-16],[-11,146],[761,382],[109,156],[-49,276],[-113,74],[-543,-204],[-133,23],[-32,89],[235,243],[619,103],[-148,1081],[181,-6],[390,-297],[275,42],[-78,257],[-573,223],[-45,89],[44,241],[364,756],[279,150],[466,-6],[177,-133],[3,-139],[-138,-67],[-564,49],[-15,-244],[212,-468],[1017,411],[72,111],[104,817],[649,1453],[245,257],[567,-106],[13,-193],[-404,-376],[83,-153],[154,0],[295,386],[233,745],[182,138],[676,-150],[396,27],[250,129],[145,-40],[-50,-664],[147,-806],[428,-901],[189,-37],[770,615],[306,144],[210,319],[388,312],[145,216],[-57,155],[-551,-241],[-663,186],[105,191],[191,132],[360,-87],[215,149],[20,536],[-180,439],[502,-10],[109,62],[32,154],[-120,106],[-391,100],[-6,116],[1909,1148],[465,174],[269,357],[28,189],[-70,106],[-738,253],[-737,429],[32,283],[525,101],[37,130],[-510,252],[-413,19],[-348,385],[180,683],[-7,634],[78,93],[590,54],[255,256],[77,-12],[105,-473],[212,-355],[-205,-502],[156,-313],[109,-60],[202,180],[258,694],[391,536],[-6,244],[-694,1281],[-527,415],[-650,817],[-442,375],[144,197],[1162,596]],[[2260850,2630641],[73,59]],[[2260923,2630700],[27,23]],[[2260950,2630723],[1,0]],[[2260951,2630723],[11,7]],[[2260962,2630730],[7,3]],[[2260969,2630733],[28,16]],[[2260997,2630749],[59,32]],[[2261056,2630781],[17,9]],[[2261073,2630790],[325,114]],[[2261398,2630904],[27,9]],[[2261425,2630913],[243,81]],[[2261668,2630994],[34,11]],[[2261702,2631005],[53,19]],[[2261755,2631024],[40,15]],[[2261795,2631039],[44,15]],[[2261839,2631054],[50,17]],[[2261889,2631071],[48,15]],[[2261937,2631086],[33,8]],[[2261970,2631094],[298,92]],[[2262268,2631186],[68,23]],[[2262336,2631209],[68,19]],[[2262404,2631228],[108,31]],[[2262512,2631259],[48,9]],[[2262560,2631268],[73,9]],[[2262633,2631277],[41,5]],[[2262674,2631282],[33,2]],[[2262707,2631284],[49,0]],[[2262756,2631284],[72,0]],[[2262828,2631284],[43,-2]],[[2262871,2631282],[299,-41]],[[2263170,2631241],[49,-21]],[[2263219,2631220],[279,-148]],[[2263498,2631072],[33,-24]],[[2263531,2631048],[9,-7]],[[2263540,2631041],[56,-51]],[[2263596,2630990],[51,-47]],[[2263647,2630943],[30,-35]],[[2263677,2630908],[73,-74]],[[2263750,2630834],[36,-35]],[[2263786,2630799],[14,-15]],[[2263800,2630784],[32,-33]],[[2263832,2630751],[30,-31]],[[2263862,2630720],[95,-115]],[[2263957,2630605],[20,-35]],[[2263977,2630570],[22,-43]],[[2263999,2630527],[17,-46]],[[2264016,2630481],[47,-144]],[[2264063,2630337],[17,-70]],[[2264080,2630267],[45,-147]],[[2264125,2630120],[27,-77]],[[2264152,2630043],[16,-42]],[[2264168,2630001],[27,-87]],[[2264195,2629914],[46,-269]],[[2264241,2629645],[-1,-72]],[[2264240,2629573],[0,-155]],[[2264240,2629418],[4,-71]],[[2264244,2629347],[-1,-68]],[[2264243,2629279],[-1,-35]],[[2264242,2629244],[1,-233]],[[2264243,2629011],[-2,-23]],[[2264241,2628988],[0,-25]],[[2264241,2628963],[-2,-28]],[[2264239,2628935],[7,-43]],[[2264246,2628892],[6,-9]],[[2264252,2628883],[61,-35]],[[2264313,2628848],[33,-2]],[[2264346,2628846],[246,44]],[[2264592,2628890],[40,8]],[[2264632,2628898],[278,30]],[[2264910,2628928],[31,-6]],[[2264941,2628922],[38,-11]],[[2264979,2628911],[38,-12]],[[2265017,2628899],[11,-4]],[[2265028,2628895],[35,-15]],[[2265063,2628880],[124,-82]],[[2265187,2628798],[24,-21]],[[2265211,2628777],[11,-8]],[[2265222,2628769],[25,-23]],[[2265247,2628746],[11,-10]],[[2265258,2628736],[25,-17]],[[2265283,2628719],[17,-9]],[[2265300,2628710],[16,-4]],[[2265316,2628706],[54,-3]],[[2265370,2628703],[10,4]],[[2265380,2628707],[19,14]],[[2265399,2628721],[5,15]],[[2265404,2628736],[7,19]],[[2265411,2628755],[3,26]],[[2265414,2628781],[0,4]],[[2265414,2628785],[1,20]],[[2265415,2628805],[-40,235]],[[2265375,2629040],[-13,43]],[[2265362,2629083],[-17,61]],[[2265345,2629144],[-19,72]],[[2265326,2629216],[-30,135]],[[2265296,2629351],[-16,74]],[[2265280,2629425],[-6,33]],[[2265274,2629458],[-6,77]],[[2265268,2629535],[-7,68]],[[2265261,2629603],[9,463]],[[2265270,2630066],[6,49]],[[2265276,2630115],[12,42]],[[2265288,2630157],[18,44]],[[2265306,2630201],[15,43]],[[2265321,2630244],[20,44]],[[2265341,2630288],[40,105]],[[2265381,2630393],[11,28]],[[2265392,2630421],[17,31]],[[2265409,2630452],[16,27]],[[2265425,2630479],[11,17]],[[2265436,2630496],[35,54]],[[2265471,2630550],[68,168]],[[2265539,2630718],[46,72]],[[2265585,2630790],[191,102]],[[2265776,2630892],[31,2]],[[2265807,2630894],[25,-10]],[[2265832,2630884],[26,-14]],[[2265858,2630870],[167,-317]],[[2266025,2630553],[8,-48]],[[2266033,2630505],[-17,-187]],[[2266016,2630318],[-22,-111]],[[2265994,2630207],[-22,-97]],[[2265972,2630110],[-21,-151]],[[2265951,2629959],[5,-36]],[[2265956,2629923],[12,-46]],[[2265968,2629877],[15,-52]],[[2265983,2629825],[9,-31]],[[2265992,2629794],[7,-32]],[[2265999,2629762],[64,-336]],[[2266063,2629426],[13,-13]],[[2266076,2629413],[12,-7]],[[2266088,2629406],[28,-11]],[[2266116,2629395],[72,4]],[[2266188,2629399],[18,15]],[[2266206,2629414],[3,3]],[[2266209,2629417],[35,45]],[[2266244,2629462],[13,23]],[[2266257,2629485],[14,24]],[[2266271,2629509],[5,11]],[[2266276,2629520],[10,33]],[[2266286,2629553],[13,47]],[[2266299,2629600],[8,34]],[[2266307,2629634],[5,24]],[[2266312,2629658],[2,54]],[[2266314,2629712],[0,15]],[[2266314,2629727],[-1,70]],[[2266313,2629797],[-3,20]],[[2266310,2629817],[-7,36]],[[2266303,2629853],[-18,97]],[[2266285,2629950],[-8,48]],[[2266277,2629998],[-58,256]],[[2266219,2630254],[-4,34]],[[2266215,2630288],[-5,81]],[[2266210,2630369],[3,19]],[[2266213,2630388],[30,74]],[[2266243,2630462],[17,31]],[[2266260,2630493],[49,65]],[[2266309,2630558],[34,49]],[[2266343,2630607],[20,53]],[[2266363,2630660],[17,46]],[[2266380,2630706],[13,46]],[[2266393,2630752],[23,41]],[[2266416,2630793],[27,50]],[[2266443,2630843],[107,80]],[[2266550,2630923],[0,-2]],[[2266550,2630921],[79,-46]],[[2266629,2630875],[19,-34]],[[2266648,2630841],[6,-29]],[[2266654,2630812],[6,-58]],[[2266660,2630754],[-1,-48]],[[2266659,2630706],[-39,-284]],[[2266620,2630422],[-10,-53]],[[2266610,2630369],[-8,-206]],[[2266602,2630163],[4,-34]],[[2266606,2630129],[0,-34]],[[2266606,2630095],[3,-25]],[[2266609,2630070],[2,-24]],[[2266611,2630046],[52,-166]],[[2266663,2629880],[35,-61]],[[2266698,2629819],[86,-146]],[[2266784,2629673],[25,-42]],[[2266809,2629631],[23,-46]],[[2266832,2629585],[20,-32]],[[2266852,2629553],[55,-148]],[[2266907,2629405],[27,-118]],[[2266934,2629287],[116,-255]],[[2267050,2629032],[13,-26]],[[2267063,2629006],[10,-28]],[[2267073,2628978],[24,-60]],[[2267097,2628918],[15,-29]],[[2267112,2628889],[27,-62]],[[2267139,2628827],[9,-18]],[[2267148,2628809],[29,-84]],[[2267177,2628725],[2,-6]],[[2267179,2628719],[5,-20]],[[2267184,2628699],[3,-22]],[[2267187,2628677],[6,-17]],[[2267193,2628660],[7,-22]],[[2267200,2628638],[0,-1]],[[2267200,2628637],[66,-47]],[[2267266,2628590],[28,-2]],[[2267294,2628588],[67,26]],[[2267361,2628614],[20,33]],[[2267381,2628647],[5,30]],[[2267386,2628677],[-20,46]],[[2267366,2628723],[-9,12]],[[2267357,2628735],[-23,40]],[[2267334,2628775],[-9,23]],[[2267325,2628798],[-4,18]],[[2267321,2628816],[53,102]],[[2267374,2628918],[45,37]],[[2267419,2628955],[14,7]],[[2267433,2628962],[95,29]],[[2267528,2628991],[25,8]],[[2267553,2628999],[92,13]],[[2267645,2629012],[528,28]],[[2268173,2629040],[62,-8]],[[2268235,2629032],[115,-16]],[[2268350,2629016],[39,-6]],[[2268389,2629010],[83,-17]],[[2268472,2628993],[55,-12]],[[2268527,2628981],[52,-6]],[[2268579,2628975],[31,4]],[[2268610,2628979],[143,166]],[[2268753,2629145],[31,23]],[[2268784,2629168],[104,77]],[[2268888,2629245],[49,43]],[[2268937,2629288],[345,377]],[[2269282,2629665],[18,58]],[[2269300,2629723],[11,32]],[[2269311,2629755],[7,34]],[[2269318,2629789],[16,168]],[[2269334,2629957],[-2,45]],[[2269332,2630002],[0,33]],[[2269332,2630035],[4,46]],[[2269336,2630081],[148,116]]]}
