{"type":"Topology","bbox":[-76.21142813020522,4.663174205640637,-75.37549959156591,5.567753520157405],"transform":{"scale":[0.000003385120954067422,0.0000034456095261769775],"translate":[-81.73562055563167,-4.229406466336059]},"objects":{"MGN_ADM_MPIO_GRAFICO":{"type":"GeometryCollection","geometries":[{"type":"Polygon","arcs":[[35,36,26,-26,-25,27,28,29,30,31,37,38,39]],"bbox":[-75.935889439907,4.663174205640637,-75.37549959156591,4.906082786017061],"properties":{"dpto_ccdgo":"66","mpio_ccdgo":"001","mpio_cdpmp":"66001","dpto_cnmbr":"RISARALDA","mpio_cnmbr":"PEREIRA"}},{"type":"Polygon","arcs":[[40,41,42,-10]],"bbox":[-76.06048558686336,5.040726869471479,-75.88378227306104,5.236540858844117],"properties":{"dpto_ccdgo":"66","mpio_ccdgo":"045","mpio_cdpmp":"66045","dpto_cnmbr":"RISARALDA","mpio_cnmbr":"APÍA"}},{"type":"Polygon","arcs":[[43,-38,32,33,44,45]],"bbox":[-75.99411013519601,4.856707201506945,-75.87978783033525,4.990041953341416],"properties":{"dpto_ccdgo":"66","mpio_ccdgo":"075","mpio_cdpmp":"66075","dpto_cnmbr":"RISARALDA","mpio_cnmbr":"BALBOA"}},{"type":"Polygon","arcs":[[46,-12,-11,-43,47,48]],"bbox":[-75.93224027951851,5.105580131973182,-75.80237688435763,5.274342640955805],"properties":{"dpto_ccdgo":"66","mpio_ccdgo":"088","mpio_cdpmp":"66088","dpto_cnmbr":"RISARALDA","mpio_cnmbr":"BELÉN DE UMBRÍA"}},{"type":"Polygon","arcs":[[49,50,-36]],"bbox":[-75.7190419767104,4.792188163129282,-75.62325320907316,4.888858183995703],"properties":{"dpto_ccdgo":"66","mpio_ccdgo":"170","mpio_cdpmp":"66170","dpto_cnmbr":"RISARALDA","mpio_cnmbr":"DOSQUEBRADAS"}},{"type":"Polygon","arcs":[[51,-13,-47,52,-18]],"bbox":[-75.85921645029737,5.267975154551429,-75.748255570544,5.387517131452613],"properties":{"dpto_ccdgo":"66","mpio_ccdgo":"318","mpio_cdpmp":"66318","dpto_cnmbr":"RISARALDA","mpio_cnmbr":"GUÁTICA"}},{"type":"Polygon","arcs":[[-45,34,53]],"bbox":[-76.07993310674448,4.9124295987642785,-75.94555396023087,5.047249408304532],"properties":{"dpto_ccdgo":"66","mpio_ccdgo":"383","mpio_cdpmp":"66383","dpto_cnmbr":"RISARALDA","mpio_cnmbr":"LA CELIA"}},{"type":"Polygon","arcs":[[54,-39,-44,55,-7]],"bbox":[-75.88971977521447,4.869838419411206,-75.81455993467132,4.934760594103432],"properties":{"dpto_ccdgo":"66","mpio_ccdgo":"400","mpio_cdpmp":"66400","dpto_cnmbr":"RISARALDA","mpio_cnmbr":"LA VIRGINIA"}},{"type":"Polygon","arcs":[[56,-50,-40,-55,-6,-5]],"bbox":[-75.81663839893712,4.869569661868164,-75.68560375192612,5.04681870711376],"properties":{"dpto_ccdgo":"66","mpio_ccdgo":"440","mpio_cdpmp":"66440","dpto_cnmbr":"RISARALDA","mpio_cnmbr":"MARSELLA"}},{"type":"Polygon","arcs":[[-1,-19,-53,-49,57,-20,-2]],"bbox":[-76.08809124824379,5.245792320421902,-75.83313070822533,5.567753520157405],"properties":{"dpto_ccdgo":"66","mpio_ccdgo":"456","mpio_cdpmp":"66456","dpto_cnmbr":"RISARALDA","mpio_cnmbr":"MISTRATÓ"}},{"type":"Polygon","arcs":[[-58,-48,-42,-23,-22,-21]],"bbox":[-76.21142813020522,5.131987283381802,-75.92431232624409,5.448831752970932],"properties":{"dpto_ccdgo":"66","mpio_ccdgo":"572","mpio_cdpmp":"66572","dpto_cnmbr":"RISARALDA","mpio_cnmbr":"PUEBLO RICO"}},{"type":"Polygon","arcs":[[-16,-15,-14,-52,-17]],"bbox":[-75.77939529820047,5.2551712695521555,-75.64814061832746,5.397692016383413],"properties":{"dpto_ccdgo":"66","mpio_ccdgo":"594","mpio_cdpmp":"66594","dpto_cnmbr":"RISARALDA","mpio_cnmbr":"QUINCHÍA"}},{"type":"Polygon","arcs":[[-3,-37,-51,-57,-4]],"bbox":[-75.71779963732025,4.697985198683602,-75.37549959156591,4.9749984221501276],"properties":{"dpto_ccdgo":"66","mpio_ccdgo":"682","mpio_cdpmp":"66682","dpto_cnmbr":"RISARALDA","mpio_cnmbr":"SANTA ROSA DE CABAL"}},{"type":"Polygon","arcs":[[-9,-8,-56,-46,-54,-24,-41]],"bbox":[-76.07703205808684,4.912739703621636,-75.86050618138087,5.131987283381802],"properties":{"dpto_ccdgo":"66","mpio_ccdgo":"687","mpio_cdpmp":"66687","dpto_cnmbr":"RISARALDA","mpio_cnmbr":"SANTUARIO"}}]}},"arcs":[[[1733349,2820879],[-1106,6],[-377,86],[-603,-62],[-379,-248],[-185,-411],[-152,-149],[-410,-266],[-518,-176],[-393,-528],[-470,-237],[-1515,-205],[-411,280],[-316,-43],[-1464,-294],[-469,-277],[-956,-47],[-1121,-435],[-130,10],[-279,354]],[[1722095,2818237],[-273,989],[-636,675],[-475,149],[-395,26],[-329,172],[-504,-27],[-290,105],[-215,128],[-641,901],[-334,140],[-606,21],[-204,172],[-302,739],[-302,318],[-51,473],[-459,884],[-254,308],[-805,549],[-303,477],[-2,340],[233,218],[-143,293],[-377,-49],[-1334,378],[-1290,-44],[-361,-111],[-1568,-121],[-1812,35],[-1127,-828],[-150,-224],[-189,-121],[-202,-16],[-176,95],[-153,259],[-385,779],[-155,520],[-420,369],[-265,72],[-454,-76],[-330,106],[-676,41],[-819,348],[-601,583],[-944,193],[-1591,714],[-349,429],[-82,432],[-207,292],[-162,571],[-348,368],[-383,701],[-202,1611],[239,794],[-33,157],[-1185,156],[-1095,759],[-829,178],[-125,123],[-137,450],[28,245],[-648,1431],[-223,1118],[32,449],[-65,355],[206,598],[-234,777],[-1521,792],[-179,219],[-54,776],[-122,405],[-69,-30]],[[1878846,2621333],[-1324,-403],[-937,-438],[-783,-9],[-975,519],[-616,144],[-202,516],[-501,315],[-415,450],[-1369,376],[-282,-113],[-372,-504],[-375,-149],[-478,-323],[-244,18],[-847,529],[-717,916],[-442,204],[-460,3],[-613,189],[-458,381],[-502,157],[-1370,843],[-227,3],[-665,354],[-272,719],[-340,448],[-106,660],[-272,406],[83,1275],[-97,293],[113,233],[7,321],[-90,972],[-427,532],[-994,511],[-800,199],[-77,929],[-620,843],[-29,207],[95,210],[227,219],[399,172],[55,108],[-304,1118],[-61,898],[-524,718],[-460,106],[-556,375],[-278,432],[-254,770],[-631,386],[-306,442],[-386,294],[-125,195],[-88,409],[-197,-47],[-89,69],[-123,441],[-274,364],[-69,354],[-237,459],[-100,680],[-174,349],[-28,535],[177,321],[100,829],[-578,709],[-780,423],[-485,-94],[-809,22],[-344,-95],[-538,192],[-478,-94],[-583,394],[-418,95],[-468,287],[-91,221],[86,267],[-74,470],[-202,526],[-288,258],[-72,281],[200,753],[-176,436],[287,306],[-62,300],[-193,185],[-191,-76],[-299,71],[-260,-53],[-477,174],[-342,307],[-114,223],[-261,162],[-277,35],[-473,925],[12,178],[136,202],[713,659],[69,251],[259,235],[-19,155],[-887,-35],[-507,78],[-887,232],[-1666,782],[-1613,88],[-147,117],[-249,436],[-152,65],[-382,-18],[-219,-310],[-1286,585],[-1412,250],[-853,-293],[-890,87],[-931,-148],[-662,-263],[-1255,-1023],[-700,-377],[-1335,-28],[-374,-174],[-541,-31],[-717,352],[-304,525],[-315,271],[102,219],[-184,432],[68,116],[-79,127],[97,220],[-18,229],[-297,482],[-103,488],[-716,-145],[-680,-317],[-254,-159],[-146,-318],[-181,-131],[-406,-110],[-706,103],[-959,-220],[-127,77],[-265,592],[-540,763],[-68,845],[-234,669],[-938,1042],[-89,15],[-373,-441],[-467,-133],[-146,-11],[-307,273],[-245,108],[-690,-241]],[[1820715,2660097],[-183,-165],[-234,-649],[-350,-130],[-884,137],[-656,-156],[-683,170],[-245,-96],[-296,99],[-455,-66],[-532,367],[-366,-444],[-323,35],[-116,-66],[-369,-942],[-688,-659],[-314,-127],[-10,-226],[-315,255],[-29,315],[-361,390],[-580,263],[-516,59],[-298,160],[-437,69],[-287,-64],[-183,219],[-230,-36],[-130,167],[-167,-70],[-93,193],[-295,105],[-74,104],[-109,-14],[-137,131],[-327,-24],[-151,-197],[-339,11],[-332,-235],[-66,138],[-255,0],[-181,-184],[-463,102],[-97,-76],[5,-212],[-78,-57],[-375,815],[415,866],[-23,777],[266,342],[-32,312],[107,945],[-258,625],[156,400],[14,290],[-112,342],[-16,402],[-235,394],[-11,494],[-534,117],[-201,587],[-57,379],[321,401],[-146,527],[-103,77],[-717,71],[-351,229],[-202,277],[-19,439],[-245,285],[226,408],[332,312],[23,367],[-294,180],[-294,-141],[-388,20],[-663,-147],[-360,97],[-374,262],[-68,-5],[-56,-235],[-146,-171],[-239,334],[-672,42],[-365,-139],[-425,677],[-396,160],[-113,238],[-326,-61],[-181,-146],[9,-147],[211,-324],[-78,-138],[-300,-176],[-51,-129],[106,-114],[426,-29],[185,-130],[192,-199],[-90,-216],[-384,-362],[-441,186],[-341,-304],[-728,-195],[-67,-145],[80,-292],[-186,-373],[57,-398],[-84,-166],[-334,-182],[-1121,-327],[-582,-263],[-302,-295],[17,-230],[210,-237],[-63,-801],[281,-820],[-514,-147],[-46,-210],[243,-150],[-111,-194],[-207,16],[-194,-308],[41,-418],[-99,-47],[-447,156],[-255,-19],[-318,222],[-219,13],[-157,-263],[-407,-95],[-141,-97],[-21,-165],[-621,-275],[-462,-375],[-58,120],[-248,155],[-707,-21],[-194,78],[-166,-31],[-160,115],[-187,-65],[-668,379],[-1045,165],[-1387,-847],[-1156,147],[-125,82],[-56,225],[-1075,155],[-303,-129],[-324,209],[-1361,-387],[-87,102],[-205,-123],[-500,340],[-143,182],[-238,-127],[-424,148],[-22,301],[289,-125],[-303,724],[-385,345],[-26,352],[-336,83],[-230,465],[-454,260],[-687,-69],[-469,344],[-388,40],[-296,340],[37,232],[-167,213]],[[1778782,2666351],[48,444],[-95,603],[131,768],[-57,319],[78,508],[-57,239],[-514,551],[-155,754],[174,204],[-326,371],[98,174],[441,306],[80,248],[-506,559],[-106,1051],[-142,75],[-335,-70],[-382,161],[-95,136],[63,491],[-61,408],[-135,240],[36,208],[-99,312],[-19,623],[90,280],[167,172],[-268,116],[-137,293],[-146,73],[-238,332],[-44,594],[-176,396],[13,224],[-232,218],[-74,200],[-293,-16],[21,288],[-376,-22],[24,214],[159,138],[-229,375],[76,492],[-83,188],[-271,181],[-318,57],[-14,123],[385,381],[-46,83],[-379,83],[35,268],[-188,278],[-40,443],[-51,49],[-178,-145],[-197,70],[-228,527],[-206,97],[81,136],[-58,116],[-478,134],[-128,175],[-70,224],[84,387],[-297,53],[-51,123],[177,219],[435,66],[119,468],[-471,568],[-341,91],[-2,364],[-168,118],[38,252],[-263,212],[-21,164],[-470,-143],[-161,306],[37,264],[-361,193],[-24,761],[-404,458],[123,540],[-364,78],[-322,471],[-47,207],[91,430],[-70,517],[-139,186],[-281,78],[-211,179],[-193,351],[-39,357]],[[1769156,2692187],[-210,-299],[-1267,-938],[-726,-709],[-844,-341],[-395,-309],[-227,-697],[-104,-1915],[-260,-538],[-478,-637],[-449,-367],[-951,-219],[-369,142],[-482,-267],[-804,-667],[-480,-1013],[28,-525],[137,-436],[563,-514],[359,-467],[78,-267],[-151,-434],[-653,-217],[-1262,-120],[-135,51],[-192,265],[-21,492],[-253,400],[-471,74],[-196,-102],[45,-811],[279,-669],[29,-616],[-466,-652],[-513,-305],[-384,-339],[-222,-460],[-14,-309],[155,-322],[588,-403],[1272,100],[75,-211],[-101,-237],[-258,-237],[-610,-149],[-491,-15],[-542,-261],[-296,-279],[-137,-363],[64,-1129],[-719,-139],[-1256,-978],[-61,-207],[63,-232],[140,-230],[445,-407],[137,-441],[-251,-609],[-1040,-952],[-317,-920],[63,-244],[384,-465],[269,-597],[131,-1484],[158,-553],[368,-622],[188,-220],[540,-365],[225,-372],[-375,-1102],[-655,-1499],[-99,-770],[-147,-242],[-148,-76],[-555,-112],[-1353,246],[-405,-26],[-511,-162],[-449,-528],[-224,-907],[-261,-426],[-791,-932],[-1305,-1080],[-533,-1075]],[[1749070,2655218],[-825,48],[-488,159],[-618,37],[-425,319],[-409,84],[-651,497],[-435,160],[-185,245],[19,153],[-73,-196],[-30,76],[-197,-88],[-743,85],[-515,360],[-1049,487],[-423,421],[-1004,-37],[-216,-52],[-121,-181],[-237,134],[-468,-95],[-289,69],[-137,119],[-171,-72],[-188,161],[-246,-32],[-276,264],[-285,33],[-190,334],[-116,19],[-108,-181],[-152,236],[-95,-22],[-114,-278],[-161,208],[-281,-297],[-251,-36],[-596,435],[-189,257],[-259,97],[-115,345],[-218,172],[-306,-5],[-258,-106],[-556,27],[-576,-342],[-141,-25],[-106,73]],[[1733597,2659287],[300,209],[51,141],[372,69],[93,134],[-359,854],[-285,435],[16,207],[150,75],[189,-79],[320,-605],[227,-145],[452,669],[269,-25],[134,92],[44,320],[-65,166]],[[1735505,2661804],[-599,3],[-289,-120],[-95,83],[-34,405],[-735,162],[118,202],[-137,157],[-295,-74],[-152,55],[5,186],[-213,166],[-93,269],[-270,-248],[-190,40],[-170,269],[-77,393],[-306,64],[45,165],[214,98],[-357,424],[-106,-23],[-184,-353],[-334,43],[-269,257],[-223,76],[-466,21],[-275,-106],[-190,45],[-99,180],[-160,1025],[60,176],[272,304],[7,223],[-88,86],[-715,249],[-633,-109],[-288,36],[-387,-105],[-183,507],[-247,21],[-531,-131],[-617,509],[9,130],[204,164],[-334,129],[-39,90],[346,76],[51,74],[-79,100],[-349,95],[239,282],[-211,481],[318,130],[-27,226],[-497,654],[-70,195],[-817,363],[-174,240],[19,735],[-228,354],[174,593],[-16,1037],[-132,168],[-455,-25],[-90,104],[-104,444],[-307,217],[88,499],[-179,387],[-521,585],[60,69],[-243,185],[-259,1145],[8,93],[292,274],[30,363],[-37,387],[-183,414],[85,863],[-267,299],[-32,557],[306,734],[-2,230],[234,164],[40,349],[158,212],[-81,457],[23,1404],[-409,1293],[-482,423],[-829,385],[-693,142],[-601,445],[-96,114],[-4,338],[-429,536],[-75,695],[-438,434],[-102,343],[-140,116],[-682,214],[-492,326],[209,387],[-156,266],[-357,186]],[[1717394,2690803],[-139,953],[231,272],[-16,583],[509,626],[-26,390],[177,448],[-49,526],[369,207],[19,477],[302,451],[18,240],[-112,243],[604,496],[407,654],[230,1857],[366,753],[-1507,1457],[507,1607],[50,536],[1050,524],[498,362],[422,478],[91,296],[351,466],[77,330],[250,490],[947,1442],[1202,1587],[-569,475],[36,160],[-80,255],[-430,388],[365,843],[687,-215],[-4,407],[-153,352],[74,77],[-81,129],[-16,447],[-111,101],[1342,-48],[2054,-497],[-67,369],[-694,1372],[386,182],[-269,53],[-3,261],[-207,198],[-189,405],[206,372],[-229,953],[820,139],[543,198],[470,-188],[387,-346],[204,91]],[[1728694,2716487],[221,-7],[309,-164],[257,214],[880,219],[35,177],[329,203],[713,-254],[336,-355],[320,-675],[645,-525],[112,-261],[1374,-697],[35,-239],[570,-485],[112,-467],[281,-429],[481,-310],[213,-240],[261,43],[85,-148],[148,-48],[117,-255],[215,-35],[-13,-156],[69,-69],[353,29],[125,-466],[331,-172],[105,-174],[274,-6],[747,-338],[381,-42],[165,-227],[141,-491],[420,-215],[59,-181],[278,0],[-18,314],[96,292],[98,104],[329,69],[217,198],[187,717],[205,259],[496,132],[213,-138],[303,229],[337,495]],[[1742641,2711912],[310,941],[-43,203],[-354,412],[-27,176],[432,686],[6,168],[-160,336],[-427,302],[-220,409],[31,128],[520,243],[608,1016],[143,746],[373,703],[-104,465],[120,527],[-103,959],[535,356],[97,199],[-841,818],[-84,452],[105,151],[1183,564],[517,412],[213,748],[472,909],[-289,286],[4,257],[237,402],[326,290],[395,172],[137,207],[-336,597],[258,265],[313,653],[-80,398],[42,178],[211,126],[516,-68],[236,557],[684,267],[-272,777],[177,253],[504,157],[183,168],[-57,415],[-318,656],[110,222],[426,309],[99,207],[-70,284],[-190,161],[346,160],[1331,18],[236,357],[304,232],[69,598],[289,365],[361,211],[295,804],[225,243],[97,623],[-54,332],[-350,659],[-652,205],[-369,366],[13,373],[-342,110],[131,269],[-51,595],[236,385],[17,297],[276,271],[150,766],[-6,382],[523,932],[44,267],[-80,396],[183,329],[-181,429],[97,249],[-175,211],[-126,620],[15,887],[-238,360],[170,387],[-255,294],[-636,171],[-603,-75],[-423,118],[-550,-361],[-380,680],[-400,266],[-122,559],[-456,40],[-138,261],[-618,500],[-206,629],[178,450],[-155,838],[-211,262],[44,556],[-362,988],[-258,279],[49,473],[-130,106],[-271,-40],[-84,64],[279,920],[-293,587],[148,164],[-28,309],[123,318],[5,421],[234,392]],[[1746454,2756994],[769,306],[533,-216],[151,-144],[218,-10],[820,354],[362,45],[953,891],[139,483],[502,-3],[146,143],[19,570],[272,4],[224,-131],[127,350],[404,210],[426,360],[317,21],[400,-311],[633,-19],[983,612],[126,252],[335,-109],[59,-307],[283,-33],[283,203],[189,-11],[213,210],[344,168],[80,348],[536,30],[522,-860],[620,-427],[690,-293],[281,-648],[441,-173],[1206,-709],[317,-97],[552,49],[1215,-224],[1188,59],[229,311],[202,17],[23,290],[246,22],[154,271],[266,31],[236,234],[353,442],[-48,183],[61,132],[576,493],[173,324],[243,38],[168,201],[170,47],[164,-181],[190,154],[454,40],[176,179],[362,-45]],[[1768730,2761120],[5,-387],[466,-1094],[-224,-240],[343,-391],[55,-610],[256,-170],[142,-261],[318,-203],[337,92],[267,-112],[149,18],[-48,-182],[239,-86],[13,-233],[68,-50],[239,33],[234,-154],[304,121],[132,-23],[42,-148],[-67,-294],[205,-248],[-62,-113],[9,-413],[449,-123],[-57,-317],[84,-169],[541,-163],[67,301],[109,36],[519,-149],[259,322],[163,-136],[301,-38],[330,-373],[483,-75],[322,-162],[489,47],[188,-223],[350,26],[530,-318],[211,210],[308,-66],[267,142],[309,-85],[336,229],[460,-312],[298,49],[380,-313],[182,-293],[200,181],[129,16],[132,-50],[59,-167],[221,131],[420,-65],[153,179],[-68,216],[112,78],[537,-248],[343,68],[319,-43],[485,183],[289,-42],[255,-147],[221,33],[59,-260],[173,-152],[499,-115],[188,45],[166,-312],[-210,-346],[150,-312],[-1,-211]],[[1784861,2752679],[455,27],[576,478],[278,127],[1375,356],[951,754],[696,394],[1815,482],[1432,661],[-33,47],[385,320],[338,419],[254,543],[-162,636],[-435,661]],[[1792786,2758584],[10,341],[208,553],[776,537],[201,313],[61,298],[-91,580],[83,779],[132,783],[142,300],[704,491],[238,324],[154,435],[489,252],[287,299],[361,625],[23,622],[120,427],[217,470],[346,477],[521,194],[515,-9]],[[1798283,2767675],[-10,611],[-373,394],[-146,568],[-351,551],[-719,258],[-1141,643],[-486,178],[-226,270],[-14,524],[173,16],[-19,200],[-253,151],[31,106],[-113,70],[-129,590],[-459,441],[130,331],[-105,261],[227,272],[-21,299],[-108,113],[126,173],[-299,49],[-281,205],[-106,380],[-424,538],[-335,968],[-175,2946],[302,1558],[-352,161],[-667,-83],[-2505,46],[-664,534],[-1304,2491],[-377,426],[-510,249],[-606,1179],[-183,81],[-394,13],[-149,419],[-427,92],[-265,171],[-239,450],[-697,287],[-1,311],[666,1662],[-430,585],[-217,533],[-190,186],[-273,34],[-1652,-344],[-169,78],[-138,464],[-959,-86],[-582,-265],[-388,-315],[-712,953],[-1079,795],[-725,856],[-1258,557],[-508,54],[-356,-98],[-611,-528],[-1192,406],[-686,67],[-324,223],[-470,36],[-434,-246],[-236,-359],[33,-371],[-73,-165],[-569,-462],[84,-514],[-227,-350],[338,-526],[125,-648],[161,-183],[-42,-198],[-372,72],[-35,-148],[-251,-84],[11,321],[-87,12],[-59,-143],[-119,-53],[-171,51],[-172,194],[-264,-236],[-49,72],[94,174],[-57,335],[-193,-66],[-134,146],[-158,-153],[-128,235],[-139,82],[27,-206],[-422,52]],[[1767868,2790654],[-241,-92],[72,-114],[-53,-108],[-172,-60],[-268,36],[-75,-138],[-144,-54],[-265,97],[-52,321],[-306,244],[-101,-154],[-82,-3],[-4,260],[-308,-61],[-202,185],[-274,53],[-471,-458],[-150,19],[-370,262],[-292,-196],[-345,-52],[-492,-351],[66,-297],[-97,-285],[-87,-26],[-211,120],[-346,-142],[-233,-4],[-93,-120],[-152,51],[-60,-152],[-219,-136],[54,-205],[-107,-229],[-263,58],[-233,-110],[-295,-554],[-476,-474],[-345,-202],[-367,40],[-149,-402],[-491,164],[-73,-277],[-550,-65],[-26,-242],[127,-346],[-113,-187],[-787,131],[-246,-471],[-377,92],[-104,-312],[-246,-266],[-186,-71],[267,-312],[-1043,-343],[-388,426],[-546,273],[-228,-201],[-1692,-796],[-1035,-102],[-711,-475],[-478,-144],[-413,-14],[-178,50],[-219,193],[-503,641],[-265,-16],[-410,-185],[-391,-398],[-267,-133],[-658,384],[-214,25],[-202,-99],[-357,135],[-711,52],[-875,898],[-1116,-881],[-298,-956]],[[1743657,2783393],[-484,277],[-419,841],[-137,669],[-676,755],[-491,-200],[-1958,125],[-125,37],[-256,358],[-328,275],[-171,8],[-806,591],[-236,94],[-775,-177],[-209,-327],[-723,4],[-344,-245],[164,587],[194,330],[56,397],[255,173],[114,196],[-26,680],[124,411],[30,578],[-83,160],[-294,43],[-128,121],[111,98],[-89,183],[96,125],[391,119],[237,384],[690,151],[65,218],[151,130],[2,97],[-213,258],[-239,1116],[526,917],[-39,285],[79,309],[188,478],[215,201],[80,217],[-440,203],[-281,684],[382,287],[9,243],[-224,275],[5,199],[306,392],[449,301],[102,286],[-65,160],[-416,105],[-281,288],[-33,420],[266,370],[20,531],[-313,226],[45,536],[-270,69],[83,334],[-203,494],[54,254],[-550,242],[-14,115],[139,175],[-66,107],[-355,10],[-249,-296],[-49,175],[-190,116],[151,228],[-233,414],[235,146],[-281,409],[217,272],[-222,353],[288,424],[-105,305],[295,482],[-119,156],[-940,557],[-580,491],[-375,665],[126,835],[-100,2749],[151,828],[-105,1992],[-313,2360],[-418,1606],[-327,934],[-76,736],[43,1196]],[[1691679,2843345],[-2557,-1073],[-813,-176],[-1355,14],[-305,90],[-541,540],[-1335,357],[-1354,109],[-181,-106],[-72,-213],[-527,-702],[-360,-256],[-1302,-1384],[-1084,-300],[-610,-353],[-221,-179],[-290,-479],[-292,-310],[-341,-169],[-668,-141],[-1282,2],[-519,-254],[-397,-55],[-908,-342],[-434,-127],[-835,-57],[-519,-243],[-506,-568],[-182,-444],[-396,-618],[-762,-855],[-677,-669],[-928,-713],[7,-635],[420,-1002],[1352,-1186],[78,-347],[0,-1034],[333,-706],[72,-355],[69,-1370],[215,-1172],[-60,-749],[365,-798],[61,-724],[-339,-753],[-285,-263],[-470,-746],[-330,-2505],[-1,-942],[286,-1671],[360,-658],[125,-551],[-145,-391],[-416,-568],[-182,-852],[-199,-515],[-525,-639],[-435,-853],[-329,-2558],[-705,-710],[-109,-231]],[[1668339,2808187],[-235,-230],[-307,-124],[-361,-53],[-361,72],[-342,160],[-675,677],[-653,172],[-1307,-400],[-470,-426],[-150,-257],[-68,-525],[-1101,-229],[-344,-142],[-235,-390],[-545,-2008],[-525,-1243],[-1448,-2308],[-704,-390],[-235,1],[-1127,450],[-316,-21],[-1950,-584],[-1500,-780],[-1426,56],[-307,-142],[-1518,-1259],[-810,-1379],[-337,34],[-622,939],[-216,249],[-289,178],[-939,-70],[-1065,-265],[-1155,-176],[-452,-230],[-362,-373],[-1013,-1420],[-506,-479],[-307,-195],[-271,-18],[-234,196],[-432,996],[-486,552],[-323,1529],[-302,566],[-310,305],[-469,1],[-1354,-282]],[[1637875,2798922],[-148,-203],[-73,-384],[230,-839],[-45,-1507],[331,-552],[-100,-1402],[-254,-491],[-847,-822],[-164,-330],[100,-926],[-262,-1016],[-29,-849],[-274,-356],[-70,-488],[-711,-970],[-88,-259],[621,-987],[65,-487],[-825,-536],[-700,-297],[-568,-534],[180,-576],[572,-694],[158,-323],[-377,-315],[-112,-212],[-48,-445],[74,-377],[-142,-494],[-253,-206],[-161,-26],[-2,-85],[-281,-257],[-245,-745],[-433,-116],[-504,40],[-586,-80],[538,-486],[445,-680],[265,-189],[209,-12],[149,291],[258,153],[130,18],[115,-105],[395,-1359],[471,-909],[-6,-497],[-132,-550],[-445,-644],[8,-225],[441,-393],[833,129],[266,-153],[-119,-1056],[-395,-676],[-457,-336],[17,-201],[202,-174],[617,-68],[385,-392],[2,-594],[480,-711],[210,-170],[405,-135],[171,-175],[23,-702],[202,-433],[-15,-457],[312,-556],[86,-464],[540,-289],[252,-685],[439,-448],[774,-1090],[625,-293],[656,-658],[284,-417],[24,-261],[357,-433],[147,-1611],[135,-304],[-140,-1831],[113,-239],[1025,-907],[91,-260],[31,-1046],[-303,-808],[-62,-524],[115,-631],[624,-539],[356,-150],[1217,-143],[223,-107],[492,-649],[181,-500],[228,-870],[-38,-728],[90,-217],[377,-128],[1404,-1165],[864,-189],[752,6],[581,-693],[180,-434],[471,-672],[421,-192],[776,-190],[135,-239],[24,-261],[-303,-809],[3,-348],[565,-1412],[79,-1590],[-145,-539],[-81,-1576],[-130,-350],[-151,-1048],[109,-378],[382,-296],[410,-82],[301,-189],[136,-296],[-56,-862],[218,-593],[218,-269],[682,-1402],[53,-1104],[190,-647],[313,-439]],[[1655224,2731841],[705,-888],[1056,-912],[548,-1223],[795,-245],[484,-275],[371,-416],[116,-250],[276,-213],[427,-91],[194,71],[376,410],[878,-21],[883,-551],[143,-222],[912,-635],[399,-387],[1134,-19],[987,538],[568,-219],[515,-610],[683,-385],[425,3],[1022,-271],[230,-417],[61,-558],[258,-444],[569,-275],[1363,-408],[173,-361],[-25,-391],[-196,-336],[-53,-475],[87,-306],[1366,-715],[800,-831],[172,-334],[342,-192],[282,114],[1077,-48],[398,-192],[200,-194],[288,-640],[-19,-1122]],[[1676494,2716905],[-140,-224],[-78,-838],[261,-807],[402,-694],[15,-1953],[-194,-504],[-562,-618],[-212,-692],[-10,-570],[183,-887],[-22,-837],[-83,-252],[-393,-394],[-283,-86],[-648,-507],[-508,-227],[-476,-646],[-126,-1954],[-164,-810],[9,-1116],[87,-594],[424,-1209],[-8,-234],[-86,-220],[-137,-115],[-496,-132],[-328,-374],[-136,-676],[321,-1229],[-76,-777],[-181,-548],[-212,-297],[-451,-310],[-140,-224],[3,-279],[-386,-637],[-56,-777],[179,-936],[-171,-415]],[[1778966,2595524],[101,231],[435,236],[14,389],[194,-4],[271,-177],[186,51],[355,-63],[44,424],[397,196],[462,-6],[7,215],[592,373],[62,333],[369,-255],[292,198],[219,-360],[95,321],[280,-182],[356,209],[64,-322],[335,-123],[130,-256],[220,144],[248,-190],[421,278],[-3,-363],[383,57],[76,-264],[231,-299],[703,-637],[90,-3],[178,179],[84,-319],[321,176],[638,80],[647,-523],[460,-124],[13,-210],[809,-327],[31,-329],[242,-262],[1085,-190],[340,-387],[451,-7],[-4,-395],[273,-159],[162,-466],[349,-259],[398,-154],[776,-14],[593,-220],[424,-264],[269,-8],[353,170],[308,21],[289,516],[205,182],[187,609],[401,379],[297,50],[213,207],[439,120],[255,52],[409,-68],[123,501],[114,62],[354,-284],[755,-296],[147,-323],[253,-58],[59,-178],[346,186],[239,-45],[97,-116],[-77,-351],[200,-367],[151,8],[223,233],[306,-64],[438,258],[110,-59],[56,-211],[303,-7],[146,157],[145,32],[470,-94],[244,-167],[176,67],[205,-98],[172,209],[419,134],[697,-205],[41,-93],[-116,-216],[33,-88],[246,64],[165,-121],[195,-19],[238,-347],[469,247],[9,-145],[437,72],[317,-233],[210,104],[489,-28],[193,71],[397,651],[348,58],[16,351],[253,-26],[11,292],[209,96],[239,-31],[116,171],[350,-117],[8,193],[225,232],[-61,286],[209,199],[91,-199],[120,19],[14,-181],[239,76],[146,-133],[73,143],[88,16],[41,-251],[193,118],[60,293],[425,-549],[295,-17],[492,152],[-44,-262],[166,-75],[110,-177],[464,-182],[261,-405],[141,-8],[178,191],[108,-23],[-45,-363],[89,-127],[297,-43],[275,185],[579,105],[350,279],[387,170],[427,-5],[841,656],[160,48],[778,-360],[160,0],[249,172],[826,-304],[355,-187],[119,-384],[567,-318],[339,18],[174,-123],[1444,-122],[214,-93],[150,-188]],[[1823003,2591840],[1028,-460],[215,-15],[319,280],[401,126],[379,396],[480,20],[253,159],[416,-241],[137,-197],[445,262],[255,-24],[604,-304],[607,119],[151,-79],[211,-287],[546,-174],[396,-330],[616,-347],[730,71],[755,-420],[480,-410],[359,100],[384,-43],[246,-128],[255,-292],[208,-85],[576,-15],[752,456],[420,107],[341,-97],[699,-466],[398,26],[505,168],[448,-146],[139,-183],[-246,-568],[188,-665],[149,-112],[530,-85],[343,-192],[343,28],[267,163],[107,-64],[616,-679],[501,-917],[659,-714],[117,-285],[27,-753],[194,-227],[893,-595],[197,-597],[565,-787],[470,-359],[303,-127],[1310,72],[734,-75],[225,-102],[512,-569],[998,-334],[245,154],[126,586],[200,282],[1057,262],[163,641],[312,624],[1412,1188],[852,969],[405,-71],[497,88],[298,-50],[352,-176],[584,406],[622,140],[720,-102],[908,-287],[360,-39],[1188,216],[495,268],[483,105],[250,176],[110,230],[188,1348],[306,1036],[-118,1334],[1193,365],[742,20],[1225,-204],[546,-392],[449,-119],[208,-258],[144,-16],[838,899],[1874,370],[697,375],[1145,1865],[-68,410],[41,245],[811,776],[359,60],[482,-258],[722,542],[1310,1177],[1275,116],[536,-20],[240,-112]],[[1878846,2621333],[-250,-2249],[-56,-1359],[67,-680],[-73,-508],[-371,-1718],[-619,-1149],[184,-523],[-159,-438],[15,-207],[175,-428],[352,-282],[74,-228],[-389,-391],[22,-304],[-346,-997],[362,-552],[-309,-296],[-789,-269],[-244,-624],[-343,-422],[47,-327],[-275,-572],[10,-320],[-99,-269],[-145,-270],[-469,-472],[-65,-350],[0,-125],[455,-446],[222,-624],[635,-1147],[-38,-525],[132,-500],[173,-208],[548,-345],[776,-834],[70,-258],[-210,-229],[-1341,-982],[-489,-743],[-766,-843],[-377,-1307]],[[1778966,2595524],[-149,-234],[-342,31],[-126,-231],[-466,120],[-303,-164],[-281,137],[-193,-46],[-250,-457],[-155,-61],[-136,62],[-144,301],[-326,-191],[-542,30],[-271,-415],[-425,-392],[-331,297],[-203,-174],[-125,-303],[-229,202],[-96,470],[-86,36],[-98,-74],[-35,-545],[-137,-99],[-230,-13],[-104,93],[36,260],[-94,187],[-146,-47],[-73,-417],[-120,-44],[-150,56],[-128,170],[66,304],[-556,-153],[-89,66],[17,209],[-446,-188],[-69,342],[-360,27],[-309,124],[-760,-199],[-299,237],[-577,40],[-41,68],[131,185],[-40,96],[-163,-23],[-318,-287],[-412,-82],[-246,241],[-92,-308],[-240,-94],[-112,-196],[-496,252],[-51,-330],[-449,301],[-645,-41],[-147,377],[-514,-249],[-222,16],[-482,623],[-360,192],[-33,263],[-94,82],[-351,-362],[-406,247],[-747,-37],[-212,-211],[-138,-1],[-136,243],[-86,441],[-170,121],[132,301],[-28,148],[-139,32],[-225,-205],[-293,560],[-96,-314],[-104,7],[-246,317],[-17,361],[-305,-118],[-128,53],[183,251],[-66,53],[-423,-233],[-210,107],[-114,-123],[-108,122],[-133,10],[80,-359],[-74,-109],[-382,182],[-255,-126],[-540,100],[-326,233],[-70,195],[-88,2],[-51,-253],[-139,-180],[-84,-584],[-196,-63],[-95,146],[-140,32],[-118,-379],[-257,180],[-79,-400],[-154,-139],[-51,249],[-117,137],[-133,-75],[48,-230],[-463,180],[-30,77],[156,124],[-20,116],[-685,356],[-182,43],[18,-167],[-92,-101],[-345,135],[-160,-49],[-38,60],[115,161],[-36,188],[-1047,225],[28,347],[219,138],[11,207],[-168,142],[-335,-87],[-133,41],[10,162],[-111,144],[88,80],[206,-15],[26,171],[-209,158],[-24,285],[-301,-88],[-132,393],[-196,38],[-279,-115],[-486,59],[-8,-343],[-131,-75],[-476,228],[66,288],[-48,47],[-277,53],[-516,-403],[-209,-43],[-37,601],[-136,-34],[-113,-297],[-283,42],[140,189],[-85,122],[-136,-2],[-293,-188],[-49,328],[-205,-60],[7,219],[-94,140],[-508,374],[-458,101],[-10,515],[-97,32],[-299,-335],[-373,314],[-375,-179],[-404,410],[-367,-12],[-541,168],[-288,278],[-190,-58],[-182,224],[-485,164],[-178,-29],[-293,-388],[-381,-10],[33,-286],[-452,-86],[-21,-277],[-123,-114],[-535,-139],[47,-214],[-343,-161],[43,-293],[-165,-127],[-157,-447],[-371,-80],[-97,-119],[-199,10],[-245,233],[-117,-84],[-22,-302],[-221,-16],[-254,379],[-226,130],[-227,282],[-389,61],[-457,268],[-159,188],[37,256],[-365,258],[-113,-103],[-175,-432],[38,-283],[-464,-194],[-835,-781]],[[1736872,2599609],[47,200],[-147,728],[72,259],[686,686],[1128,702],[435,532],[372,1594],[9,577],[271,720],[-185,507],[193,759],[-96,943],[58,181],[484,486],[87,363],[-140,591],[-44,1323],[-548,678],[209,563],[7,281],[-152,306],[-236,117],[-95,169],[-64,223],[74,556],[-74,160],[-524,358],[-332,31],[-276,157],[-237,29],[-699,-164],[-281,-144],[-1055,-845],[-293,-114],[-249,2],[-213,-207],[-608,-173],[-619,102],[-1022,-180],[63,807],[-167,190],[-228,-2],[-493,-489],[-357,-892],[38,-338],[289,-639],[2,-383],[-185,-117],[-203,137],[-223,582],[-206,145],[-772,-162],[-104,-518],[152,-578],[-159,-481],[-653,-794],[-331,-227],[-949,-384],[-1069,-1121],[-590,106],[-1394,916],[-424,184],[-388,-29],[-716,-450],[-814,-593],[-658,-800],[-807,-77],[-1765,794]],[[1719704,2607452],[-13,5]],[[1719691,2607457],[-486,241],[-305,360],[75,193],[315,160],[271,349],[505,432],[17,173],[-656,666],[-343,-106],[-536,-516],[-813,-464],[-440,-55],[-323,217],[-255,736],[20,136],[429,633],[906,677],[-210,494],[-337,169],[-352,9],[-351,-187],[-689,-606],[-168,-48],[-537,141],[-114,80],[-102,280],[104,675],[394,674],[91,647],[-11,224],[-419,688],[495,143],[292,3],[411,-100],[806,-555],[152,191],[-149,815],[-104,121],[-717,470],[-421,52],[-383,-63],[-126,91],[22,1221],[211,254],[365,221],[605,17],[751,-114],[306,89],[366,304],[185,290],[304,975],[-900,748],[-104,241],[124,569],[-456,345],[-258,334],[-310,80],[-649,-444],[-405,-147],[-301,-50],[-306,58],[-290,158],[-264,356],[-6,252],[236,632],[-336,196],[-703,62],[-513,232]],[[1713301,2622576],[264,663],[211,179],[1079,249],[1550,701],[559,380],[745,815],[225,-14],[341,-176],[752,-843],[407,-3],[809,369],[541,584],[28,2465],[302,963],[1994,2456],[12,584],[-185,674],[-447,665],[-337,743],[-86,379],[205,246],[1404,310],[115,299],[-54,368],[-139,281],[-731,746],[-1399,702],[-850,811],[-836,2902],[-168,370],[-21,186],[105,259]],[[1719696,2641889],[-579,-20],[-473,-435],[-309,-110],[181,-483],[-72,-139],[-369,-60],[-139,288],[-137,75],[-352,-344],[-327,-62],[-179,-259],[-200,-123],[-81,-281],[-366,27],[12,-471],[-363,-180],[-54,-479],[-96,-155],[-781,-64],[-347,-180],[-178,41],[-299,268],[-469,12],[-225,-319],[-419,4],[-685,-190],[-104,-164],[-390,-274],[-12,-344],[-131,-327],[-165,-105],[-331,-24],[-423,350],[-781,219],[-356,307],[-217,84],[-456,699],[-408,205],[-460,-53],[-209,137],[-162,250],[-348,147],[-725,-90],[-94,-190],[-422,-408],[-450,117],[-465,-258],[-335,-16],[-623,-207],[-129,-254],[-304,-133],[-994,49],[-439,262],[-704,90],[-652,776],[-538,270],[-195,323],[-244,101],[-223,415],[-338,324],[-173,416],[-499,454],[-576,261],[-310,308],[-283,563],[43,1116],[-173,450]],[[1697592,2644096],[-163,341],[0,238],[578,887],[-38,137],[-285,178],[-80,170],[131,810],[-42,449],[230,411],[-28,321],[298,269],[107,294],[-38,551],[182,529],[132,897],[-73,489],[-388,834],[-51,916],[-316,452],[-490,114]],[[1697258,2653383],[-805,-199],[-352,89],[-148,184],[-194,640],[-920,430],[-342,421],[-457,53],[-255,786],[-551,10],[-270,92],[-1298,664],[-285,489],[-449,155],[-344,351],[-44,161],[70,430],[-333,474],[-571,-65],[-513,392],[-213,384],[-477,251],[-107,401],[-343,142],[-545,-10],[-633,386],[-190,-89],[-215,57],[-108,243],[-191,73],[-121,702],[212,195],[-55,362],[-378,164],[-174,384],[18,258],[-273,484],[-16,259],[-151,246],[6,144],[222,120],[-201,493],[201,553],[-74,110],[-260,79],[-793,787],[36,524],[195,367],[3,292],[122,327],[-98,434],[-338,411],[250,493],[-12,109],[-137,170],[-357,69],[-766,1692],[-197,221],[-142,612],[-296,350],[-173,535],[-370,380],[-7,243],[-294,509],[52,171],[-369,113],[-630,463],[-17,674],[160,306],[201,752],[155,201],[-24,618],[-241,445],[-558,207],[-331,391],[-43,335],[-136,178],[-121,423],[6,1541],[-520,38],[-689,331],[-1282,1544],[-1443,288],[-526,197],[-101,113],[-410,1119],[49,630],[-118,304],[-394,515],[-926,621],[-211,551],[-591,652],[-254,596],[-690,559],[-560,581],[4,452],[-415,714],[-17,634],[167,456],[681,737]],[[1780479,2641748],[-1079,-1893],[-332,-887],[47,-643],[-257,-896],[84,-2127],[-311,-1142],[-360,-569],[-51,-575],[-241,-818],[-23,-251],[158,-809],[-104,-804],[-650,-1188],[776,-1008],[278,-1382],[-58,-95],[162,-268],[201,10],[222,-107],[284,241],[188,-183],[174,-22],[673,673],[348,-108],[434,260],[1002,-263],[907,69],[424,-271],[980,-228],[958,179],[387,-446],[559,2],[384,-277],[722,-258],[524,-707],[576,-88],[823,-492],[552,-86],[592,-316],[298,-393],[492,-109],[474,-242],[380,-345],[186,-76],[100,-345],[401,-138],[285,-331],[671,-261],[291,-497],[151,-123],[130,-4],[231,167],[135,-14],[312,-225],[204,22],[436,-137],[654,-573],[346,-97],[116,47],[809,-553],[227,-572],[665,-321],[546,-568]],[[1798972,2618287],[61,-112],[-325,-554],[-405,-139],[-199,-181],[-80,-447],[180,-318],[934,-802],[138,-246],[116,-549],[498,-632],[267,-118],[677,47],[439,-249],[508,-101],[373,-349],[200,-485],[-52,-75],[223,-185],[96,142],[446,-285],[339,159],[554,2],[817,-1031],[366,-1227],[549,43],[415,-342],[853,-140],[679,-267],[506,-330],[1413,-288],[449,-273],[291,62],[293,-58],[186,-131],[162,-368],[-34,-212],[597,-855],[-257,-475],[345,-557],[-179,-319],[150,-584],[-129,-786],[161,-298],[164,-50],[281,67],[307,-294],[696,-272],[169,-4],[257,197],[789,-110],[230,-197],[341,-507],[517,-483],[135,-226],[118,-582],[323,-344],[533,17],[260,-305],[438,125],[91,-69],[-38,-290],[803,-37],[207,-344],[1031,-170],[268,-250],[352,-54],[748,-309],[743,-657],[-30,-298],[715,-35],[331,-305],[348,-120],[112,-348],[418,-495],[129,-496],[462,-37],[569,-406],[720,-208],[129,-491],[746,-314],[615,-632],[243,-120],[282,-288],[275,-79],[341,31],[813,-558],[382,66],[338,-41],[1099,-663],[633,-53],[115,-124],[118,-458],[-28,-362],[475,-721],[1102,-340],[610,-33],[456,-351],[388,33],[464,285],[570,88],[293,144],[908,817],[371,707],[377,314],[365,476],[391,228],[606,11],[863,-658],[291,-104],[1236,-158],[288,-147],[561,-61],[947,636],[1458,623],[1325,858],[427,435],[317,753],[871,236],[673,-84],[406,60],[765,354],[356,314],[376,192],[1185,-9],[297,66],[172,369],[-65,1621],[269,1121],[292,518],[831,671],[850,339],[781,-52],[992,-492],[1379,1310],[365,213],[111,990],[471,1001],[-156,282],[141,244],[42,456],[382,547],[1069,1104],[1634,1968],[704,539],[323,128],[494,363],[221,321],[586,324],[468,151],[557,528],[341,154],[419,414],[267,142],[300,5],[322,227],[516,655],[1832,3683],[846,1255],[292,102],[384,-39],[198,105],[149,-18],[928,-1063],[376,-71],[280,-198],[166,-337],[254,-259],[284,58],[300,-50],[93,-89],[268,0],[982,677],[156,275],[93,508],[489,375],[467,234],[133,364],[371,393],[893,304],[789,452],[1496,1155]],[[1719696,2641889],[60,173],[-32,342],[-509,787],[-36,514],[239,525],[222,269],[418,304],[773,346],[549,-21],[193,-104],[450,-487],[302,-1287],[120,-228],[214,-208],[239,-31],[2390,2162],[1248,1675],[568,616],[402,218],[567,37]],[[1728073,2647491],[3410,-1286],[774,-595],[627,-664],[624,-300],[1223,-198],[611,-203],[2885,-1616],[-151,-237],[285,-183],[-64,-355],[85,-115],[190,17],[85,197],[1087,-675],[71,116],[290,-169],[-88,-186],[76,-51],[-49,-79],[184,-86],[52,138],[463,-88],[223,38],[154,79],[-124,245],[267,210],[697,1003],[-34,91],[251,620],[850,1667],[587,1721],[386,1533],[0,1495],[253,551],[328,284],[597,197],[681,-102],[419,-389],[1719,281],[558,351],[354,594]],[[1748909,2651342],[644,-247],[534,-760],[689,-270],[441,-608],[312,-943],[-149,-902],[473,-713],[128,-669],[3364,-71],[355,52],[327,-100],[425,-389],[307,-46],[463,112],[198,290],[171,62],[525,-1432],[447,-797],[495,-499],[1323,-991],[504,-1290],[276,-386],[105,120],[481,191],[97,120],[30,236],[340,-60],[247,-255],[518,-91],[418,86],[279,218],[270,86],[1088,737],[194,636],[1288,754],[343,58],[565,240],[489,61],[191,168],[338,807],[137,163],[670,128],[358,525],[998,400],[222,311],[502,155],[176,332],[130,69],[197,-66],[502,-545],[289,-190],[397,79],[313,211],[354,0],[334,193],[250,42],[900,-726],[351,-552],[306,-127],[360,-331],[554,257],[694,74],[254,-458],[188,-188],[197,-39],[48,-152],[376,-395],[101,-801],[130,-105],[767,-138],[206,-127],[776,-1108]],[[1717394,2690803],[-309,-84],[-450,-287],[-785,154],[-153,230],[-174,595],[-417,33],[-391,299],[-86,247],[44,192],[-245,358],[18,257],[-74,88],[-201,3],[-328,-252],[-208,-55],[-379,209],[-220,0],[-295,-345],[-202,-30],[-167,226],[0,334],[-348,288],[-508,95],[-938,444],[-146,-6],[-181,-171],[-118,23],[-669,513],[-195,55],[-161,234],[-10,168],[143,243],[-312,262],[-66,285],[-215,358],[-28,537],[144,66],[209,-81],[167,414],[208,245],[-53,401],[65,150],[65,2],[33,-131],[192,32],[-130,122],[122,173],[267,79],[101,178],[122,27],[6,145],[-255,-53],[-135,735],[55,224],[290,-10],[267,179],[26,446],[-149,259],[-2,305],[86,173],[-169,147],[25,486],[320,6],[329,269],[-9,150],[304,285],[232,102],[44,138],[-187,112],[-42,257],[-451,848],[-485,55],[-157,118],[215,260],[-90,194],[125,257],[-260,81],[-134,252],[-160,-29],[-46,-138],[-342,-57],[-196,77],[-500,-155],[-304,230],[-196,-390],[-223,-37],[-458,-408],[-230,155],[-223,7],[-81,168],[-369,288],[-160,409],[-296,18],[-312,230],[-274,-60],[-224,177],[-179,-109],[-183,62],[-119,246],[-464,248],[-329,651],[-239,-78],[-156,159],[-106,0],[-274,-185],[111,-135],[400,-58],[4,-123],[-353,-202],[-376,33],[-204,-78],[-501,94],[67,405],[-288,164],[-364,499],[139,249],[-48,378],[118,359],[288,316],[-51,274],[-560,82],[-185,250],[-564,221],[-236,274],[-451,6],[-404,569],[-21,498],[-318,585],[-772,658],[-288,423],[-494,170],[-142,189],[-213,-28],[-9,199],[-117,81],[-232,437],[-282,141],[-123,216],[-351,319],[-213,61],[-179,235],[-334,131],[-361,295],[-406,608],[-724,767],[-1045,84],[-671,215],[-1195,179],[-1118,-75],[-758,-221],[-681,-84],[-972,193],[-772,25],[-730,-267],[-488,-28],[-1062,237],[-1247,-472],[-591,-400],[-422,266],[-1124,-183],[-695,617],[-118,266],[-123,56],[-554,151],[-754,349],[-994,-289],[-296,-5],[-493,505],[-854,345]],[[1676494,2716905],[879,111],[469,255],[532,830],[1473,1249],[603,631],[534,426],[817,350],[1753,574],[2067,141],[786,-26],[1627,316],[1518,57],[477,365],[936,463],[484,399],[489,584],[543,133],[1316,39],[156,-61],[1355,496],[1666,121],[430,149],[360,230],[1277,2119],[482,617],[272,556],[775,844],[236,694],[351,499],[84,268],[-252,1070],[126,967],[-105,1338],[105,1296],[-482,597],[-670,288],[-649,391],[-398,432],[-377,597],[-21,411],[272,474],[1110,617],[733,617],[587,1132],[356,494],[398,329],[838,371],[628,535],[314,164],[608,1441],[314,535],[436,1388],[198,366],[21,84],[-236,364],[-42,308],[104,206],[315,103],[649,-62],[377,-123],[377,-247],[1131,-1626],[1529,-885],[1194,-411],[398,-330],[817,-20],[1215,267],[921,309],[713,62],[663,184]],[[1715456,2744367],[53,-1029],[343,-2243],[-22,-748],[233,-481],[-177,-378],[-1049,-887],[-137,-295],[171,-948],[14,-586],[-506,-1958],[20,-691],[340,-621],[-129,-413],[53,-447],[-214,-696],[286,-824],[236,-189],[-332,-529],[135,-288],[-4,-304],[159,-100],[76,-235],[597,-609],[450,-36],[185,-151],[255,24],[-53,-415],[164,-136],[381,-109],[247,-458],[187,-121],[12,-263],[212,-335],[97,-57],[306,83],[55,-182],[-178,-134],[739,-359],[75,-154],[1,-428],[323,-203],[-90,-264],[62,-221],[662,-353],[121,-352],[229,-203],[478,-69],[93,-213],[-175,-246],[-3,-171],[336,47],[145,-195],[125,21],[285,-764],[395,-256],[104,-154],[432,-67],[95,-170],[378,-281],[33,-116],[-153,-303],[-41,-328],[185,-148],[-21,-278],[144,-144],[196,-723],[262,-401],[198,-87],[160,-190],[-51,-234],[58,-422],[131,-87],[490,7],[235,249],[119,28],[-53,261],[95,312],[-83,101],[30,85],[742,-24],[220,152],[251,-116],[298,185],[485,-94],[928,-397],[26,-104],[-142,-207],[160,-207],[70,-304],[165,-326],[241,-40],[60,-181],[156,-83],[48,-168],[-62,-255],[128,-247],[254,-202]],[[1729337,2653346],[-230,45],[-165,-89],[-25,-328],[-368,-294],[-160,-439],[-354,229],[-228,42],[-290,-89],[-205,-218],[31,-213],[562,-519],[198,-353],[-3,-284],[-89,-186],[-146,-52],[-637,306],[-175,-41],[303,-500],[44,-235],[-115,-482],[-319,-237],[2,-431],[177,-319],[335,-177],[146,-440],[278,-439],[169,-112]],[[1697258,2653383],[258,526],[28,209],[-85,190],[133,132],[-73,214],[-490,204],[81,309],[-388,144],[35,96],[225,7],[-203,118],[0,120],[268,23],[-164,125],[-5,95],[219,309],[-222,209],[174,54],[154,194],[-91,516],[177,122],[243,15],[105,403],[633,928],[44,355],[315,241],[-58,469],[227,261],[-226,236],[146,597],[-250,596],[10,415],[163,325],[-304,160],[-408,69],[-106,-47],[-69,335],[-245,192],[-43,140],[-687,224],[-490,899],[101,259],[-285,313],[156,420],[103,107],[162,-72],[298,33],[171,164],[188,48],[250,-27],[196,-140],[165,79],[276,-138],[765,493],[14,86],[-134,125],[-7,232],[285,356],[55,250],[165,212],[-157,457],[-532,291],[90,234],[-178,44],[-32,100],[202,336],[224,-83],[601,123],[288,-65],[267,158],[283,6],[824,-281],[195,133],[227,14],[508,-235],[140,-228],[382,26],[926,-181],[318,-187],[513,-26],[439,-128],[355,537],[6,598],[142,469],[-260,1100],[-266,430],[-84,338],[183,988],[-12,533],[196,387],[227,875],[-86,451],[162,406],[421,324],[304,537],[659,-204],[440,120],[195,-204],[639,-197],[422,50],[420,288],[387,-53],[244,242],[309,-33],[702,247]],[[1710446,2675649],[233,58],[230,-134],[387,-30],[387,-312],[188,145],[263,-99],[194,87],[52,-181],[78,-21],[184,185],[475,-456],[-153,-308],[411,-200],[-12,-240],[142,-233],[-142,-76],[144,-274],[-144,-378],[22,-705],[101,-290],[-87,-224],[60,-188],[-77,-415],[487,-354],[163,-247],[292,-89],[-34,-173],[215,-318],[260,-146],[295,53],[475,-140],[116,-311],[314,-70],[668,-706],[452,3],[365,-773],[575,-244],[246,-504],[263,-300],[372,-1095],[42,-491],[-295,-221],[112,-248],[120,-87],[181,59],[65,-119],[203,-36],[174,-221],[178,-87],[506,253],[374,-147],[129,-145],[-8,-447],[435,-246],[-57,-376],[58,-155],[180,-78],[219,57],[76,-237],[233,45],[136,-340],[317,-69],[251,58],[16,-83],[-178,-169],[79,-266],[345,-22],[-109,235],[286,-88],[139,159],[216,44],[371,-65],[-16,-100],[157,-97],[-95,-185],[205,-326],[213,76],[4,-171],[370,-109],[25,-67],[-156,-164],[29,-145],[478,-92],[-21,-107],[-255,-24],[-43,-136],[82,-147],[118,86],[79,-41],[-55,-149],[85,-174],[-107,-114],[74,-152],[538,-641],[239,52],[204,168],[443,-178],[13,-119],[227,-169],[-21,-129],[140,-110],[147,-412],[321,-350],[-5,-439],[211,145],[241,-21],[84,-184],[245,-69],[152,-151],[149,12],[620,-259],[418,38],[255,-216],[25,-294],[-99,-269],[188,-73],[-287,-768],[555,-462],[-287,-384],[-15,-567],[-221,-107],[-62,-121],[48,-652]],[[1738352,2757760],[734,-383],[1100,-47],[1028,78],[191,-107],[146,-395],[227,-133],[146,-289],[201,-112],[-58,240],[249,344],[70,407],[2100,-194],[1169,254],[799,-429]],[[1715456,2744367],[46,848],[347,1049],[-123,991],[40,386],[239,756],[520,935],[196,602]],[[1716721,2749934],[-14,798],[-413,931],[331,456],[754,701],[101,313],[158,45],[368,-229],[519,279],[496,-43],[207,225],[366,-3],[453,-123],[368,177],[238,3],[309,209],[275,-172],[860,-153],[541,127],[221,129],[211,0],[856,-476],[980,75],[746,168],[487,434],[606,358],[60,289],[-142,302],[-8,232],[267,1000],[258,57],[220,502],[189,181],[268,133],[198,-32],[148,167],[212,35],[80,265],[229,-142],[231,72],[237,-36],[217,158],[257,-190],[214,58],[81,215],[120,43],[543,-154],[562,439],[509,-62],[478,230],[327,2],[295,221],[262,72],[545,-301],[8,-220],[-176,-28],[-67,-190],[308,-347],[-23,-336],[288,114],[588,441],[1136,-177],[620,60],[204,-67],[1013,261],[266,159],[585,171]],[[1780479,2641748],[692,-907],[334,-62],[251,146],[249,297],[275,543],[69,305],[569,159],[166,200],[134,487],[-59,264],[199,299],[63,302],[273,237],[290,70],[125,138],[-22,171],[243,252],[277,54],[284,284],[350,-12],[413,122],[181,136],[54,186],[-60,332],[129,279],[301,313]],[[1786259,2646343],[390,-1040],[-23,-268],[293,-337],[125,-459],[72,-13],[270,323],[215,-18],[191,-540],[527,-166],[269,-301],[220,-13],[484,-295],[389,-28],[281,114],[265,-104],[230,50],[106,63],[63,282],[209,210],[196,59],[322,-55],[56,195],[328,259],[322,553],[1102,9],[1204,-112],[348,73],[80,170],[127,20],[59,-39],[-114,-226],[82,-68],[662,524],[-33,-230],[525,108],[346,-42],[404,-389],[209,-93],[99,14],[110,170],[224,-164],[82,195],[97,-303],[-49,-103],[201,-147],[-47,-95],[66,-228],[225,-297],[888,-333],[211,-247],[-32,-741],[207,-141],[255,-456],[-15,-982],[-173,-263],[9,-122],[289,-174],[374,-491],[-139,-410],[163,-312],[659,-563],[116,-433],[207,-244],[69,-224],[262,-40],[75,-83],[7,-452],[387,-903],[-63,-268],[232,-189],[170,-37],[53,-100],[225,-60],[79,-175],[144,-26],[67,-193],[436,-207],[320,-921],[420,-478],[398,-261],[-208,-356],[-125,-628],[-314,-446],[-173,-1761],[-142,-373],[-601,-942],[-15,-272],[835,-199],[762,248],[430,24],[393,-127],[234,-183],[213,-412],[-291,-812],[25,-272],[-224,-402],[-11,-387],[-625,-286],[-107,-290],[-114,39],[-123,-83],[-81,-261],[32,-528],[-218,-421],[-105,-43],[-289,153],[-130,-98],[-161,-654],[30,-589],[170,-247],[-56,-252],[-269,-52],[-100,-252],[-325,29],[-102,-155],[318,-323],[53,-278],[249,-69],[55,-141],[-81,-199],[-222,-135],[-117,-312],[-282,-45],[20,-299],[-71,-179],[-560,-228],[-432,0],[-145,-137],[-293,-88],[-93,-113],[-5,-368],[-710,217],[-62,-350],[-866,-346],[-367,-62]],[[1767868,2790654],[-69,-271],[72,-353],[-306,17],[-192,-315],[-30,-313],[-309,-345],[-212,-121],[-68,-164],[14,-665],[-171,-230],[-27,-299],[-459,-362],[32,-209],[-67,-148],[90,-135],[55,-453],[-139,-327],[44,-384],[-111,-174],[93,-261],[-401,-682],[-100,-260],[-2,-347],[-269,-331],[-728,-490],[-172,-305],[-11,-376],[146,-466],[-132,-897],[-230,-174],[-177,-387],[-368,-57],[-77,-89],[-135,-612],[-612,-725],[-19,-531],[-206,-202],[55,-244],[-197,-307],[-49,-332],[-494,-181],[-323,-932],[-1341,-1794],[-601,-1559],[-134,-162],[302,-188],[145,120],[325,-170],[-22,-99],[141,-69],[247,50],[584,-178],[197,-177],[464,-25],[273,-170],[331,-76],[120,-145],[-19,-225],[101,-252],[554,-916],[489,-419],[474,-97],[435,-305],[173,-706],[355,-406],[754,-608],[128,-558],[155,-219],[-44,-194],[177,-156],[63,-278],[228,-270],[107,-539],[479,-254],[131,-239],[540,-536],[-108,-335],[77,-288],[-124,-602],[214,-124],[378,-413],[135,-403],[170,-136],[42,-239],[-92,-251],[83,-73],[37,-412]],[[1738352,2757760],[293,534],[45,460],[-152,965],[-238,411],[-11,176],[472,1247],[154,182],[188,61],[68,140],[-341,673],[-275,1059],[13,495],[330,879],[276,281],[-661,807],[-730,253],[-498,366],[-570,897],[-197,1186],[-189,374],[-23,593],[-350,1725],[177,982],[-152,479],[396,671],[327,298],[28,493],[649,2068],[487,108],[1107,-274],[433,-10],[681,567],[1054,1190],[557,1344],[476,502],[323,611],[399,335],[147,812],[442,869],[170,824]],[[1671615,2692306],[273,-26],[412,-175],[446,-315],[866,-984],[542,-309],[411,-390],[1248,-1536],[846,-783],[672,-434],[1080,-34],[265,109],[613,-278],[651,-87],[974,132],[409,-182],[1006,132],[1069,-112],[864,-301],[1374,-776],[1725,-370],[533,195],[237,649],[961,1085],[299,240],[445,638],[363,242],[529,623],[350,170],[617,89],[903,-209],[1577,-31],[873,129],[504,371],[304,90],[740,-69],[563,-186],[209,-349],[193,-1372],[-608,-798],[-62,-758],[222,-469],[870,-834],[198,-460],[264,-338],[454,-375],[609,-329],[413,-87],[570,47],[1337,503],[622,316],[493,459],[1519,-68],[413,-121],[518,-323],[462,-646],[244,-663],[150,-1602],[472,-1478],[-38,-790],[269,-1005],[372,-544],[482,-485],[1450,-727],[363,-345],[482,-61],[345,-262]],[[1749070,2655218],[-243,-349],[-298,-867],[37,-275],[489,-892],[88,-405],[-51,-527],[-183,-561]],[[1729337,2653346],[191,-72],[242,42],[233,364],[155,67],[383,-141],[385,-266],[307,-60],[627,281],[289,230],[208,348],[116,527],[125,1560],[682,134],[66,260],[-24,534],[573,207],[271,262],[-221,916],[-226,177],[-554,162],[-152,215],[88,199],[496,-5]],[[1778782,2666351],[-172,-294],[-160,-627],[110,-528],[-117,-208],[-344,-175],[-75,-124],[235,-361],[-185,-400],[52,-454],[-399,-874],[92,-314],[-76,-319],[119,-411],[-99,-945],[248,-263],[243,-593],[500,-474],[61,-416],[292,-386],[18,-340],[214,-504],[114,-696],[405,-195],[288,-409],[896,-385],[617,-553],[88,-167],[-56,-274],[50,-175],[180,-210],[335,-190],[528,-653],[239,-879],[502,169],[7,-207],[280,-102],[170,-193],[647,12],[63,-285],[610,-466],[40,-171],[267,50],[171,-52],[264,-248],[187,-442],[294,-52],[342,-391],[63,-224],[146,-102],[162,-412],[-65,-536],[-466,-381],[-210,-502],[11,-353],[-161,-418],[88,-287],[-213,-402],[37,-217]],[[1716721,2749934],[-139,285],[-1030,825],[-493,166],[-810,136],[-1396,531],[-544,402],[-325,470],[-160,99],[-491,112],[-723,-221],[-344,163],[-238,756],[-114,152],[90,354],[293,421],[154,399],[-521,377],[-1539,1689],[333,505],[403,328],[209,472],[-53,162],[-468,775],[-365,354],[-253,901],[-226,298],[-1341,674],[-466,530],[-291,526],[-23,241],[329,830],[-169,926],[462,676],[150,818],[4,725],[-365,1057],[270,973],[13,738],[198,390],[688,673],[449,674],[396,1296],[0,709],[167,844],[-43,670],[-154,537],[122,258],[8,221],[-402,918],[189,469],[-155,336],[-747,940],[-226,105],[-437,-30],[-704,86],[-1323,824],[-613,242],[-817,28],[-1355,-445],[-717,132],[-2427,1221],[-606,132],[-1245,99],[-548,138],[-1684,1280],[-1105,607],[-1474,305],[-3626,-114],[-661,529],[-1058,200],[-1597,547],[-1946,1061],[-2528,590],[-1077,160],[-341,-348],[-562,-243],[-2001,-454],[-472,-29],[100,468],[-206,924],[-504,562],[-425,834],[-102,464],[-37,997],[-705,1721],[-159,647],[35,1681],[-666,1270],[-989,1553],[-1094,2686],[-305,1029],[-797,1272],[1,424],[-366,1695],[-581,590],[-214,634],[-429,1742],[1,848],[-206,474],[-123,555]]]}
