{"type":"Topology","bbox":[-72.36662467618022,6.036228928165006,-69.42884745619281,7.104381663717973],"transform":{"scale":[0.000003385120954067422,0.0000034456095261769775],"translate":[-81.73562055563167,-4.229406466336059]},"objects":{"MGN_ADM_MPIO_GRAFICO":{"type":"GeometryCollection","geometries":[{"type":"Polygon","arcs":[[15,16,17,13]],"bbox":[-71.20827013690788,6.484943765539981,-69.76161161621954,7.104381663717973],"properties":{"dpto_ccdgo":"81","mpio_ccdgo":"001","mpio_cdpmp":"81001","dpto_cnmbr":"ARAUCA","mpio_cnmbr":"ARAUCA"}},{"type":"Polygon","arcs":[[-18,18,19,20,21,12]],"bbox":[-71.69298222119986,6.526235950101686,-70.86828551388612,7.055257608703268],"properties":{"dpto_ccdgo":"81","mpio_ccdgo":"065","mpio_cdpmp":"81065","dpto_cnmbr":"ARAUCA","mpio_cnmbr":"ARAUQUITA"}},{"type":"Polygon","arcs":[[14,4,5,6,22,-16]],"bbox":[-70.72006799291228,6.036228928165006,-69.42884745619281,6.648275993909348],"properties":{"dpto_ccdgo":"81","mpio_ccdgo":"220","mpio_cdpmp":"81220","dpto_cnmbr":"ARAUCA","mpio_cnmbr":"CRAVO NORTE"}},{"type":"Polygon","arcs":[[23,-2,24,-21]],"bbox":[-72.12901626617231,6.518252472829534,-71.45346798809481,6.874587073198178],"properties":{"dpto_ccdgo":"81","mpio_ccdgo":"300","mpio_cdpmp":"81300","dpto_cnmbr":"ARAUCA","mpio_cnmbr":"FORTUL"}},{"type":"Polygon","arcs":[[-23,7,25,-19,-17]],"bbox":[-71.33835017980984,6.216413632726905,-70.655161683739,6.624680459874089],"properties":{"dpto_ccdgo":"81","mpio_ccdgo":"591","mpio_cdpmp":"81591","dpto_cnmbr":"ARAUCA","mpio_cnmbr":"PUERTO RONDÓN"}},{"type":"Polygon","arcs":[[-22,-25,-1,11]],"bbox":[-72.10016149515985,6.746272574443347,-71.6703086810495,7.066262885529877],"properties":{"dpto_ccdgo":"81","mpio_ccdgo":"736","mpio_cdpmp":"81736","dpto_cnmbr":"ARAUCA","mpio_cnmbr":"SARAVENA"}},{"type":"Polygon","arcs":[[-20,-26,8,9,10,-4,-3,-24]],"bbox":[-72.36662467618022,6.066608867357308,-71.21661784518062,6.703826110690374],"properties":{"dpto_ccdgo":"81","mpio_ccdgo":"794","mpio_cdpmp":"81794","dpto_cnmbr":"ARAUCA","mpio_cnmbr":"TAME"}}]}},"arcs":[[[2891113,3262334],[-308,-669],[-683,-694],[-959,-370],[-534,-601],[-854,-486],[-114,-430],[39,-205],[266,-353],[-18,-299],[-360,-522],[-18,-429],[-302,-1232],[-246,-373],[-759,-561],[-113,-242],[-37,-578],[-966,-1214],[-588,-523],[-284,-579],[-833,-1158],[-189,-559],[-341,-486],[-170,-634],[-171,-205],[-187,-1138],[-416,-1362],[-1220,-2264],[-148,-720],[-348,-472],[-90,-331],[-227,-260],[-198,-608],[-161,-171],[87,-336],[-41,-261],[-620,-948],[-278,-615],[-315,-222],[-148,-443],[-171,-217],[-233,-704],[-127,-1739],[-353,-1554],[-47,-1022],[-185,-346],[-129,-580],[-818,-1324],[-705,-1622],[-378,-644],[-287,-714],[-184,-827],[-1031,-1211],[-174,-455],[-220,-1192],[-600,-426],[-293,-378],[-348,-638],[-208,-755],[-456,-514],[-479,-1075],[153,-1150],[-323,-1027],[-1048,-1634],[-476,-1495],[-1244,-1936],[-748,-1529],[-491,-1355],[-859,-1094],[-80,-702],[-204,-441],[-88,-559],[-460,-798],[-196,-645],[-22,-263],[218,-351],[-4,-137],[-405,-471],[61,-341],[380,-671],[-137,-302],[-356,-448],[38,-145],[381,-467],[-57,-560],[196,-579],[-4,-145],[-294,-227],[-156,-349],[28,-268],[247,-600],[1,-231],[-260,-553],[-289,-240],[-466,-207],[-54,-528],[-590,-399],[-283,-523],[-118,-543],[95,-533],[-151,-408],[-233,-367],[-486,-147],[-131,-225],[-85,-774],[207,-308],[-67,-280],[-586,-174],[-390,-828],[123,-601],[-67,-310],[-243,-178],[-678,-93],[-516,-278],[-318,23],[-674,222],[-318,-95],[-1241,-1200],[-384,-254],[-792,-297],[-1031,-899],[-701,-980],[-233,-567],[-330,-396],[-318,-231],[-751,58],[-1166,458],[-523,329],[-223,-24],[-197,-207],[-1202,33],[-493,217],[-216,-160],[-84,-183],[-94,-726],[-150,-259],[-1417,-281],[-282,-213],[-56,-327]],[[2846424,3185468],[251,-351],[278,-1309],[172,-205],[233,-557],[47,-1048],[367,-512],[181,-901],[-111,-411],[-305,-484],[-795,-696],[-286,-136],[-209,-1281],[11,-208],[287,-458],[150,-489],[11,-229],[-231,-1011],[11,-499],[341,-593],[-93,-1250],[97,-833],[-200,-657],[33,-270],[615,-384],[-20,-573],[65,-260],[-158,-542],[372,-510],[404,-790],[-19,-688],[-741,-678],[-275,-490],[11,-187],[362,-531],[1,-416],[-233,-459],[1,-312],[937,-2040],[-167,-927],[69,-312],[304,-593],[182,-854],[339,-207],[-125,-906],[191,-323],[257,-1072],[-41,-729],[-958,-3324],[-137,-219],[-423,-449],[-1387,-1033],[-73,-417],[-760,-1262],[-593,-511],[-719,-824],[-338,-761],[-83,-490],[-170,-125],[-307,-22],[-370,-386],[-64,-198],[-63,-1313],[110,-467],[-115,-844],[182,-885],[277,-624],[22,-687],[-106,-927],[-212,-687],[-356,-387],[-407,-1535],[-380,-518],[-496,-446],[-187,-380],[-41,-541],[-159,-355],[203,-405],[-116,-542],[-92,-1396],[-442,-1646],[-124,-1437],[-464,-1011],[-189,-834],[-79,-2845],[-533,-800],[-185,-690],[14,-490],[-162,-291],[-622,-2189]],[[2837891,3121104],[-555,-1193],[-867,-1025],[-1423,-822],[-1772,-243],[-1258,-18],[-151,53],[-345,496],[-186,103],[-466,-570],[-558,-174],[-200,-292],[-477,-88],[-1396,-547],[-7,-246],[242,-228],[58,-172],[-49,-188],[-350,0],[-118,-105],[-218,-283],[-130,-356],[-281,-190],[-87,-246],[-592,-621],[-817,-186],[-762,213],[-275,6],[-306,-148],[-573,-676],[-517,-363],[183,-840],[420,-631],[-130,-847],[-567,-437],[450,-294],[558,-808],[469,-453],[95,-485],[-329,-1037],[44,-270],[126,-202],[-529,-682],[-305,-596],[-10,-1319],[508,-735],[-56,-160],[-1056,-376],[-785,-627],[-197,-37],[-998,545],[-1209,168],[-371,496],[-1008,582],[-557,174],[-450,-24],[-352,547],[-1097,282],[-238,-18],[-650,-329],[-885,-130],[-594,-177],[-295,-249],[-557,36],[-225,-143],[-205,-318],[-32,-368],[82,-755],[184,-597],[-525,-163],[-427,-614],[-27,-197],[41,-994],[-136,-721],[53,-138],[518,-420],[18,-273],[-424,-574],[-101,-417],[-510,-989],[-28,-255],[-708,-678],[-125,-328],[-312,-408],[-610,-329],[-339,-594],[-498,-540],[-463,-156],[-701,-1027],[-298,-146],[-82,-236],[-645,-397],[-253,-97],[-510,17],[-206,-106],[-646,205],[-375,-10],[-1227,-437],[-584,449],[-306,337],[32,750],[252,756],[-39,419],[-468,164],[-821,459],[-240,404],[-267,133],[-225,303],[-244,91],[-174,437],[-386,242],[-201,270],[-464,980],[-362,159],[-431,-38],[-644,244],[-249,-13],[-648,-424],[-822,-965],[-249,-486],[-209,-1295],[122,-1245],[263,-649],[452,-742],[157,-496],[8,-626],[-225,-148],[-840,175],[-714,444],[-471,502],[-910,-431],[-210,-341],[-78,-607],[-215,-240],[-350,-189],[-75,-189],[-29,-1238],[183,-267],[71,-317],[-662,-1239],[-454,-190],[-294,-300],[19,-230],[311,-580],[-53,-183],[-274,-342],[86,-547],[-98,-245],[1625,-708],[76,-914],[267,-564],[-56,-349],[-199,-314],[-41,-902],[-542,-794],[44,-299],[-373,-277],[-398,-80],[-726,-1],[-1071,-293],[-412,-432],[-687,-309],[-88,-312],[-23,-1007],[-108,-213],[-581,-588],[-118,-670],[-1383,-946],[258,-602],[-18,-109],[-279,-127],[-479,56],[-319,-128],[-1348,-101],[-602,-139],[-759,66]],[[2782972,3072719],[-215,-135],[-267,-677],[31,-846],[259,-421],[-217,-586],[-5,-212],[300,-1109],[-402,-198],[-178,-532],[-330,-558],[28,-588],[370,-536],[17,-315],[-986,-270],[-179,-176],[-213,-428],[-390,85],[-338,638],[-430,385],[-790,233],[-432,220],[-877,33],[-378,135],[-561,1011],[-628,785],[-165,454]],[[3635549,3000481],[-1450,-806],[-571,-431],[-278,-389],[-195,-601],[-516,-701],[-562,-1044],[-1138,-1524],[-552,-565],[-1723,-1411],[-2668,-1072],[-2162,-1191],[-1233,-334],[-1474,-615],[-2363,-719],[-824,-489],[-1178,-942],[-1766,-740],[-1202,-913],[-984,-528],[-1115,-437],[-1263,-679],[-1495,-562],[-2530,-379],[-1259,-693],[-1064,-775],[-1728,-448],[-1402,-80],[-1197,400],[-714,-87],[-2859,174],[-2530,-175],[-3940,-839],[-876,-391],[-2236,-169],[-5638,-953],[-3309,-35],[-2593,182],[-1655,-83],[-5386,936],[-3177,-367],[-4150,-31],[-2159,339],[-4315,1760],[-2414,131],[-1822,-579],[-3854,176],[-1949,-495],[-1588,-17],[-1883,608],[-1650,754],[-1968,671],[-2243,651],[-3087,1736],[-1122,107],[-3898,-491],[-1970,-433],[-4876,-2071],[-2565,-1358],[-1932,-666]],[[3515299,2980798],[-266,-80],[-6423,-115],[-2849,314],[-1473,524],[-4084,1962],[-1445,1110]],[[3498759,2984513],[-1587,1626],[-524,805],[-261,805],[-119,732],[-756,856],[-355,639],[-59,1566],[178,1393],[531,870],[532,1393],[177,1566],[-236,349],[-473,406],[-1417,1044],[-532,232],[-709,580],[-1594,581],[-827,116],[-827,406],[-1299,870],[-237,290],[-73,-27],[-988,550],[-554,518],[-1103,3422],[-989,1783],[-1166,1324],[-1342,807],[-905,289],[-584,59],[-1169,-55],[-526,-85],[-673,-315],[-1054,-1090],[-673,-458],[-731,-257],[-521,-69],[-300,-265],[-457,-121],[-1160,17],[-633,121],[-562,173],[-1001,500],[-370,449],[-158,553],[71,967],[210,448],[36,1312],[281,380],[351,743],[404,1536],[-35,587],[-246,535],[-632,587],[-826,311],[-527,104],[-616,-18],[-597,-535],[-299,-759],[-386,-2158],[-897,-1071],[-316,-190],[-615,-207],[-1335,86],[-862,501],[-1282,950],[-1793,449],[-914,552],[-298,35],[-1125,932],[-457,242],[-1107,-52],[-703,-449],[-1072,-1157],[-562,-242],[-1178,-34],[-1581,121],[-492,155],[-1582,760],[-1054,915],[-246,397],[-88,397],[0,639],[158,673],[685,846],[299,224],[1055,363],[1950,328],[457,0],[791,259],[509,276],[457,294],[440,604],[88,328],[17,656],[-228,328],[-475,483],[-422,87],[-1388,0],[-1968,-553],[-1265,-17],[-422,121],[-720,552],[-334,1123],[-18,2935],[106,1726],[-123,639],[-686,690],[-527,294],[-527,138],[-686,380],[-790,172],[-1775,812],[-1845,1985],[-686,432],[-386,380],[-492,707],[-405,432],[-1054,794],[-351,0],[-334,-103],[-1705,17],[-1353,-311],[-861,-17],[-562,86],[-1143,1295],[-421,1122],[17,1968],[-88,1589],[-193,1346],[-334,1071],[-404,466],[-791,725],[-703,276],[-1968,1112],[-787,24],[-591,-147],[-398,-120],[-574,-355],[-530,-147],[-636,-59],[-485,122],[-714,687],[-872,1260],[-428,2300],[-105,773],[28,425],[80,425],[186,251],[609,147],[407,407],[44,286],[-122,652],[-176,321],[-670,452],[-2048,342],[-494,-16],[-362,-182],[-487,-711],[-82,-1180],[-559,-1700],[-434,-633],[-566,-606],[-1060,-580],[-450,-16],[-1077,271],[-732,357],[-670,469],[-1868,2312],[-775,834],[-847,566],[-432,61],[-310,-112],[-875,-1101],[-575,-589],[-433,-320],[-733,-181],[-407,-26],[-847,253],[-838,323],[-1102,644],[-1121,297],[-309,-52],[-407,-199],[-513,-936],[-398,-208],[-415,140],[-1384,1026],[-212,18],[-345,-364],[-36,-400],[-283,-563],[-380,-382],[-239,-77],[-618,35],[-838,436],[-547,70],[-2420,-317],[-1157,-649],[-1343,-545],[-239,-234],[-310,-581],[-177,-746],[-177,-356],[-248,-242],[-336,-147],[-1024,-251],[-538,140],[-706,557],[-828,825],[-327,209],[-1579,697],[-1332,835],[-406,131],[-371,-34],[-291,-139],[-283,-251],[-221,-347],[-275,-711],[-195,-252],[-645,-476],[-265,-34],[-697,435],[-784,1068],[-934,1086],[-273,218],[-274,96],[-273,-9],[-186,-121],[-142,-234],[493,-1320],[-195,-494],[-256,-165],[-2137,55],[-1271,-215],[-89,174],[54,468],[239,321],[151,590],[-52,842],[-149,330],[-1262,748],[-538,504],[-326,157],[-1545,176],[-1121,-85],[-882,574],[-2614,-179],[-1553,219],[-1685,914],[-653,565],[-415,252],[-617,244],[-468,-17],[-301,-112],[-238,-122],[-867,-797],[-317,-69],[-574,218],[-485,434],[-644,366],[-194,9],[-442,-182],[-513,-451],[-601,-988],[-469,-503],[-769,-546],[-265,-95],[-485,-43],[-1281,80],[-2498,-491],[-583,84],[-1207,533],[-508,83],[-488,-134],[-954,-478],[-519,-104],[-911,-30],[-1346,210],[-858,-113],[-286,-229],[-96,-177],[-117,-396],[74,-375],[275,-365],[603,-407],[328,-354],[127,-427],[-32,-386],[-181,-322],[-689,-468],[-933,-311],[-297,-219],[-996,-415],[-477,-31],[-688,303],[-2035,-643],[-1654,-1300],[-764,-437],[-752,-280],[-1463,-363],[-2118,148],[-763,-51],[-615,-166],[-318,-322],[-244,-625],[-23,-1552],[-584,-1051],[-467,-593],[-456,-343],[-339,-177],[-795,-124],[-1122,428],[-1569,-321],[-752,11],[-350,-104],[-784,-436],[-912,-801],[-1235,-799],[-628,-538],[-464,-688],[-1024,-899],[-718,-144],[-1938,-603],[-1227,-471],[-468,495],[-260,445],[-129,850],[-10,716],[-130,367],[-823,1062],[-955,512],[-667,77],[-310,-43],[-364,-379],[-769,-399],[-855,-1233],[-474,-199],[-300,-27],[-254,72],[-395,239],[-248,617],[-73,1161],[-214,245],[-384,189],[-723,-38],[-340,-161],[-1787,-1581],[-339,-156],[-633,-44],[-728,179],[-548,484],[-107,528],[86,594],[-113,616],[-756,484],[-441,-5],[-317,-255],[-328,-572],[-363,-1466],[-221,-472],[-469,-405],[-204,-83],[-604,12],[-1612,875],[-1023,117],[-427,-188],[-149,-198],[-160,-739],[-233,-334],[-667,-113],[-466,167],[-276,354],[-434,292],[-932,147],[-551,-229],[-456,-312],[-679,-927],[-349,-343],[-657,-72],[-180,31],[-413,344],[-212,63],[-307,73],[-509,-83],[-328,-291],[-828,-1478],[-742,-437],[-233,114],[-423,459],[-635,1334],[-180,219],[-614,250],[-477,42],[-508,-93],[-1431,-666],[-657,-561],[-244,-94],[-911,-62],[-1092,-311],[-1577,-93],[-1791,-787],[-1218,-98],[-248,-81],[-659,-391],[-301,-287],[-378,-558],[-471,-291],[-320,-70],[-392,-42],[-639,67],[-195,141],[-377,1055],[-618,509],[-661,329],[-322,75],[-445,-45],[-445,-166],[-1475,-941],[-1666,-628],[-352,-41],[-936,400],[-690,509],[-483,163],[-445,50],[-848,-149],[-401,-168],[-283,-231],[-338,-690]],[[3254109,3032919],[-210,-353],[-881,-756],[-597,-178],[-734,128],[-778,646],[-103,230],[-78,280],[-42,1232],[-164,620],[-121,119],[-164,68],[-683,-33],[-562,-221],[-441,-331],[-1789,-398],[-276,60],[-1106,740],[-794,960],[-562,264],[-363,60],[-1080,17],[-614,-169],[-700,-374],[-510,-458],[-579,-93],[-233,42],[-406,187],[-450,374],[-190,196],[-172,476],[-43,510],[61,263],[657,1835],[-388,637],[-294,179],[-674,9],[-778,-161],[-795,-433],[-778,119],[-129,94],[-198,1359],[-311,493],[-363,298],[-423,229],[-622,188],[-657,161],[-614,52],[-1045,306],[-1089,-161],[-1642,-827],[-363,-846],[-619,-362],[-886,917],[-598,824],[-286,136],[-755,21],[-827,-173],[-565,-1069],[-594,-395],[-502,-576],[-374,-299],[-573,-1013],[-282,-334],[-594,-138],[-325,-7],[-1235,417],[-368,0],[-756,-215],[-1003,-680],[-409,-173],[-410,-28],[-1441,418],[-840,403],[-982,118],[-586,-62],[-367,-167],[-325,-326],[-241,-333],[-92,-451],[42,-688],[240,-708],[-42,-340],[148,-1306],[-665,-631],[-692,-195],[-424,8],[-381,166],[-381,320],[-522,729],[-445,993],[-635,612],[-544,160],[-311,-118],[-495,-431],[-494,-208],[-1737,35],[-262,112],[-889,1160],[-509,458],[-218,90],[-1307,-263],[-660,-606],[-468,-258],[-526,-115],[-555,115],[-2367,949],[-1812,-258],[-1550,-574],[-847,-488],[-614,-776],[-439,-374],[-555,-229],[-1432,144],[-585,115],[-496,230],[-468,489],[-751,492],[-469,548],[-849,687],[-679,200],[-353,26],[-1369,-121],[-591,-156],[-636,-9],[-1148,235],[-1017,-4],[-613,-201],[-191,-159],[-207,-182],[-640,-902],[-745,-280],[-1116,-285],[-336,17],[-1006,391],[-1137,1085],[-701,402],[-276,271],[-163,404],[155,492],[-923,888],[-539,651],[-944,807],[-466,539],[-643,431],[-1114,986],[-406,135],[-292,-29],[-381,-202],[-1373,-27],[-497,172],[-1019,752],[-1006,1136],[-657,468],[-953,927],[-297,167],[-360,11],[-339,-344],[-21,-396],[127,-344],[678,-677],[243,-823],[-127,-385],[-403,-406],[-593,-229],[-635,-52],[-689,239],[-540,427],[-1096,18],[-1198,173],[-677,-72],[-1778,-503],[-1111,345],[-632,618],[-128,302],[-1400,1607],[-383,30],[-776,-311],[-568,197],[-169,310],[-911,401],[-375,256],[-472,452],[-1631,2276],[-345,306],[-785,328],[-469,-23],[-740,-394],[-537,-539],[-1142,-1416],[-875,-895],[-486,-428],[-966,-388],[-390,-89],[-837,-28],[-712,211],[-265,1800],[-119,383],[-254,405],[-311,167],[-531,11],[-865,-283],[-282,-145],[-334,-328],[-147,-350],[-45,-383],[182,-1276],[-141,-572],[-560,-717],[-452,-217],[-344,-83],[-413,78],[-1017,500],[-802,588],[-554,195],[-1170,144],[-491,33],[-1741,-650],[-1559,-17],[-277,134],[-175,266],[282,1089],[-108,700],[-367,422],[-362,194],[-446,161],[-311,-166],[-469,55],[-1203,467],[-871,188],[-457,217],[-1272,1027],[-1345,728],[-283,27],[-762,-800],[-560,-244],[-435,-6],[-1240,1180],[-975,614],[-349,94],[-1272,72],[-572,208],[-487,292],[-403,416],[-721,1417],[-1129,924],[-893,460],[-673,161],[-659,-116],[-707,-391],[-379,-356]],[[3104816,3054564],[-168,-434],[129,-352],[244,-333],[1324,-268],[442,-165],[441,-382],[195,-573],[-486,-512],[-697,-486],[-1713,-105],[-371,-104],[-1165,-704],[-415,-486],[-653,-1649],[124,-495],[663,-1223],[114,-417],[-105,-304],[-309,-243],[-442,-139],[-450,148],[-1104,911],[-715,442],[-1342,399],[-1078,520],[-1104,946],[-521,1493],[-194,225],[-1917,1041],[-618,243],[-583,-26],[-194,-61],[-379,-391],[-36,-243],[133,-911],[-70,-304],[-468,-417],[-71,-217],[-52,-2100],[124,-1528],[-88,-408],[-292,-270],[-370,-112],[-371,26],[-167,95],[-186,269],[9,469],[220,469],[132,607],[-70,617],[-425,868],[-574,346],[-2083,330],[-2658,-609],[-953,-339],[-1042,-591],[-589,-458],[-990,-1426],[-353,-764],[-291,-243],[-724,-964],[-679,-495],[-777,-356],[-539,0],[-3805,1066],[-186,-9],[-273,-182],[-150,-226],[-80,-547],[637,-1493],[71,-798],[-97,-339],[-106,-147],[-477,-157],[-1615,95],[-1272,-183],[-361,-521],[-44,-295],[-26,-538],[150,-877],[-123,-790],[-477,-677],[-802,-469],[-419,-67],[-424,77],[-435,211],[-548,56],[-2548,-435],[-475,27],[-265,122],[-515,467],[-390,605],[-520,611],[-548,61],[-209,-50],[-300,-278],[-282,-462],[-73,-211],[6,-833],[-180,-900],[-204,-133],[-322,-34],[-650,311],[-418,555],[152,1022],[445,1423],[-152,305],[5,772],[-204,300],[-740,211],[-898,-23],[-351,-156],[-1400,-1084],[-559,-228],[-351,-50],[-808,188],[-1837,1332],[-463,33],[-1566,349],[-955,39],[-802,-234],[-316,-856],[-95,-750],[577,-1769],[-62,-795],[-163,-552],[-130,-211],[-372,-161],[-582,16],[-1424,455],[-588,466],[-340,449],[-40,650],[-848,744],[-79,145],[-40,616],[-803,844],[-791,116],[-989,966],[-520,366],[-859,272],[-791,-51],[-356,-194],[-175,-295],[-28,-267],[136,-411],[1001,-1154],[418,-256],[763,-771],[945,-1205],[345,-1427],[100,-1123],[-220,-1163],[-370,-729],[-477,-304],[-424,-27],[-538,165],[-1890,1405],[-787,824],[-812,251],[-609,-322],[-265,-286],[-220,-486],[-61,-1476],[-202,-512],[-247,-183],[-1298,-200],[-759,260],[-592,95],[-1759,-923],[-328,-717],[-338,-406],[-1525,-762],[-1045,-312],[-147,94],[-136,245],[-754,569],[-119,265],[-217,774],[-36,1207],[-136,489],[-645,649],[-458,111],[-632,-258],[-457,-391],[-335,-599],[-145,-920],[-66,-1133],[-180,-1022],[-237,-522],[-1017,-423],[-825,-201],[-344,272],[-430,688],[-125,345],[-57,683],[-102,322],[-260,222],[-933,477],[-1265,321],[-860,555],[-786,1166],[-803,571],[-209,283],[-311,694],[135,384],[-12,189],[-254,555],[-340,283],[-536,83],[-492,-173],[-293,-228],[-204,-333],[-28,-295],[187,-350],[1301,-1593],[159,-416],[-28,-506],[-418,-461],[-1175,-246],[-661,128],[-1000,499],[-825,177],[-848,-12],[-486,-112],[-462,-600],[-61,-1183],[775,-1394],[23,-511],[-96,-200],[-277,-261],[-451,-195],[-667,-89],[-627,88],[-1091,965],[-165,439],[-193,1461],[-747,1138],[-318,201],[-699,131],[-403,-76],[-353,-91],[-861,-501],[-219,-257],[-176,-493],[107,-743],[318,-493],[594,-541],[325,-437],[326,-826],[121,-729],[-42,-312],[-163,-313],[-592,-354],[-933,75],[-388,166],[-728,555],[-629,833],[-1153,1137],[-983,1534],[-403,1034],[-382,389],[-488,249],[-819,208],[-586,-70],[-2041,-405],[-1052,-473],[-331,-56],[-297,20],[-685,389],[-177,437],[-15,583],[655,1174],[176,743],[-28,396],[-164,604],[-166,276],[-791,645],[-1152,450],[-988,163],[-513,-638],[-1002,-606],[-1540,-37],[-347,302],[-501,871],[-924,37],[-308,-75],[-77,-303],[192,-378],[501,-454],[77,-492],[-77,-76],[-308,-38],[-578,76],[-346,-38],[-578,-378],[-270,-757],[-539,-833],[0,-340],[347,-1022],[-77,-1022],[-308,-302],[-809,-492],[-154,-719],[-154,-265],[-347,-114],[-308,0],[-539,190],[-309,0],[-38,-757],[-270,-454],[-385,75],[-269,190],[-578,-38],[-1040,-606],[-154,-265],[-424,-264],[-655,-757],[-886,-341],[-1001,-151],[-1040,416],[-770,0],[-770,151],[-617,-227],[-346,-227],[-2427,-37],[-1618,491],[-885,152],[-424,189],[-655,114],[-1640,-424],[-1293,215],[-620,14],[-2852,-189],[-2010,276],[-620,0],[-1330,-203],[-1079,-407],[-753,-43],[-1300,14],[-2290,479],[-2616,29],[-428,102],[-2069,58],[-1226,-232],[-978,16],[-897,-328],[-960,-574],[-542,-82],[-1085,-123],[-897,123],[-1126,0],[-2066,-471],[-479,-21],[-1043,-225],[-689,20],[-626,185],[-667,20],[-689,-82],[-688,-102],[-1252,-574],[-980,-1066],[-1106,-799],[-969,-932],[-822,-959],[-3162,-1846],[-2467,-1009],[-2533,-587],[-2362,-281],[-7374,219],[-1578,156],[-2836,1083],[-1948,835],[-3538,969],[-945,-126],[-2212,19],[-1163,-161],[-656,-137],[-1762,-660],[-886,-454],[-7330,-4747],[-2841,-2395],[-1749,-1135],[-1886,-1929],[-460,-160],[-956,-160],[-391,-193],[-679,-511],[-625,-243],[-1640,-309],[-1838,-742],[-1088,-274],[-562,-18],[-864,313],[-381,59],[-1987,56],[-760,-154],[-509,-197],[-1070,-707],[-1214,-461]],[[2857904,3002847],[-849,-205],[-1157,-435],[-864,-61],[-1908,-547],[-328,-451],[-534,-997],[-811,-388],[-1412,-1755],[-550,-431],[-737,-1323],[-548,-349],[-548,-670],[-786,-288],[-538,-335],[-509,-642],[-742,-603],[-306,-526],[-207,-555],[-1131,-724],[-268,-325],[-217,-431],[-267,-116],[-530,-55],[-333,-212],[-1282,-493],[-647,-402],[-368,-409],[-738,-505],[-1457,-136],[-629,94],[-906,-346],[-1056,-49],[-306,92],[-132,226],[-302,128],[-386,-262],[-485,38],[-934,611],[-1159,188],[-438,377],[-651,198],[-278,-44],[-761,580],[-1076,235],[-276,169],[-234,297],[-727,610],[-1088,309],[-233,146],[-358,433],[-706,190],[-448,381],[-512,-27],[-266,64],[-538,1020],[-1221,499],[-176,233],[-233,-216],[-83,36],[-307,415],[-329,264],[-483,963],[-532,21],[-698,715],[-882,160],[-667,245],[-398,419],[-485,-141],[-478,247],[-492,42],[-675,468],[-514,120],[-693,332],[-299,39],[-703,-120],[-667,-1],[-420,124],[-1002,120],[-573,203],[-200,140],[-136,222],[-459,210],[-964,636],[-340,483],[-368,239],[-372,118],[-857,-52],[-401,63],[-1460,1115],[-470,85],[-412,190],[-780,-20],[-997,962],[-762,109],[-296,412],[-241,42],[-368,-144],[-714,181],[-617,425],[-223,276],[-1059,886],[-460,195],[-585,547],[-426,237]],[[2795470,3006880],[-172,221],[-246,734],[-642,267],[-344,326],[-34,609],[-271,522],[409,1162],[-91,194],[-230,178],[16,814],[-340,658],[25,101],[390,166],[65,269],[-179,196],[-462,1028],[-350,135],[-220,487],[-730,471],[-241,93],[-422,3],[-227,114],[-555,561],[75,513],[15,1362],[346,280],[432,589],[186,82],[463,-41],[255,136],[182,234],[50,297],[-71,591],[-205,340],[-270,236],[-19,412],[-303,186],[-169,759],[-228,519],[-81,674],[-147,218],[258,667],[21,438],[-103,243],[3,240],[98,154],[266,141],[206,477],[-106,222],[-266,239],[-173,441],[-390,329],[-595,102],[-139,233],[-368,157],[-107,404],[-456,171],[-317,25],[-215,107],[-748,9],[-525,124],[-271,-296],[-627,163],[-536,-137],[-343,228],[-350,107],[-259,-94],[-153,143],[-653,268],[-182,-108],[-744,9],[-215,132],[-200,-47],[-186,89],[-285,3],[-139,164],[-404,57],[-59,272],[-161,204],[-671,-73],[-215,74],[-328,-90],[-372,100],[-164,261],[-71,598],[142,205],[258,43],[294,535],[-208,347],[-259,17],[-23,276],[-493,465],[-358,261],[-572,253],[-350,-141],[-321,136],[-207,-166],[-198,100],[-448,-105],[-284,186],[-354,-166],[-131,68],[-186,-40],[-303,179],[-358,511],[-277,132],[-613,692],[-243,162],[106,459],[-79,334],[13,641],[-176,348],[87,210],[-25,569],[-997,1792],[0,140],[245,281],[26,191],[-403,337],[-33,439],[-448,126],[-176,370],[-350,177],[-139,955],[-648,381],[-670,757],[-176,305],[-415,171],[-188,280],[-85,312],[-676,896],[-80,529],[-162,337],[109,198],[-111,630],[25,325],[-364,388],[-53,223],[167,829],[-33,273],[77,90],[214,39],[110,159],[-46,197],[71,128],[-188,146],[77,312],[-98,293],[666,543],[-14,344],[194,128],[115,618],[-377,1100],[-588,384],[-2,634],[-455,2343],[-301,396],[-106,1042],[-335,316],[401,1088],[421,333],[349,488],[-25,107],[108,2],[17,122],[252,113],[126,-35],[233,120],[107,171],[230,27],[676,886],[634,180],[426,13],[247,206],[112,262],[-198,491],[218,549],[-128,281],[-192,128],[391,217],[83,263],[-169,408],[2,275],[-110,101],[30,261],[189,279],[317,29],[290,389],[-72,173],[332,469],[585,84],[-33,536],[98,176],[68,714],[108,160],[1440,855],[641,53],[93,246]],[[2891113,3262334],[348,-162],[921,-161],[148,-253],[388,-361],[1161,-558],[313,0],[1985,586],[980,71],[368,181],[828,580],[423,199],[202,200],[96,317],[-29,319],[194,154],[902,281],[309,269],[368,19],[593,-411],[937,-56],[718,128],[699,543],[276,55],[221,-36],[148,-181],[443,-216],[579,-117],[703,1046],[224,88],[158,-163],[268,-73],[700,37],[386,435],[737,164],[1143,-342],[719,-360],[1437,-251],[343,157],[39,293],[151,275],[332,90],[604,5],[555,323],[995,1],[609,-487],[368,-126],[553,164],[717,598],[368,199],[826,736],[462,26],[792,562],[331,-36],[609,-632],[406,-126],[957,164],[461,182],[957,74],[646,-234],[570,-17],[497,290],[460,615],[368,182],[921,109],[184,109],[165,326],[663,616],[587,1086],[37,361],[-149,506],[-645,947],[-303,1099],[-70,1081],[-136,434],[132,929],[333,283],[589,199],[516,38],[884,-126],[387,128],[129,253],[54,380],[422,421],[775,394],[1933,328],[885,-34],[848,-216],[1363,20],[3942,639],[2192,40],[2118,346],[2119,-142],[4458,-48],[1171,-411],[802,-761],[776,-957],[202,-109],[2046,-214],[1400,-269],[719,-234],[867,-451],[536,-1627],[75,-596],[-91,-1122],[112,-777],[-36,-977],[332,-523],[1585,-432],[1235,-143],[810,200],[331,307],[1086,707],[1326,143]],[[2966700,3269843],[595,181],[2100,-216],[1208,283],[732,1],[1051,-436],[2191,-549],[610,-479],[1494,408],[986,657],[1239,1407],[508,688],[222,718],[221,1156],[1242,592],[1139,326],[1756,-233],[1044,-326],[1756,-2005],[1229,-330],[416,-191],[793,-90],[1271,219],[1768,92],[608,145],[479,254],[625,471],[479,182],[1069,145],[294,308],[441,1176],[294,524],[681,164],[553,-18],[590,-270],[295,-289],[222,-398],[148,-596],[1,-651],[-275,-1339],[-460,-796],[-404,-995],[-847,-416],[-644,-779],[-166,-470],[1,-543],[462,-975],[222,-778],[-73,-1320],[259,-379],[387,-181],[497,-89],[829,73],[792,561],[1416,1647],[681,543],[921,363],[829,254],[1295,115],[722,-216],[231,-186],[774,-54],[663,55],[2007,816],[1841,1050],[792,309],[1787,37],[1604,-757],[2193,-1318],[1162,-1301],[406,-326],[608,-198],[589,55],[939,326],[901,2153],[423,705],[571,598],[607,398],[571,73],[351,-90],[1032,-560],[553,-759],[647,-1808],[774,-1319],[130,-958],[203,-253],[1695,-505],[608,109],[718,344],[1933,2099],[202,489],[0,596],[-167,507],[-959,1355],[37,524],[91,380],[350,597],[386,470],[553,381],[681,127],[774,-217],[517,-288],[405,-344],[185,-289],[166,-542],[-35,-2224],[277,-977],[-36,-542],[-534,-1284],[-54,-597],[74,-579],[166,-452],[424,-759],[258,-198],[442,-127],[756,-17],[608,145],[257,434],[73,633],[-166,796],[-57,2603],[202,543],[331,206],[385,-18],[421,-272],[2088,-836],[442,-17],[479,271],[107,401],[295,465],[375,1093],[523,824],[779,661],[1145,546],[678,-73],[438,-152],[1110,-578],[1566,-234],[3206,490],[1011,-59],[1627,-261],[715,-401],[941,-1121],[1234,-2664],[868,-1023],[479,-289],[986,-351],[1246,-127],[1361,353],[1983,794],[-27,66],[251,21],[2173,-120],[1310,-209],[2150,-485],[1389,29],[1621,417],[1069,127],[1142,272],[902,380],[995,272],[553,54],[1050,380],[2818,1539],[405,90],[497,19],[525,-138],[2442,-1217],[995,0],[1252,398],[903,489],[461,145],[1673,1082],[384,102],[850,-10],[394,-244],[217,-314],[552,-2259],[321,-671],[259,-264],[322,-112],[518,-20],[866,181],[443,0],[589,-163],[344,-289],[928,-1157],[331,-307],[480,-199],[386,-54],[449,122],[598,775],[537,1418],[678,1245],[918,740],[669,222],[630,-84],[503,-235],[1831,-1414],[1669,-697],[434,-56],[659,93],[420,146],[346,249],[620,842],[307,258],[290,154],[447,93],[277,-31],[816,-364],[240,-236],[617,-974],[258,-155],[403,-43],[290,74],[255,213],[580,244],[1521,-9],[608,272],[752,499],[485,198],[2651,661],[993,63],[12,57],[675,-4],[459,-108],[1734,261],[1192,-89],[553,145],[386,308],[350,832],[209,311],[243,144],[422,31],[421,-148],[842,-121],[498,0],[1441,219],[592,-62],[416,-136],[510,-451],[510,-840],[639,-1460],[-61,-576],[-436,-924],[-25,-426],[120,-451],[667,-741],[353,-260],[466,-172],[447,-56],[371,25],[824,330],[701,159],[645,-55],[481,-167],[837,-617],[277,-272],[196,-408],[125,-362],[-37,-271],[-221,-157],[-850,-31],[-310,-174],[-203,-235],[-484,-161],[-239,55],[-265,266],[-667,1013],[-227,105],[-151,-111],[-16,-209],[110,-298],[706,-979],[268,-648],[29,-422],[-96,-293],[-552,-379],[-146,-371],[14,-232],[246,-280],[33,-161],[-143,2],[152,-319],[396,-265],[4035,-490],[571,-163],[700,-415],[792,-832],[516,0]],[[3145039,3254225],[975,286],[517,29],[498,-132],[832,-620],[383,-225],[345,-94],[499,63],[821,557],[208,67],[338,-77],[336,-216],[224,-258],[580,-257],[337,18],[973,607],[337,18],[1740,-597],[2658,285],[936,202],[621,-28],[1263,-338],[680,-394],[636,-582],[2170,-955],[431,-110],[524,36],[2208,992],[2171,385],[1385,698],[1422,257],[337,92],[337,202],[674,808],[337,1029],[187,294],[617,514],[468,220],[356,349],[116,1175],[128,442],[243,220],[262,19],[337,-56],[524,-257],[299,0],[281,92],[543,404],[543,863],[75,864],[-75,789],[169,515],[299,532],[1198,845],[973,239],[1067,73],[1123,-331],[2676,-1],[1628,-570],[842,-478],[431,-110],[449,128],[243,809],[-18,459],[187,386],[487,367],[730,367],[749,184],[2058,256],[618,349],[356,275],[318,478],[55,470],[-67,385],[-268,284],[-749,184],[-486,220],[-225,203],[-187,440],[-56,625],[131,735],[-74,624],[-430,754],[-94,569],[56,294],[244,276],[393,183],[1348,1084],[505,293],[506,129],[524,-74],[150,-422],[261,-1488],[355,-644],[767,-661],[768,-111],[861,441],[636,771],[862,1543],[524,771],[431,1084],[338,624],[393,404],[917,404],[824,478],[524,183],[674,110],[2601,-111],[843,-111],[449,-349],[340,-988],[351,-464],[1067,-717],[561,-128],[1123,-56],[431,202],[898,165],[787,-1],[486,92],[375,220],[131,239],[0,238],[-281,258],[-524,92],[-262,202],[-53,310],[72,425],[394,569],[899,753],[412,165],[262,239],[23,222],[-96,206],[-640,336],[-298,-112],[-509,-507],[-430,-249],[-764,68],[-562,203],[-243,276],[-56,349],[300,881],[169,386],[281,220],[542,220],[450,0],[224,-129],[243,-459],[300,-202],[823,-148],[393,37],[337,147],[937,826],[280,128],[899,55],[505,-202],[524,-919],[187,-184],[393,-92],[1254,146],[337,-55],[355,-331],[224,-533],[393,-349],[187,0],[132,92],[149,294],[450,1028],[170,1139],[168,220],[1160,-184],[1049,128],[2190,770],[1984,385],[1550,-117],[1164,170],[476,-205],[292,-254],[717,-969],[209,0],[839,-518],[470,4],[570,379],[607,686],[588,1574],[471,916],[339,188],[658,-18],[320,130],[298,270],[27,161],[-158,341],[17,347],[242,552],[256,306],[275,155],[495,100],[624,-53],[2466,-1660],[1116,-218],[681,-438],[492,-164],[1867,-67],[1934,340],[820,252],[731,385],[2696,549],[1403,-19],[1048,-277],[826,-92],[803,91],[1235,311],[881,716],[750,1469],[449,569],[394,184],[430,73],[412,-37],[449,-184],[766,-1507],[542,-1709],[243,-405],[935,-937],[430,-331],[1029,-497],[2377,-406],[299,-147],[823,-754],[337,-111],[1591,-93],[1384,-332],[412,-184],[262,-184],[639,-777],[20,-1134],[96,-333],[213,-208],[237,-84],[227,14],[1128,391],[666,94],[336,-18],[1031,-322],[411,39],[703,294],[524,36],[486,-478],[411,-258],[655,-148],[1741,-75],[617,-258],[355,-386],[412,-294],[318,-92],[318,18],[656,256],[2340,476],[1160,421],[1910,200],[356,220],[-19,239],[-430,717],[20,330],[581,735],[580,91],[337,-37],[786,-295],[673,-74],[337,201],[244,276],[431,844],[544,349],[711,91],[299,-74],[1253,-846],[393,-129],[356,-1],[375,147],[449,440],[486,-53],[158,-208],[52,-424],[179,-351],[400,-197],[832,-11],[369,-145],[273,-218],[368,-837],[1000,-611],[252,-383],[283,-983],[-85,-516],[63,-259],[916,-415],[421,-537],[20,-486],[95,-145],[579,-456],[-11,-320],[-464,-465],[-211,-351],[-158,-134],[-421,217],[-306,-41],[-243,-371],[-21,-238],[399,-859],[158,-155],[337,-1],[854,578],[651,174],[350,-153],[39,-364],[-274,-496],[-292,-267],[-360,-124],[-653,-40],[-147,-104],[-201,-289],[-21,-217],[126,-155],[358,-73],[1633,40],[368,113],[344,423],[347,-45],[208,-446],[332,-1133],[148,-175],[536,-198],[516,21],[169,-83],[715,-591],[790,-414],[704,-890],[200,-134],[663,-84],[148,-207],[-96,-558],[-211,-341],[-886,-536],[23,-333],[137,-112],[976,-284],[489,-401],[121,-435],[-88,-647],[110,-153],[517,-243],[661,-621],[367,-662],[116,-662],[231,-155],[1991,225],[589,-270],[263,-41],[106,95],[-187,666],[30,128],[153,119],[546,40],[2154,-794],[2578,-1409],[2222,-199],[128,61],[55,138],[-56,297],[68,177],[168,92],[211,26],[1227,-348],[348,133],[191,414],[116,1012],[223,600],[327,464],[411,186],[389,-42],[495,-207],[421,-476],[168,-352],[20,-269],[-84,-175],[-1001,-258],[-358,-206],[-95,-217],[105,-165],[1358,19],[874,-353],[937,19],[348,103],[168,145],[602,1126],[380,134],[263,-104],[105,-166],[94,-703],[-30,-698],[102,-232],[197,-34],[130,57],[115,441],[-31,328],[-251,576],[51,139],[169,85],[595,-24],[944,166],[291,-237],[66,-239],[-22,-724],[89,-404],[931,-1065],[-32,-362],[-275,-412],[-42,-476],[1136,-787],[178,-456],[10,-775],[94,-134],[295,-290],[831,-529],[715,-776],[589,-1],[1065,474],[147,145],[-31,436],[95,163],[222,31],[786,-176],[217,39],[169,119],[276,816],[175,89],[389,-104],[852,-942],[483,-735],[263,-155],[421,82],[2224,1030],[337,62],[730,-136],[953,-1003],[495,-301],[516,-21],[1127,194],[663,-94],[242,-207],[42,-248],[-96,-692],[61,-1417],[63,-144],[926,-426],[567,-910],[358,-52],[506,195],[252,0],[211,-145],[52,-290],[-296,-681],[-47,-846],[298,-550],[216,-754],[151,-136],[512,-45],[573,374],[505,103],[769,-187],[207,-199],[77,-195],[-220,-248],[-853,-195],[-40,-146],[166,-353],[239,-146],[223,-1],[864,352],[212,0],[257,-185],[66,-206],[-20,-437],[177,-292],[1040,-1278],[463,-135],[738,195],[526,0],[295,-84],[809,-807],[484,-280],[242,-52],[1043,132],[231,-83],[326,-289],[452,-942],[220,-269],[600,-249],[1327,225],[1622,153],[537,185],[359,237],[484,61],[674,-197],[832,154],[337,-73],[1262,-705],[810,-219],[464,134],[622,330],[716,143],[263,176],[613,1032],[158,166],[316,92],[358,-42],[263,-145],[750,-698],[482,-116],[417,223],[831,734],[682,93],[1334,-71],[291,63],[475,277],[362,364],[622,413],[1170,587],[950,1342],[1117,587],[1,331],[-305,414],[-21,217],[54,258],[158,227],[516,227],[958,29],[275,93],[706,557],[842,133],[1149,380],[1349,577],[443,350],[74,228],[-72,1023],[285,206],[537,217],[317,516],[200,165],[1021,-21],[1265,337],[905,-146],[505,-260],[285,0],[463,206],[570,722],[369,227],[306,-21],[571,-732],[371,-17],[953,663],[587,310],[340,-64],[896,-729],[212,-45],[175,69],[472,552],[160,78],[498,-79],[1103,-442],[379,20],[306,568],[319,153],[556,-134],[1240,-705],[401,-21],[390,206],[369,361],[190,82],[168,0],[421,-198],[348,21],[1738,668],[642,-32],[443,92],[696,516],[653,164],[633,350],[326,72],[211,-21],[662,-436],[200,-424],[40,-672],[253,-124],[600,50],[210,-135],[378,-497],[496,165],[432,30],[767,-560],[284,-62],[179,-1],[412,320],[726,226],[560,381],[484,154],[958,-12],[1374,189],[5063,-5868],[100159,-124463]],[[3537247,3122742],[98302,-122261]],[[3537247,3122742],[-50,-179],[-198,-152],[-439,-221],[-226,-13],[-932,196],[-311,-41],[-564,488],[-84,-56],[125,-472],[-325,-13],[-254,56],[-606,529],[-550,224],[-1046,44],[-423,446],[-410,-152],[-84,347],[-183,167],[-113,-124],[-200,-555],[-339,-194],[-256,-443],[-651,-499],[-989,-11],[-354,-82],[-930,724],[-226,56],[-156,-111],[-59,-791],[111,-1014],[-269,-221],[-226,84],[72,735],[-831,988],[-183,126],[-198,14],[-354,-277],[-227,-319],[-582,-1039],[-480,-55],[-537,140],[-197,126],[-495,43],[-226,-97],[-821,-637],[-369,-499],[-15,-291],[42,-181],[324,-361],[70,-223],[-43,-152],[-834,-179],[-85,-125],[84,-319],[-71,-139],[-269,-110],[-551,-110],[256,430],[-226,167],[-382,-277],[-57,-125],[126,-236],[-57,-166],[-764,-707],[-708,-387],[-57,-180],[196,-736],[111,-861],[-114,-417],[-467,-235],[-1031,45],[-467,-83],[-256,-651],[-1,-459],[-57,-138],[-212,-55],[-70,250],[-113,-56],[-282,112],[-114,-97],[-183,1],[-198,167],[-1031,44],[-550,487],[-282,84],[-141,28],[-439,-262],[-99,14],[-127,264],[-932,196],[-607,-40],[-338,404],[-523,167],[-296,279],[-438,1],[-154,403],[-946,238],[-310,417],[-578,446],[-56,444],[-127,153],[-282,182],[-438,126],[-664,-249],[-652,-679],[-481,-248],[-297,-69],[-1116,44],[-240,181],[-84,292],[1,347],[227,458],[43,264],[-268,111],[-805,58],[-537,251],[-112,236],[-69,611],[-198,195],[-875,363],[-338,403],[-211,501],[-155,111],[-480,1],[-821,-234],[-254,28],[-508,224],[-113,153],[-84,264],[100,361],[326,429],[128,319],[15,278],[-41,694],[-296,279],[-140,472],[496,582],[57,166],[-395,515],[-41,611],[242,486],[495,498],[-42,167],[-211,181],[-183,556],[-55,514],[-961,30],[-495,-110],[-210,583],[-255,-124],[-310,403],[-310,84],[-185,-166],[41,-653],[-57,-166],[-297,-249],[-184,-55],[-183,55],[-633,1474],[-324,389],[-423,320],[-226,-41],[-268,140],[-467,-13],[-411,-402],[-834,-331],[-71,56],[86,388],[-85,70],[-282,181],[-635,126],[-819,530],[-113,-55],[-85,-195],[27,-458],[198,-70],[437,-403],[225,-431],[-212,-139],[-1017,461],[-706,15],[-255,-221],[309,-834],[-214,-638],[-226,-208],[-354,-96],[-381,111],[-269,-41],[-225,292],[-141,1],[-438,306],[-466,140],[-508,321],[-776,321],[-226,42],[-722,-207],[-749,-26],[-253,195],[-678,126],[-367,251],[-254,348],[-68,1014],[-113,152],[-508,279],[-99,167],[31,1139],[-98,139],[-156,56],[-1201,30],[-579,154],[-594,-346],[-495,-27],[-410,-221],[-269,42],[-212,-305],[140,-528],[-58,-360],[-155,-83],[-212,83],[-803,1016],[-397,-333],[-113,-277],[70,-125],[367,-57],[141,-153],[28,-375],[-241,-96],[-833,279],[-310,362],[-113,222],[44,639],[-478,1042],[-155,153],[-184,-41],[-496,-596],[-311,-41],[-226,56],[-183,195],[-211,445],[-339,278],[-729,-481],[-1422,936],[-152,22],[-272,-180],[-132,-312],[25,-153],[299,-445],[38,-236],[-637,-540],[-282,52],[-444,623],[-310,247],[-590,379],[-547,99],[-346,-48],[-107,-101],[402,-504],[52,-417],[-131,-169],[-622,53],[-2219,-186],[-278,243],[-218,518],[-347,-69],[-289,84],[-870,-300],[-717,279],[-172,285],[-179,837],[-147,243],[-668,318],[-243,240],[-483,226],[-389,36],[-240,-87],[-99,53],[-388,421],[-419,844],[-53,-149],[130,-573],[-606,-825],[-584,-235],[-537,133],[-834,-155],[-511,515],[-922,92],[-748,550],[-646,92],[-1167,1096],[-604,390],[-505,-83],[-701,-387],[-523,-68],[-455,146],[-209,312],[-416,-61],[-355,155],[-174,-183],[-301,-736],[-315,-218],[-402,338],[-929,161],[-230,247],[-348,619],[-470,185],[-473,-176],[-393,-364],[-538,-322],[-226,178],[-42,302],[135,253],[350,-49],[-80,645],[-251,8],[-234,-191],[-424,-162],[-363,216],[-81,434],[51,625],[-74,253],[-820,-380],[-255,4],[-764,-523],[-799,-179],[-219,122],[-214,403],[132,760],[-734,283],[-407,-107],[-187,-145],[381,-39],[-57,-143],[-191,-48],[-46,-173],[31,-330],[187,-334],[87,-507],[-74,-159],[-213,-97],[-303,73],[-95,216],[-290,153],[-513,1091],[-336,213],[-194,-24],[-117,-219],[41,-541],[356,-550],[-43,-267],[-265,-211],[-1703,288],[-267,141],[-144,479],[425,447],[18,121],[-102,261],[-360,344],[-657,109],[-181,-118],[143,-972],[187,-458],[-114,-132],[-840,67],[-209,95],[-1156,1241],[-481,-152],[-247,1],[-99,-91],[70,-222],[-107,-465],[365,-1257],[-43,-104],[-254,-14],[-459,279],[-571,529],[-1159,-102],[-396,167],[-176,354],[-275,181],[-141,251],[-83,937],[-345,431],[-424,279],[-162,0],[-135,-111],[-418,-735],[-1083,-894],[-134,188],[-76,1000],[-204,375],[-205,195],[-304,-381],[-1,-590],[-100,-271],[-325,-305],[-382,-69],[-1130,238],[-141,216],[36,444],[-182,1125],[-284,187],[-407,1],[-198,117],[-224,1039],[-293,378],[-435,251],[-209,212],[-16,488],[-1276,908],[-300,-44],[-153,-144],[-57,-305],[112,-456],[-107,-128],[-289,-21],[-502,167],[-526,40],[-96,72],[-90,295],[-711,623],[-39,400],[-474,307],[-334,-55],[-317,-172],[-91,-289],[112,-594],[-34,-256],[-413,-16],[-198,234],[-265,6],[-301,-338],[-260,-39],[-141,62],[-321,639],[-209,-5],[-561,-682],[106,-739],[-114,-394],[-249,-411],[-346,-199],[-164,50],[-462,628],[-209,73],[-645,-366],[-390,12],[-509,173],[-916,-131],[-413,-150],[-373,68],[-435,139],[-112,589],[-317,51],[-350,195],[-153,-178],[-80,-433],[-644,146],[-702,-521],[-604,567],[-537,134],[-124,134],[-45,200],[-215,-89],[-221,-271],[-362,-55],[-112,72],[159,478],[-181,272],[-198,17],[-163,161],[0,145],[351,538],[-44,294],[-85,134],[-164,45],[-379,-183],[-175,95],[-146,561],[52,605],[-147,23],[-385,-122],[-623,-693],[-735,-149],[-300,-166],[-85,-161],[-35,-578],[-436,-660],[-386,-449],[-860,-354],[-45,-72],[310,-390],[45,-194],[-17,-417],[-97,-94],[-277,-16],[-214,461],[-435,273],[-158,11],[-492,-82],[-334,-216],[-193,-228],[-316,-66],[-238,123],[-315,523],[11,105],[991,743],[80,372],[-141,128],[-1018,-104],[-96,72],[-11,139],[68,161],[758,526],[-22,339],[-554,212],[-418,-127],[-384,62],[-430,201],[-265,244],[-406,540],[-164,394],[-5,195],[380,455],[-28,166],[-577,46],[-129,350],[74,450],[-73,194],[-138,100],[-480,7],[-513,-367],[-280,-319],[-124,-24],[-162,39],[-88,205],[-297,261],[-530,-350],[-449,94],[-21,233],[202,437],[191,90],[598,51],[127,135],[4,167],[-501,351],[-247,417],[-81,323],[-219,188],[-52,184],[-1233,439],[-77,112],[15,489],[-453,35],[-508,536],[-169,-14],[-347,-263],[-332,-34],[-163,101],[-236,542],[-226,125],[-201,-100],[-160,-667],[-99,-145],[-410,181],[-622,-173],[-385,98],[-368,-145],[-371,278],[-120,-10],[-88,-62],[63,-330],[-96,-118],[-321,389],[-342,150],[-205,-38],[-322,150],[-70,409],[-131,-79],[-544,129],[-186,365],[-124,80],[-187,38],[-184,-135],[-290,-6],[-1257,342],[-806,-240],[-488,-3],[-426,-182],[-1082,-1114],[-675,278],[-125,211],[-100,-9],[-306,-131],[-200,-425],[-158,-119],[-916,-45],[-369,-189],[-286,-46],[-573,401],[-429,-65],[-447,470],[-526,-27],[-323,352],[-583,327],[-539,523],[-787,296],[-1192,-66],[-784,105],[-208,-86],[-663,-38],[-533,161],[-216,183],[-35,553],[-413,307],[-475,-207],[-552,168],[-830,-575],[-1320,-83],[-1808,-693],[-1477,60],[-351,146],[-374,-53],[-719,219],[-397,-71],[-355,109],[-605,-343],[-473,-62],[-727,259],[-464,80],[-438,261],[-420,551],[-779,664],[-206,321],[91,290],[-271,214],[-8,250],[-103,187],[-422,231],[-177,278],[-326,158],[-554,-213],[-334,-294],[-251,-41],[-305,300],[-72365,-47155]],[[3273283,3109566],[-449,1093],[81,699],[-338,695],[185,1299],[-170,292],[-268,264],[-664,320],[-283,70],[-608,-180],[-212,28],[-324,333],[85,333],[212,250],[608,375],[325,69],[537,-417],[254,41],[128,153],[-212,389],[213,1416],[170,528],[538,610],[71,250],[-636,848],[-155,403],[-140,930],[-255,209],[-607,-69],[-552,-486],[-594,-222],[-254,28],[-311,181],[-296,611],[14,306],[212,139],[255,-70],[466,-486],[183,-28],[340,97],[212,166],[212,264],[71,264],[-56,222],[-226,222],[-354,195],[-847,250],[-481,293],[-70,222],[141,291],[538,541],[0,348],[-113,250],[-384,316],[-262,101],[-616,-145],[-179,-327],[56,-791],[-100,-195],[-212,-41],[-593,250],[-452,431],[-353,820],[-268,55],[-339,-96],[-368,-292],[-170,-277],[0,-250],[353,-612],[56,-291],[-156,-278],[-212,-250],[-212,-83],[-495,28],[-296,209],[-409,847],[-42,361],[56,278],[354,625],[57,291],[-42,431],[-382,236],[-410,-97],[-381,56],[-198,278],[14,139],[142,97],[664,-70],[226,55],[156,181],[57,666],[-42,153],[-523,639],[-493,1584],[-565,1208],[-564,751],[-608,208],[-382,-27],[-297,-167],[-183,-249],[-525,-1611],[-198,-139],[-551,-152],[-268,97],[-29,250],[693,611],[142,347],[-85,278],[-240,167],[-452,-28],[-679,-319],[-297,-41],[-169,56],[-28,250],[792,1527],[157,749],[-14,459],[-141,264],[-692,972],[-438,223],[-537,583],[-565,876],[-254,208],[-735,362],[-2063,682],[-480,305],[-325,626],[-56,333],[85,375],[-212,319],[-272,26],[-633,-622],[-608,-236],[-354,-430],[-834,-499],[-834,-625],[-128,-139],[127,-541],[-71,-167],[-141,-55],[-184,0],[-678,334],[-42,125],[367,374],[29,139],[-71,125],[-325,111],[-296,459],[-170,83],[-763,-513],[-566,361],[-183,-13],[-326,-181],[-240,-208],[0,-139],[141,-97],[594,139],[169,-56],[29,-125],[-283,-347],[-298,-680],[-240,14],[-410,264],[-720,-41],[-114,-111],[-29,-1084],[99,-541],[-156,-195],[-212,-97],[-1512,-471],[-439,28],[-56,125],[99,208],[438,347],[71,500],[-183,278],[-467,-152],[-650,306],[-593,-208],[-495,-347],[-410,28],[-269,153],[-184,-28],[-777,-583],[-198,14],[-85,264],[72,1569],[-198,112],[-269,-125],[-226,-347],[-255,-97],[-381,319],[-240,320],[-424,-250],[-312,-486],[-155,-111],[-198,14],[-240,250],[85,750],[-56,597],[-212,98],[-156,-153],[-71,-569],[-84,-153],[-608,-180],[-241,42],[-833,542],[-198,-28],[-99,-125],[353,-361],[42,-264],[-184,-56],[-593,112],[-438,264],[-184,-83],[-113,-236],[84,-361],[-70,-320],[-1061,-277],[-84,111],[311,1014],[-99,208],[-169,84],[-227,-70],[-155,-194],[14,-583],[-99,-125],[-113,-14],[-354,347],[-98,1084],[-155,208],[-198,28],[-99,-97],[-43,-722],[-198,-70],[-485,83],[-344,-121],[-575,-43],[-362,-139],[-557,-407],[-326,417],[-274,156],[-636,200],[-318,-9],[26,-130],[636,-573],[-150,-121],[-274,0],[-291,217],[-972,278],[-477,287],[-274,330],[45,112],[176,78],[1211,-226],[362,0],[-150,582],[336,355],[79,261],[-35,633],[221,226],[690,329],[141,243],[-17,217],[-256,235],[-266,-35],[-503,165],[-115,131],[-256,711],[-132,113],[-159,35],[-893,-694],[-256,113],[-229,356],[-106,18],[-142,-18],[-601,-494],[-291,-43],[-239,104],[-167,547],[274,651],[-53,112],[-212,70],[-742,0],[-283,-69],[-760,-390],[-168,43],[-326,443],[-221,139],[-1325,44],[-451,269],[-750,912],[-53,217],[247,347],[725,286],[-1051,1450],[-132,52],[-142,-104],[-194,-434],[-257,-199],[-1069,9],[-291,-408],[-257,-34],[-415,451],[-742,-34],[-786,382],[-265,243],[-185,313],[-115,199],[-97,495],[-132,113],[-707,217],[-857,669],[-459,113],[-380,-104],[-124,139],[-17,399],[-221,408],[-173,674],[-401,142],[-698,35],[-309,-260],[-133,0],[-132,87],[-468,694],[-442,191],[-871,-545]],[[3205308,3149576],[-304,43],[-698,442],[-1228,478],[-132,96],[-195,416],[-397,417],[-822,131],[-910,486],[-1060,-130],[-353,70],[-2438,2136],[-972,694],[-459,-60],[-327,43],[-203,243],[-53,191],[-177,122],[-88,17],[-116,-125],[18,-942],[-265,139],[-380,61],[-539,-26],[-371,-122],[-486,9],[-106,52],[27,252],[186,417],[-45,217],[-600,642],[-557,330],[-746,65],[-571,278],[-130,-94],[-73,-222],[-198,-84],[-328,261],[-147,6],[-475,-483],[-837,-222],[-1030,-22],[-491,456],[-679,100],[-181,94],[-254,1178],[-130,5],[-453,-355],[-401,-200],[-294,6],[-125,139],[12,294],[96,200],[571,750],[-214,211],[-316,136],[-15796,34470],[-230,199],[-603,4],[-558,167],[-373,-156],[-259,-256],[-323,-10],[-161,237],[-27,229],[-203,251],[-145,458],[-53,569],[-344,231],[-70,160],[179,401],[-54,291],[-324,217],[-571,80],[-226,106],[-41,173],[291,220],[37,208],[-190,112],[-438,-39],[-119,167],[450,809],[960,22],[247,-113],[154,-223],[253,-43],[337,554],[320,328],[9,104],[-280,339],[-589,368],[28,173],[354,275],[-279,427],[-7,269],[-96,200],[-439,323],[-337,-145],[-140,70],[-460,623],[-23,486],[-263,643],[-1,996],[-89,90],[-444,47],[-117,99],[24,183],[279,282],[63,307],[304,364],[27,171],[-112,254],[-254,190],[-145,304],[-217,93],[-512,-103],[-300,-432],[-993,304],[-496,599],[-101,504],[-337,412],[40,191],[234,336],[4,199],[-261,328],[-79,774],[-300,441],[191,358],[-212,289],[157,301],[-70,258],[58,308],[-1107,1368],[-440,227],[-184,-76],[-138,-219],[-132,-22],[-82,524],[-248,53],[-189,-181],[-131,-9],[-212,608],[-578,170],[-514,-111],[-86,-371],[-139,-132],[-122,25],[-47,245],[-109,51],[-474,-316],[-129,-279],[-334,202],[-61,-283],[77,-243],[-134,-152],[-342,-1],[-227,232],[-292,-212],[-78,102],[45,379],[-142,149],[-258,60],[-482,-203],[-583,446],[-114,343],[-387,422],[33,276],[146,175],[-37,126],[-455,-20],[-316,139],[-648,-228],[-155,-203],[-208,-70],[-152,106],[-43,280],[-459,28],[-298,-211],[-83,-293],[-278,0],[-59,-200],[-269,-179],[-1171,612],[-665,16],[-341,310],[-715,129],[-222,245],[-48,325],[-469,370],[-225,20],[-366,-128],[-291,28],[-953,754],[-830,172],[-121,213],[140,568],[-91,163],[-163,87],[-848,-2],[-353,-108],[-1182,-1365],[-402,-318],[-1020,-407],[-808,-52],[-565,-169],[-321,203],[-233,389],[-473,279],[-395,369],[-171,257],[-61,443],[-123,245],[-812,781],[-1047,202],[-515,442],[-629,-229],[-637,796],[-705,392],[-473,126],[-668,-176],[-714,315],[-596,37],[-281,-104],[-247,-397],[-164,-90],[-645,386],[-362,7],[-399,169],[-435,-68],[-371,97],[-77,99],[98,362],[-56,264],[-500,-141],[-240,296],[-140,58],[-369,-22],[-439,-168],[-712,243],[-777,30],[-411,350],[-446,188],[-379,-3],[-323,-99],[-667,-576],[-475,60],[-364,-102],[-117,-103],[-8,-267],[-667,-286],[-475,123],[-882,492],[-301,49],[-419,-54],[-152,-187],[48,-737],[-190,-210],[-171,-66],[-239,44],[-3,656],[-102,222],[-814,285],[-1164,-33],[-650,333],[-423,-82],[-512,19],[-522,-155],[-623,115],[-411,-13],[35150,33148]],[[3205308,3149576],[5016,-27332],[-462,83],[-700,-121],[-141,170],[-39,198],[138,63],[325,-94],[134,80],[-21,86],[-311,351],[-360,42],[-508,-226],[3,-358],[-697,-320],[-141,-223],[-20,-383],[-85,-36],[-359,11],[-260,97],[-74,417],[-118,103],[-840,167],[-356,-39],[-438,244],[-353,-116],[-156,44],[-186,134],[-449,672],[-201,108],[-280,6],[-192,1111],[-687,-55],[-76,105],[71,345],[-54,208],[-243,122],[-407,56],[-172,158],[85,417],[302,-331],[252,-64],[141,75],[42,170],[-322,736],[255,672],[-232,344],[-186,-19],[53,-330],[-53,-317],[-85,-169],[-77,-6],[-378,595],[-803,361],[-144,330],[6,198],[-376,264],[-362,558],[48,211],[263,114],[-56,253],[-189,175],[-37,150],[-150,-109],[59,-197],[-51,-55],[-243,194],[-104,-11],[65,-314],[-122,-177],[-124,5],[-176,181],[-155,41],[-450,-130],[-11,-117],[173,-141],[-105,-225],[-272,-28],[-520,170],[-175,-103],[-31,-172],[274,-442],[-96,-211],[-396,183],[-45,-255],[-161,67],[-309,-23],[-466,445],[-371,177],[-258,28],[-506,-83],[-226,-142],[39,-98],[170,-48],[201,-403],[-85,-181],[-300,21],[-311,-322],[-530,28],[-230,-101],[-219,7],[-156,56],[-53,159],[-99,25],[-24,-216],[-71,-41],[-329,278],[-279,97],[-296,-11],[-15,-104],[212,-128],[-3,-122],[-184,-97],[-131,153],[-120,7],[-163,-455],[343,31],[279,146],[131,-66],[-81,-260],[-265,-285],[-138,-45],[-392,233],[-375,427],[-17,267],[360,615],[-39,86],[-272,-118],[-166,174],[-166,52],[-654,-260],[-166,247],[-229,142],[-216,31],[-353,-104],[-933,361],[-106,70],[-26,243],[387,181],[0,79],[-742,259],[271,121],[77,112],[195,362],[-72,117],[-390,117],[-187,-108],[-199,-5],[-234,-191],[-220,-42],[-255,71],[-288,175],[-4,179],[-318,155],[-170,383],[-644,221],[-153,350],[-134,116],[-567,-68],[-9,-128],[214,-288],[-167,-187],[-214,5],[-60,87],[74,150],[-237,87],[-218,265],[-51,319],[-107,96],[-316,-60],[-46,-82],[88,-241],[-228,-69],[-292,137],[79,274],[-149,64],[-176,-233],[-228,-32],[102,-338],[-97,-109],[-233,-18],[-585,374],[-195,45],[-413,-264],[-348,68],[-107,-269],[-209,-155],[-154,4],[-46,260],[-158,14],[-84,-180],[-236,-18],[-421,-329],[-594,91],[-359,183],[-192,213],[-292,-57],[-136,-180],[-4,-312],[-213,-90],[-73,-117],[113,-227],[215,-156],[-51,-233],[-289,-128],[-209,33],[108,423],[-322,172],[-57,-106],[113,-316],[-62,-167],[-79,-28],[-407,239],[-91,-478],[-334,-111],[-220,-177],[-51,-428],[582,-589],[-90,-105],[-334,261],[-130,-45],[130,-750],[-345,-250],[-147,45],[-102,534],[-141,144],[-85,-23],[-51,-77],[97,-206],[-51,-200],[-521,111],[80,-516],[-119,-234],[-192,-127],[-125,100],[-152,494],[-294,-100],[-413,200],[-300,-61],[-113,-294],[-113,-84],[-803,123],[-56,-395],[-85,-55],[-345,39],[107,583],[-163,106],[-238,-11],[-452,-650],[-266,33],[-11,583],[-255,173],[-124,-84],[124,-216],[-51,-84],[-559,111],[-351,-272],[-192,23],[57,461],[-424,772],[-221,116],[-232,-449],[-135,-62],[-57,145],[108,255],[-289,-66],[-85,194],[-271,178],[-23,283],[-146,150],[-679,-211],[-475,-611],[-294,67],[11,356],[131,405],[-74,89],[-317,-67],[-429,-400],[-413,-166],[-232,105],[-56,289],[-356,511],[169,239],[-164,439],[-209,83],[-328,-133],[-271,356],[-136,-11],[6,-178],[-617,5],[-316,128],[-119,283],[-113,50],[-429,-388],[242,-267],[114,-261],[-509,-961],[-113,11],[11,161],[-130,117],[-379,-17],[-322,-150],[22,-227],[419,-512],[39,-166],[-79,-367],[-181,34],[-169,488],[-272,-161],[-537,117],[-68,-111],[28,-178],[453,-250],[34,-139],[-374,-683],[215,-250],[-107,-139],[-385,95],[-299,227],[-113,-255],[-232,172],[-62,-267],[-147,12],[-181,155],[-368,-50],[12,250],[-277,78],[-85,-33],[-45,-161],[-345,-62],[-57,234],[-203,-22],[17,188],[-831,356],[-147,-200],[-351,233],[-407,-5],[-424,-250],[-548,-56],[-323,-161],[-367,211],[-176,-261],[-740,200],[-198,189],[28,395],[-135,200],[-283,-100],[-130,200],[-153,27],[-113,-244],[-249,0],[-181,-100],[-124,78],[34,250],[260,205],[17,183],[-413,423],[119,411],[-141,277],[-209,-38],[-46,-295],[-305,61],[-51,-583],[-226,-167],[-452,245],[311,161],[-102,278],[-187,5],[-158,-261],[-164,33],[-113,217],[187,322],[-283,89],[-192,245],[-102,22],[-226,-722],[-12,-378],[-203,-178],[-513,207],[-269,-153],[-243,59],[-152,56],[-177,215],[-597,56],[-491,-104],[-414,131],[-194,188],[-399,191],[-499,-42],[-607,320],[-336,31],[-209,-111],[-180,-400],[-547,-795],[-255,-27],[-424,156],[-311,10],[-300,233],[-195,316],[-49,607],[-134,334],[-537,211],[14,424],[-159,87],[-403,-205],[-580,-94],[-388,63],[-297,170],[-414,-39],[-675,-558],[-611,-278],[-198,-216],[-661,-189],[-277,-228],[-283,-6],[-209,123],[-91,283],[-316,261],[-368,44],[-650,-189],[-616,6],[-554,-222],[-673,-550],[-413,-228],[-384,-106],[-283,139],[-141,-22],[-718,-817],[-271,67],[-300,222],[-418,-6],[-391,273],[-186,-84],[-181,111],[-232,-22],[-271,-217],[-277,367],[-255,-411],[-192,-39],[-68,533],[-96,84],[-147,-73],[-226,111],[-650,767],[-374,233],[-554,11],[-452,200],[-73,-361],[-244,200],[-282,-72],[-294,133],[-85,-17],[-6,-205],[-79,-78],[-316,55],[-181,-150],[-164,184],[-232,27],[-328,178],[-170,200],[-294,-272],[-237,205],[-108,-83],[-180,17],[-198,238],[-385,-289],[-390,350],[-390,-5],[-452,122],[-198,-111],[-136,94],[-90,-50],[28,-122],[-441,16],[-198,-194],[17,-183],[-260,11],[-102,-328],[210,-267],[-57,-377],[45,-322],[-107,-106],[-249,-22],[-198,-123],[-158,117],[0,-189],[-136,95],[-79,-62],[62,-255],[-163,-33],[-130,-212],[-198,-77],[51,-228],[-238,-172],[-62,-206],[23,-378],[-328,-583],[-130,-72],[-187,166],[-271,-127],[-62,100],[147,272],[-34,55],[-515,122],[-288,267],[39,411],[-265,450],[-266,50],[-204,-111],[-203,200],[-300,-256],[-158,-11],[-238,344],[-215,61],[-254,434],[-130,-67],[-74,-267],[-196,155],[-265,-78],[-309,147],[-186,703],[-371,399],[-265,52],[-168,287],[-265,190],[-292,-43],[-44,-208],[424,-142],[45,-128],[-187,-78],[317,-127],[124,-173],[-582,-289],[-17,-305],[-271,161],[-277,-383],[-447,-212],[-362,406],[-186,55],[-226,200],[-453,-11],[-102,244],[-248,-139],[-368,-522],[-192,-28],[-283,106],[-135,-334],[-175,-11],[-34,378],[-159,378],[62,72],[294,28],[356,372],[-90,306],[102,238],[-159,250],[-237,145],[-209,-489],[-91,22],[-107,222],[-204,-83],[-164,144],[-152,-211],[-125,17],[-271,488],[-323,6],[-152,-333],[0,-84],[130,-83],[-288,-272],[0,-95],[305,-266],[-11,-67],[-170,17],[-339,227],[-181,-133],[-153,-6],[-68,345],[187,361],[-181,278],[113,283],[-147,33],[-226,-150],[-441,217],[-79,177],[-40,289],[79,150],[356,-83],[108,106],[-249,766],[-204,-17],[17,150],[-102,67],[-209,-128],[-441,94],[-204,-39],[272,-477],[-147,-122],[-17,-261],[-158,11],[-158,-139],[-317,272],[-266,-89],[-175,155],[-260,-166],[-40,116],[68,95],[-62,33],[-362,-95],[-96,73],[-260,-28],[-34,222],[169,139],[-130,489],[-192,38],[-243,-177],[34,322],[-238,72],[-79,128],[113,105],[294,-44],[-187,294],[34,128],[628,206],[-317,361],[-350,-256],[-266,-72],[-187,89],[108,222],[-97,111],[-689,-145],[-12,156],[339,533],[85,350],[-68,78],[-147,-28],[-118,-222],[-232,105],[-119,-494],[-107,-122],[-300,-89],[-102,183],[-28,483],[96,256],[203,189],[-11,211],[-198,89],[-282,-423],[-97,6],[-45,89],[79,244],[-102,167],[-5,333],[-119,50],[-113,-300],[-90,-6],[-153,528],[-204,172],[-164,17],[-656,-373],[-158,-166],[-283,272],[-215,5],[-243,-178],[-327,-327],[-158,-989],[-68,-156],[-187,-83],[-328,222],[-181,839],[-548,233],[-278,605],[-79,-28],[-45,-205],[-136,-39],[-17,205],[-288,28],[-85,250],[-226,22],[-40,-172],[80,-100],[-57,-72],[-317,-89],[-209,-239],[-271,5],[395,478],[-28,83],[-463,-33],[-57,72],[226,245],[-6,155],[-305,-72],[-198,39],[-11,600],[-334,394],[-311,122],[-413,-6],[-90,-150],[17,-272],[226,-28],[62,-283],[-446,-311],[-311,72],[-464,350],[-1137,294],[-655,5],[-204,-122],[-424,-45],[-305,-228],[-283,106],[-294,5],[-187,167],[-220,-223],[-158,22],[-594,283],[-283,6],[-68,433],[-475,211],[-294,517],[-147,61],[-424,-45],[-543,405],[-611,-72],[-158,66],[-102,250],[-238,95],[-209,277],[-611,-17],[-214,222],[-63,-22],[40,-205],[-582,22],[-356,-206],[-504,-56],[-96,-172],[-17,-322],[-146,-245],[356,-250],[45,-111],[-85,-61],[-237,22],[-45,-89],[351,-505],[-40,-100],[-599,-239],[-153,-422],[40,-111],[317,150],[271,-339],[147,-828],[-50,-327],[-503,-517],[-221,-23],[-299,145],[175,378],[-46,116],[-147,72],[-836,-28],[-554,-111],[-526,-417],[-175,83],[-413,-50],[-458,155],[-792,-328],[-823,366],[28,222],[-176,55],[-135,417],[-142,67],[-446,-101],[-272,-250],[-232,106],[-118,-117],[-45,-239],[-298,-212],[-392,-144],[74,-522],[-260,-95],[0,-249]],[[3071468,3134090],[-34013,30756]],[[3037455,3164846],[-2910,2619],[-106,-30],[77,-187],[-47,-67],[-211,85],[-271,-92],[-27,-82],[-212,76],[8,97],[389,116],[284,196],[-61031,55073]],[[2973398,3222650],[-6698,47193]],[[3254109,3032919],[19174,76647]],[[3037455,3164846],[-316,11],[-233,-375],[-700,-43],[-297,-250],[-339,-146],[-1400,374],[-403,-104],[-594,145],[-190,-188],[-64,-271],[128,-562],[424,-291],[0,-167],[-148,-125],[-212,-83],[-233,104],[-361,353],[-339,125],[-255,0],[-382,-125],[-338,-563],[-170,-125],[-403,20],[-361,368],[-509,902],[-312,375],[-353,194],[-1344,430],[-1102,-99],[-438,-139],[-1131,-556],[-650,166],[-665,610],[-340,736],[-312,333],[-85,292],[141,708],[-29,319],[-127,111],[-367,-42],[-311,-305],[-297,-598],[-310,-389],[-255,-56],[-339,167],[-128,250],[-42,486],[-171,513],[-155,222],[-283,111],[-212,-28],[-579,-625],[114,-1430],[-169,-584],[-593,-348],[-919,-139],[-495,-348],[-296,-458],[-254,-945],[-183,-264],[-452,-334],[-495,-42],[-269,-167],[-338,-514],[-42,-444],[141,-250],[170,-166],[820,-361],[340,-402],[71,-208],[-14,-723],[-494,-472],[-636,-140],[-255,84],[-721,540],[-298,597],[-142,972],[-226,542],[-411,569],[-438,180],[-354,-1],[-339,-222],[-28,-514],[355,-1277],[-14,-625],[-127,-264],[-268,-181],[-707,13],[-311,153],[-170,180],[-297,430],[-411,1236],[-510,555],[-579,-42],[-509,-306],[-112,-681],[-353,-778],[-70,-1152],[-141,-417],[-225,-347],[-198,-1],[-382,222],[-184,305],[-171,764],[-339,361],[-510,291],[-721,-1],[-423,-403],[-932,-1320],[-212,-42],[-749,27],[-1358,735],[-1329,304],[-311,-181],[-240,-278],[-325,-486],[-211,-528],[-366,-1889],[72,-1361],[-183,-389],[-509,-125],[-580,82],[-466,319],[-1261,2165],[-128,542],[56,500],[-198,361],[-439,527],[-353,263],[-283,70],[-706,-473],[-141,-848],[129,-1652],[-70,-264],[-156,-167],[-197,-69],[-750,235],[-608,346],[-820,194],[-510,361],[-736,735],[-750,1304],[-368,319],[-608,236],[-659,432],[-480,-1],[-184,-153],[-169,-208],[-254,-577],[-35,-305],[234,-861],[-20,-910],[-105,-416],[-283,-306],[-233,-119],[-396,0],[-318,118],[-418,464],[-248,597],[-269,1111],[225,875],[-15,368],[-177,236],[-629,145],[-360,-49],[-877,-300],[-275,56],[-432,242],[-481,111],[-530,34],[-516,-160],[-416,-251],[-480,-681],[-127,-486],[22,-541],[-261,-570],[-212,-230],[-388,-215],[-650,-36],[-672,298],[-290,222],[-368,458],[-36,618],[309,1354],[42,507],[-255,472],[-149,104],[-417,194],[-254,-21],[-431,-140],[-375,-361],[-267,-577],[-120,-715],[-275,-667],[-429,-576],[-574,-71],[-459,69],[-219,277],[-36,459],[-609,464],[-375,423],[-1047,429],[-353,389],[-497,1249],[-35,229],[126,500],[-57,389],[-184,257],[-276,194],[-601,159],[-254,-35],[-579,-480],[-283,-56],[-156,139],[-616,915],[-92,465],[34,605],[-416,443],[-339,233],[-255,50],[-374,416],[-187,633],[-18,617],[-153,216],[-883,766],[-102,216],[-305,100],[-645,-318],[-203,0],[-204,166],[0,284],[-681,1282],[-288,149],[-373,-33],[-714,399],[-712,-268],[-441,83],[-153,300],[16,533],[441,217],[169,217],[-441,216],[-558,15],[-608,152],[-728,-237],[-647,113],[-85,83],[-11,355],[-117,249],[-191,167],[-128,364],[-191,156],[-1124,259],[-160,281],[-148,52],[-297,-1],[-254,-187],[-382,-105],[-711,72],[-647,197],[-678,-428],[-1727,137],[-822,224],[-954,-235],[-621,-363],[-866,-183],[-1494,206],[-336,138],[-662,-79],[-689,-452],[-1139,-106],[-97,-113],[-645,-235],[-600,-487],[-301,-148],[-936,25],[-858,268],[-742,86],[-592,-53],[-397,-148],[-637,33],[-1483,-323],[-389,138],[-813,8],[-186,-26],[-353,-235],[-592,16],[-777,-174],[-256,-261],[-265,-105],[-300,9],[-805,458],[-725,-88],[-1087,112],[-362,190],[-345,-44],[-450,-70],[-697,-444],[-734,-114],[-203,-130],[-1236,-306],[-468,-304],[-601,-114],[-2739,-21],[-1334,93],[-388,-400],[-583,-400],[-759,-288],[-504,43],[-847,-314],[-910,-496],[-1201,76],[-1007,-444],[-574,51],[-1106,-167],[-1125,206],[-1067,13],[-615,-182],[-480,-341],[-289,-375],[-56,-230],[-459,-285],[-296,-480],[-897,-411],[-346,-438],[-125,-888],[-304,-411],[250,-1409],[-27,-881],[186,-785],[-85,-229],[-825,-1036],[15,-389],[-388,-417],[-331,-708],[-325,-91],[-353,-216],[-261,-625],[-169,-126],[-1151,-474],[-275,-451],[-247,-237],[-318,-35],[-290,242],[-410,14],[-487,-411],[-594,-216],[-133,-458],[-586,-501],[-1109,-204],[-388,-451],[-629,-258],[-544,179],[-501,-389],[-410,-8],[-226,-243],[-62,-806],[71,-326],[-91,-174],[-269,-229],[-296,-431],[-621,-203],[-120,-104],[-148,-417],[-684,-570],[79,-653],[262,-430],[-49,-174],[-508,-584],[-7,-118],[234,-534],[-104,-778],[113,-499],[199,-437],[-316,-910],[439,-437],[-21,-326],[-176,-341],[-579,-397],[-890,-404],[-204,-181],[-869,-355],[-530,68],[-968,-203],[-445,187],[-742,-119],[-170,-112],[-132,-1083],[-367,-216],[-77,-611],[-565,-77],[-960,-627],[-289,-271],[-120,-174],[-6,-229],[114,-1028],[-259,-833],[-191,-341],[-69,-965],[-77,-104],[-283,-63],[-162,-125],[-317,-376],[-431,-1],[-212,-76],[-105,-431],[-113,-132],[-537,-91],[-85,-160],[213,-319],[-459,-202],[-42,-327],[-127,-173],[45,-1361],[-182,-847],[50,-368],[198,-139],[474,-55],[85,-229],[-169,-541],[-162,-153],[-537,26],[-579,-146],[-177,-56],[-261,-258],[-247,264],[-432,228],[-241,277],[-184,451],[-480,-132],[-439,290],[-283,-7],[-183,-188],[-1419,-516],[-1059,-530],[-360,-646],[-380,-341],[-77,-465],[-374,-688],[-380,-376],[-340,7],[-933,213],[-289,-112],[-721,-1],[-678,-154],[-946,-474],[-979,-961],[-979,-661],[-360,30],[-815,-181],[-1609,-620],[-207,-253],[-262,29],[-310,-661],[-138,-93],[-1378,-352],[-183,-160],[-89,82],[-642,-122],[-351,-123],[-182,-178],[-192,47],[-452,-172],[-263,-219],[-967,-136],[-458,-660],[-634,-78],[-755,-351],[-1282,52],[-574,-405],[-1116,237],[-1881,1050],[-1027,294],[-855,588],[-727,672],[-2266,462],[-2908,252],[-1111,-252],[-1091,-412],[-577,-1604],[-385,-714],[-641,-294],[-770,-210],[-1069,252],[-1885,1543]],[[2846424,3185468],[457,-58],[34979,5611],[65266,13175],[26272,18454]],[[3104816,3054564],[-118,-13],[-78,-145],[-291,114],[-180,-81],[-38,-263],[121,-616],[-136,-239],[-398,-5],[68,330],[-49,110],[-379,143],[-91,208],[-72,3],[-202,-358],[383,-314],[-268,-148],[-497,-581],[-307,84],[-79,193],[142,153],[377,124],[47,325],[-170,175],[-353,81],[-465,341],[-10,-148],[238,-215],[-74,-172],[-832,123],[-87,-61],[25,-269],[-61,-108],[-883,83],[-369,-546],[-156,-102],[-232,81],[-279,777],[-247,59],[-374,-129],[-249,-372],[-541,137],[-195,-62],[1,-99],[382,-352],[-57,-145],[-703,209],[-276,-80],[-63,-173],[-101,-10],[-498,225],[-415,84],[-143,-60],[-11,-113],[162,-481],[-810,164],[-437,-175],[145,355],[-192,443],[142,398],[-79,398],[-104,43],[-180,-449],[-299,-75],[-30,339],[-746,228],[-6,414],[301,-202],[158,54],[-71,468],[156,314],[-52,78],[-306,84],[-408,-280],[-399,24],[-358,-121],[-41,59],[109,271],[-172,70],[-386,-207],[126,-349],[-54,-172],[-74,-6],[-323,438],[-156,-32],[-271,-218],[-213,121],[3,105],[150,145],[514,223],[-293,627],[-115,102],[-388,166],[-320,248],[36,-484],[-123,-156],[-337,-197],[-243,234],[-85,285],[27,274],[336,310],[9,142],[-195,156],[-328,-16],[2943,58638],[-20828,18545]]]}
