{"type":"Topology","bbox":[-77.18680672654735,-0.5622787037211632,-73.84131876861015,1.4673162403590716],"transform":{"scale":[0.000003385120954067422,0.0000034456095261769775],"translate":[-81.73562055563167,-4.229406466336059]},"objects":{"MGN_ADM_MPIO_GRAFICO":{"type":"GeometryCollection","geometries":[{"type":"Polygon","arcs":[[-6,24,25,26,27,28,-8,-7]],"bbox":[-76.92165358733621,0.8685278800714578,-76.41003317658036,1.4673162403590716],"properties":{"dpto_ccdgo":"86","mpio_ccdgo":"001","mpio_cdpmp":"86001","dpto_cnmbr":"PUTUMAYO","mpio_cnmbr":"MOCOA"}},{"type":"Polygon","arcs":[[29,30,-10]],"bbox":[-77.02095949564473,1.1573009688508238,-76.92657893832437,1.293002854429778],"properties":{"dpto_ccdgo":"86","mpio_ccdgo":"219","mpio_cdpmp":"86219","dpto_cnmbr":"PUTUMAYO","mpio_cnmbr":"COLÓN"}},{"type":"Polygon","arcs":[[31,32,-18,-17,-16,-15,-14,33,34]],"bbox":[-77.18680672654735,0.4203161016873036,-76.65193391995803,0.9423121624650115],"properties":{"dpto_ccdgo":"86","mpio_ccdgo":"320","mpio_cdpmp":"86320","dpto_cnmbr":"PUTUMAYO","mpio_cnmbr":"ORITO"}},{"type":"Polygon","arcs":[[35,21,36,37,-32,38,39]],"bbox":[-76.77140837891088,0.21906494048235903,-75.7721037476654,0.6615225509577973],"properties":{"dpto_ccdgo":"86","mpio_ccdgo":"568","mpio_cdpmp":"86568","dpto_cnmbr":"PUTUMAYO","mpio_cnmbr":"PUERTO ASÍS"}},{"type":"Polygon","arcs":[[40,-26,41,-39,-35]],"bbox":[-76.76607004316631,0.6041634891755292,-76.2312175473027,0.868545108119088],"properties":{"dpto_ccdgo":"86","mpio_ccdgo":"569","mpio_cdpmp":"86569","dpto_cnmbr":"PUTUMAYO","mpio_cnmbr":"PUERTO CAICEDO"}},{"type":"Polygon","arcs":[[-3,-2,42,-40,-42,-25,-5,-4]],"bbox":[-76.51578097006447,0.4397562306339946,-75.26560163979211,1.0726526796212337],"properties":{"dpto_ccdgo":"86","mpio_ccdgo":"571","mpio_cdpmp":"86571","dpto_cnmbr":"PUTUMAYO","mpio_cnmbr":"PUERTO GUZMÁN"}},{"type":"Polygon","arcs":[[19,20,-36,-43,-1]],"bbox":[-76.14434518825847,-0.5622787037211632,-73.84131876861015,0.7256384530208981],"properties":{"dpto_ccdgo":"86","mpio_ccdgo":"573","mpio_cdpmp":"86573","dpto_cnmbr":"PUTUMAYO","mpio_cnmbr":"PUERTO LEGUÍZAMO"}},{"type":"Polygon","arcs":[[43,-30,-9,-29]],"bbox":[-76.96566692998098,1.1544548953822016,-76.87077183427562,1.3209433020775467],"properties":{"dpto_ccdgo":"86","mpio_ccdgo":"749","mpio_cdpmp":"86749","dpto_cnmbr":"PUTUMAYO","mpio_cnmbr":"SIBUNDOY"}},{"type":"Polygon","arcs":[[44,45,-44,-28]],"bbox":[-76.98741294698992,1.0053874904512075,-76.73004220085217,1.289860458541905],"properties":{"dpto_ccdgo":"86","mpio_ccdgo":"755","mpio_cdpmp":"86755","dpto_cnmbr":"PUTUMAYO","mpio_cnmbr":"SAN FRANCISCO"}},{"type":"Polygon","arcs":[[-37,22,46]],"bbox":[-77.04902214835394,0.23912527914376103,-76.64118616092885,0.3835652304810999],"properties":{"dpto_ccdgo":"86","mpio_ccdgo":"757","mpio_cdpmp":"86757","dpto_cnmbr":"PUTUMAYO","mpio_cnmbr":"SAN MIGUEL"}},{"type":"Polygon","arcs":[[-31,-46,47,-12,-11]],"bbox":[-77.1014542868115,0.9789148724615897,-76.8535788049499,1.2016563002813],"properties":{"dpto_ccdgo":"86","mpio_ccdgo":"760","mpio_cdpmp":"86760","dpto_cnmbr":"PUTUMAYO","mpio_cnmbr":"SANTIAGO"}},{"type":"Polygon","arcs":[[-38,-47,23,-19,-33]],"bbox":[-77.11292984684579,0.28492432096570575,-76.65658507614891,0.5583127632106919],"properties":{"dpto_ccdgo":"86","mpio_ccdgo":"865","mpio_cdpmp":"86865","dpto_cnmbr":"PUTUMAYO","mpio_cnmbr":"VALLE DEL GUAMUEZ"}},{"type":"Polygon","arcs":[[-13,-48,-45,-27,-41,-34]],"bbox":[-77.07874351033065,0.7693425642509268,-76.46516664155926,1.0755332091851182],"properties":{"dpto_ccdgo":"86","mpio_ccdgo":"885","mpio_cdpmp":"86885","dpto_cnmbr":"PUTUMAYO","mpio_cnmbr":"VILLAGARZÓN"}}]}},"arcs":[[[2332059,1111974],[-1685,1179],[-3354,2832],[-1314,973],[-1084,660],[-2693,1365],[-1150,852],[-714,334],[-932,228],[-1266,155],[-954,30],[-1751,-111],[-1257,185],[-1533,437],[-2685,994],[-2779,691],[-2406,830],[-3209,927],[-3730,822],[-2206,315],[-2955,637],[-6590,1144],[-1209,379],[-1556,799],[-2023,1262],[-698,633],[-1303,2354],[-267,1227],[-170,444],[-679,871],[-3143,2144],[-925,1085],[-330,880],[-408,2009],[8,787],[280,1709],[-73,1582],[-340,868],[-875,1135],[-476,423],[-555,303],[-778,185],[-642,2],[-600,-186],[-1014,-474],[-1267,-664],[-348,-320],[-602,-211],[-1258,-675],[-476,-39],[-767,-206],[-1352,66],[-937,441],[-668,507],[-2452,4278],[-469,1234],[-2541,3528],[-891,1609],[-1115,1455],[-669,375],[-1493,551],[-1784,265],[-1872,-44],[-1694,-331],[-2452,-1279],[-892,-837],[-691,-970],[-914,-1632],[-446,-1036],[-535,-970],[-535,-1279],[-468,-573],[-1137,-662],[-1070,-242],[-824,-88],[-2140,110],[-959,331],[-1538,705],[-1226,1169],[-89,1278],[134,1411],[-156,1654],[-246,1521],[0,904],[-356,2337],[-1137,3285],[-736,1147],[-958,617],[-1471,463],[-914,132],[-1895,-154],[-825,-529],[-379,-684],[-200,-859],[-156,-3043],[-223,-838],[-714,-1543],[-691,-551],[-735,-419],[-870,-110],[-891,66],[-825,286],[-1070,552],[-602,507],[-3076,1609],[-736,463],[-2251,1632],[-1516,1345],[-1337,1323],[-1940,1433],[-2095,683],[-557,397],[-357,573],[-156,926],[134,2161],[200,771],[-66,1103],[89,551],[446,1323],[780,838],[1627,1278],[2942,2051],[1226,1455],[290,573],[45,1433],[-491,1764],[-378,551],[-625,595],[-1292,331],[-1427,-22],[-959,-265],[-1894,-837],[-1338,-794],[-1984,-617],[-1203,176],[-937,419],[-758,595],[-646,728],[-1850,2359],[-1761,3153],[-602,419],[-958,837],[-580,640],[-1048,661],[-2318,1169],[-2051,749],[-674,167],[-1375,29],[-1049,-240],[-3411,-1190],[-2563,-353],[-3277,-176],[-1315,66],[-2006,-397],[-2858,-1058],[-1255,-811],[-1036,-1240],[-2868,-2123],[-3396,-1845],[-603,-229],[-595,-109],[-511,70],[-319,158],[-201,220],[-223,618],[134,1322],[334,728],[1694,1499],[1717,860],[1694,1698],[1003,749],[691,1124],[274,659],[83,775],[-112,1675],[-290,1036],[-980,1852],[-491,728],[-891,1058],[-1115,1058],[-1003,860],[-981,617],[-958,486],[-1561,352],[-891,-154],[-936,-573],[-848,-1279],[-490,-1411],[-156,-1676],[-112,-4740],[-111,-837],[-401,-1191],[-1070,-2227],[-714,-1036],[-1203,-2315],[-892,-1058],[-735,-617],[-1004,-485],[-735,-132],[-2073,88],[-1159,154],[-669,110],[-580,265],[-869,705],[-401,640],[-156,485],[-624,838],[-156,948],[22,1102],[67,838],[201,904],[379,948],[133,1102],[-133,992],[-803,1676],[-624,749],[-825,948],[-758,573],[-646,331],[-1471,287],[-736,-66],[-1203,-265],[-625,-705],[-601,-1147],[0,-2006],[356,-661],[1583,-1411],[512,-552],[691,-1477],[0,-1411],[-423,-705],[-758,-507],[-646,-221],[-625,88],[-691,265],[-1025,750],[-847,507],[-892,286],[-7645,1786],[-1404,243],[-1115,308],[-1092,485],[-914,574],[-3990,2734],[-1204,507],[-1738,551],[-2519,220],[-4302,1588],[-490,463],[-179,286],[90,463],[334,441],[735,441],[758,287],[1694,1014],[1137,1565],[245,772],[335,1896],[-23,837],[-136,865],[-91,123],[-1721,1857],[-1867,1208],[-702,368],[-3832,1566],[-622,70],[-628,-153],[-440,-201],[-377,-286],[-645,-902],[-701,-641],[-2508,-1834],[-1793,-2092],[-411,-234],[-779,-194],[-555,-3],[-292,131],[-490,620],[-583,551],[-147,266],[-164,939],[159,770],[316,554],[620,484],[1453,654],[1998,514],[1065,697],[546,571],[1139,2432],[266,903],[147,1726],[-30,1733],[-140,937],[-289,559],[-712,850],[-1303,1157],[-1205,1256],[-2402,2247],[-664,353],[-1427,1198],[-1887,1064],[-1362,1325],[-483,624],[-764,1385],[-566,543],[-832,1153],[-310,1059],[8,474],[73,315],[161,255],[256,200],[439,186],[1438,-24],[2495,-560],[1181,-54],[1716,345],[1110,613],[1427,1005],[1896,1152],[1141,1080],[346,712],[497,1660],[170,1724],[-46,628],[-269,566],[-589,529],[-845,441],[-893,335],[-1089,657],[-599,196],[-1118,44],[-948,-94],[-1703,-413],[-1330,-520],[-1093,-226],[-1672,88],[-458,116],[-1403,747],[-1752,1358],[-397,493],[-370,697],[-286,735],[-126,626],[178,434],[398,249],[631,122],[786,-156],[1559,-1341],[1297,-915],[1021,-441],[870,-115],[617,129],[1057,371],[578,262],[521,364],[308,99],[502,600],[899,1491],[353,878],[220,918],[179,1884],[54,1574],[-880,4321],[10,1417],[173,1722],[-174,2041],[-349,1373],[-294,1709],[-254,573],[-431,665],[-989,1023],[-1723,1442],[-753,855],[-432,334],[-641,347],[-634,225],[-1734,1478],[-641,971],[-563,1648],[-2546,2146],[-930,604],[-1181,475],[-819,136],[-3048,1270],[-5834,809],[-3343,74],[-318,-12],[-783,-352],[-227,-18],[-568,-447],[-540,-260],[-634,-103],[-1051,10],[-899,149],[-291,131],[-1273,72],[-556,299],[-2847,488],[-2705,936],[-1553,298],[-1410,-162],[-676,64],[-535,-46],[-813,-181],[-459,-217],[-580,-593],[-469,-91],[-1031,-26],[-1423,175],[-3752,1317],[-2352,1320],[-1122,883],[-1109,1658],[-435,352],[-866,494],[-2028,1999],[-1680,1196],[-2050,1274],[-1166,350],[-1147,65],[-1725,443],[-1749,108],[-953,-42],[-3791,-489],[-2502,-1119],[-470,-373],[-1234,-650],[-1390,-284],[-1751,-129],[-796,15],[-942,158],[-1361,441],[-1060,695],[-1163,1077],[-906,1292],[-1023,955],[-892,663],[-905,1097],[-981,803],[-545,324],[-2020,932],[-2292,635],[-352,533],[-1560,1798],[-118,602],[-48,1593],[102,770],[772,1019],[607,479],[2964,650],[1585,148],[753,263],[817,496],[549,571],[646,1264],[351,882],[22,952],[-153,440],[-390,693],[-812,967],[-1194,1046],[-1630,982],[-1782,1325],[-1166,1292],[-923,1281],[-749,1388],[-646,1777],[-273,2029],[57,1099],[-81,1259],[-1032,3141],[-85,1097],[311,1057],[722,844],[869,700],[1061,302],[3330,380],[1245,294],[851,402],[1063,973],[253,391],[169,609],[110,943],[-20,787],[-298,1223],[-671,1430],[-1174,1488],[-3024,2559],[-1004,1011],[-589,749],[-170,434],[-406,1690],[-1093,3124],[-417,1682],[-1700,3027],[-713,848],[-1338,1198],[-2453,1274],[-1080,0],[-763,-328],[-700,-500],[-866,-440],[-3898,-46],[-2015,-469],[-1383,-550],[-418,-94],[-1454,-12],[-1753,199],[-1144,-12],[-1180,-234],[-839,-363],[-1331,-410],[-985,-145],[-873,86],[-586,270],[-239,223],[-83,304],[35,469],[155,351],[1085,960],[1181,797],[644,855],[298,855],[417,2237],[24,914],[-239,1042],[-214,492],[-728,1054],[-322,270],[-631,257],[-1717,270],[-1502,0],[-1181,-270],[-1061,-527],[-1526,-937],[-1800,-2155],[-1121,-1042],[-858,-972],[-1574,-1465],[-870,-667],[-775,-469],[-1276,-585],[-715,-188],[-1653,-77],[-1103,416],[-1208,604],[-2098,687],[-1886,42],[-1453,-496],[-1895,-1265],[-799,-398],[-739,-24],[-954,94],[-1037,246],[-1288,516],[-1514,925],[-811,632],[-322,586],[-23,340],[250,738],[465,550],[525,305],[1120,339],[1419,59],[1407,363],[417,258],[417,503],[0,961],[-536,1347],[-680,949],[-644,609],[-1609,972],[-894,703],[-787,948],[-429,399],[-704,1511],[-1502,1487],[-858,1839],[-990,2483],[-226,1089],[-322,1066],[-263,574],[-441,1535],[-71,433],[12,1534],[512,1465],[501,913],[358,246],[2015,679],[1192,574],[1562,410],[608,387],[751,843],[894,1289],[83,855],[-131,948],[-238,516],[-966,808],[-220,274],[-93,494],[-437,1179],[-382,747],[-328,1775],[-378,888],[-657,2146],[-312,726],[-641,920],[-2415,2469],[-542,404],[-1035,581],[-2004,516],[-3137,1340],[-1314,662],[-740,258],[-969,161],[-1166,323],[-871,307],[-509,306],[-345,355],[-657,985],[-99,484],[0,1226],[83,420],[246,403],[411,388],[1232,920],[870,1016],[411,355],[509,727],[871,1743],[328,1210],[740,1372],[16,871],[-131,549],[-17,984],[-181,598],[-1363,2533],[-805,1098]],[[1911311,1438075],[-1164,571],[-272,50],[-2475,27],[-680,132],[-794,271],[-760,101],[-373,-19],[-343,-139],[-909,-179],[-726,-25],[-247,25],[-681,303],[-1070,800],[-156,2199],[-431,798],[-637,768],[-543,423],[-637,298],[-1372,-16],[-1562,-611],[-574,-63],[-495,47],[-478,220],[-638,595],[-1084,799],[-255,298],[-777,2669],[-1479,2073],[-309,238],[-403,66],[-524,-66],[-404,-146],[-484,-290],[-457,-436],[-806,-1175],[-551,-1123],[-1049,-1492],[-511,-476],[-726,-330],[-1102,40],[-1344,502],[-3025,713],[-1357,-40],[-457,-185],[-2245,-1545],[-1197,-1162],[-461,-610],[-1595,-1109],[-1757,-264],[-1541,0],[-609,106],[-1148,0],[-824,140],[-1452,652],[-1003,1021],[-986,617],[-645,193],[-879,88],[-645,194],[-2724,1180],[-2402,898],[-950,229],[-699,264],[-1416,722],[-502,493],[-304,651],[-18,1920],[-162,827],[-143,335],[-1219,1620],[-1442,896],[-445,109]],[[1846777,1454755],[-400,28],[-503,-92],[-634,-366],[-959,-1098],[-987,-1363],[-1295,-887],[-549,-641],[-579,-322],[-1180,403],[-1763,1293],[-2037,903],[-298,317],[-372,927],[-447,671],[-634,378],[-1179,183],[-1391,439],[-571,403],[-435,805],[-62,2196],[62,1049],[261,366],[186,549],[-37,1610],[-372,1769],[0,427],[397,781],[273,244],[199,317],[49,317],[-124,537],[-285,329],[-944,671],[-2049,1245],[-757,122],[-4481,-10],[-1217,89],[-2291,458],[-466,204],[-271,260],[-259,407],[-328,187],[-483,135],[-1001,51],[-949,-203],[-932,-373],[-2359,-184],[-1357,136],[-737,339],[-598,362],[-460,474],[-345,520],[-276,927],[-69,3233],[-115,610],[-299,633],[-1220,1786],[-460,474],[-460,339],[-1795,1018],[-1335,520],[-1012,271],[-1611,68],[-1403,-249],[-1220,-45],[-1196,-249],[-1657,-520],[-1265,-881],[-955,-904],[-997,-1106],[-1074,-903],[-1256,-725],[-828,-241],[-1152,-13],[-2226,203],[-1294,534],[-1217,318],[-3041,547],[-1139,0],[-906,-127],[-3508,-941],[-1708,-623],[-1178,-560],[-492,-330],[-3054,-3548],[-1321,-1068],[-440,-114],[-854,89],[-427,178],[-349,292],[-453,661],[-259,712],[0,331],[155,483],[362,560],[52,254],[-77,1183],[-1864,3229],[-596,560],[-711,394],[-169,242],[-194,864],[-194,369],[-544,420],[-1009,421],[-518,322],[-638,713],[-846,1152],[-776,628],[-1001,1797],[-501,644],[-845,492],[-346,51],[-1397,17],[-835,-131]],[[1750814,1487378],[-458,-123],[-733,-375],[-367,-235],[-350,-376],[-733,-1049],[-1148,-2098],[-286,-892],[-542,-595],[-861,-470],[-318,-78],[-1068,-15],[-367,93],[-1051,486],[-1915,392],[-1244,576],[-2648,1708],[-409,542],[-388,762],[-804,1717],[-825,2282],[-215,976],[-40,2098],[-161,1502],[-380,880],[-747,983],[-1091,632],[-1735,711],[-2103,316],[-1422,492],[-494,271],[-505,440],[-437,1332],[-149,215],[-632,293],[-563,508],[-242,497],[-390,1479],[-127,1445],[-264,1253],[11,1796],[-448,959],[-974,1175],[-1063,711],[-1266,466],[-1063,178],[-3370,22],[-1578,397],[-1378,68],[-724,237],[-346,205],[-363,576],[-58,707],[25,225],[318,450],[598,375],[482,163],[1817,328],[766,444],[462,492],[236,579],[232,1056],[-38,662],[-191,700],[-13,475],[89,375],[658,989],[1173,1248],[605,950],[291,618],[363,1224],[-13,809],[-193,534],[-919,1308],[-267,190],[-496,-60],[-1112,-796],[-1623,-498],[-954,-60],[-1573,71],[-871,309],[-1161,749],[-786,1045],[-3590,3844],[-1787,2433],[-735,749],[-1116,624],[-1624,1150],[-210,180],[-400,659],[-1201,256],[-1150,469],[-512,-42],[-653,-312],[-567,-511],[-254,-740],[63,-535],[705,-1152],[495,-430],[628,-467],[1655,-748],[476,-673],[229,-486],[228,-524],[19,-486],[0,-1028],[-400,-1552],[-609,-1758],[-418,-860],[-324,-467],[-362,-281],[-342,-112],[-552,94],[-761,317],[-381,300],[-266,392],[-252,1107],[-75,726],[21,841],[300,1146],[-43,978],[-203,852],[-279,589],[-406,432],[-332,189],[-332,105],[-600,21],[-1199,-347],[-578,-400],[-875,-982],[-839,-401],[-902,24],[-1746,406],[-1583,527],[-818,438],[-444,63],[-411,-138],[-347,-245],[-628,-893],[-595,-468],[-563,-170],[-628,10],[-1235,160],[-595,244],[-217,128],[-563,734],[-595,564],[-1170,596],[-346,85],[-2815,106],[-1003,106],[-2008,564]],[[1669267,1534404],[-887,171],[-996,-290],[-626,-685],[-134,-509],[127,-808],[336,-335],[2521,-594],[714,-512],[442,-733],[91,-395],[447,-964],[859,-1087],[152,-518],[-79,-1203],[-358,-754],[-1278,-1338],[-1107,-299],[-2277,-352],[-1679,375],[-481,380],[-557,793],[-596,285],[-254,-9],[-237,-144],[-254,-296],[-702,-1242],[-276,-230],[-645,-1261],[-265,-327],[-1237,-906],[-662,-305],[-1170,-469],[-649,-188],[-451,-29],[-1739,438],[-888,647],[-973,891],[-1190,666],[-883,741],[-292,1052],[-98,93],[-195,0],[-94,-96],[-464,-934],[-572,-11],[-647,355],[-3994,2971],[-1208,50],[-1209,-297],[-1950,-843],[-608,-65],[-348,-397],[-98,-773],[243,-712],[669,-762],[58,-565],[-341,-537],[-152,-111],[-1053,-322],[-1049,-575],[-612,0],[-285,154],[-380,400],[-829,1121],[-365,368],[-655,351],[-590,-64],[-419,-197],[-446,-654],[-97,-244],[-243,-1646],[-427,-862],[21,-608],[308,-637],[314,-222],[688,-61],[557,343],[818,1006],[550,500],[760,140],[384,-29],[361,-154],[348,-226],[546,-526],[282,-808],[61,-913],[-130,-436],[-485,-830],[-351,-276],[-1444,-697],[-1075,-1288],[-594,-1252],[-485,-347],[-304,-107],[-2106,-215],[-2217,62],[-1347,226],[-1519,4],[-413,121],[-495,473],[-507,222],[-680,-233],[-333,-293],[-243,-368],[-18,-297],[116,-527],[51,-167],[964,-1011],[420,-1324],[-32,-711],[-337,-287],[-375,-96],[-1009,-51],[-324,128],[-1022,806],[-349,365],[-957,1529],[-233,736],[-71,1222],[-220,167],[-498,-26],[-350,-236],[-893,-1536],[-395,-537],[-252,-154],[-1249,-300],[-703,-568],[-630,-126],[-530,221],[-458,338],[-182,347],[-101,466],[0,947],[-164,611],[-544,779],[-454,342],[-323,90],[-226,-23],[-437,-207],[-487,-471],[-409,-969],[-182,-1480],[-260,-459],[-845,-639],[-1032,-476],[-544,-404],[-726,-1037],[-419,-291],[-924,-252],[-425,79],[-170,134],[-91,213],[-1710,805],[-1419,297],[-336,-15],[-625,-284],[-713,-200],[-1362,-605],[-486,-11],[-416,-317],[-306,-461],[-239,-214],[-371,-130],[-424,-31],[-663,231],[-224,306],[-59,222],[149,627],[250,248],[475,280],[216,303],[62,211],[-31,578],[-348,539],[-806,472],[-261,253],[-160,516],[-17,711],[-253,725],[-210,327],[-612,34],[-164,-102],[-260,141],[-42,97],[-115,-3],[-77,-138],[-467,-336],[-346,-150],[-620,-1011],[-102,-38],[-237,83],[-378,355],[-525,811],[-430,203],[-1243,336],[-1172,57],[-942,-76],[-1442,362],[-743,298],[-576,38],[-474,-57],[-353,-152],[-891,-703],[-346,-418],[-275,-514],[-180,-158],[-512,-317],[-750,-234],[-903,-57],[-436,95],[-1281,812],[-763,203],[-788,342],[-782,127],[-442,-121],[-346,-259],[-308,-506],[-107,-845],[-230,-528],[-755,-765],[-317,-499],[-191,-13],[-72,-1100],[87,-377],[-80,-236],[-609,-389],[-349,-68],[-553,200],[-162,331],[-184,142],[-276,99],[-381,7],[-750,-267],[-523,-586],[-734,-58],[-772,261],[-621,642],[-1441,924],[-488,539],[-699,97],[-841,-111],[-460,170],[-433,16],[-162,83],[-188,311],[102,490],[-96,503],[-7,665],[-211,510],[36,329],[162,145],[85,264],[-35,250],[-116,122],[-361,142],[-1004,73],[-282,100],[-398,576],[-179,776],[-293,349],[-681,302],[-1574,1515],[-1473,1180],[-915,334],[-1335,13],[-865,240],[-764,411],[-989,667],[-381,429],[-240,512]],[[1550932,1519990],[-70,411],[-15,1429],[-164,607],[-388,760],[-818,759],[-548,701],[-90,236],[60,681],[-309,306],[-409,187],[-838,217],[-568,336],[-419,128],[-1496,-424],[-349,-19],[-539,-10],[-1316,257],[-1407,69],[-438,-207],[-689,20],[-349,148],[-468,424],[-808,542],[-698,297],[-549,0],[-1496,-188],[-630,399],[-1607,463],[-145,115],[-423,614],[-416,2704],[-483,1252],[-437,621],[-1060,938],[-453,830],[-64,436],[384,357],[90,273],[-42,573],[-254,613],[-883,596],[-1248,306],[-274,246],[-2,401],[598,885],[231,533],[146,1009],[-135,519],[-230,-6],[-563,-486],[-499,-240],[-421,-125],[-234,44]],[[1526700,1541527],[-196,245],[6,1844],[487,474],[732,231],[460,271],[290,493],[53,397],[-141,216],[-843,505],[-967,1264],[7,351],[270,361],[228,114],[432,18],[662,366],[689,40],[269,122],[138,289],[68,1064],[794,163],[556,-18],[180,82],[78,429],[-198,1484],[1085,687],[260,239],[112,253],[-56,429],[-361,890],[-33,803],[149,120],[734,157],[279,356],[-64,267],[-401,338],[-423,547],[-179,760],[-224,440],[-11,277],[344,1048],[85,1738],[461,887],[245,699],[1024,1015],[-12,285],[-292,1007],[30,200],[251,245],[111,239],[55,1336],[-230,935],[-204,427],[-6,341],[196,424],[534,487],[87,194],[6,640],[-99,398],[269,1025],[-21,314],[-219,341],[-2,205],[522,1234],[29,260],[-93,447],[202,321],[58,248],[-12,467],[-233,346],[-17,171],[251,482],[560,483],[156,632],[-50,331],[-565,1385],[-646,947],[-404,1025],[-171,206],[-183,122],[-1138,314],[-1786,1509],[-1033,414],[-717,645],[-637,208],[-312,400],[-129,395],[-640,616],[-62,531],[76,350],[660,1444],[14,386],[-208,292],[-1061,341],[-551,98],[-203,281],[-8,357],[-194,522],[-557,323],[-320,409],[-34,597],[557,1077],[101,348],[0,489],[-211,1076],[123,789],[-55,118],[-397,240],[-278,646],[-17,224],[295,870],[-51,1011],[-405,564],[-185,483],[-177,166],[-574,257],[-422,970],[-978,1375],[-211,431],[-380,258],[-168,555],[-118,141],[67,1309],[413,862],[1021,862],[489,804],[237,617],[953,879],[76,265],[8,1052],[160,290],[827,498],[194,505],[-8,460],[-296,323],[-717,456],[-953,323],[-219,191],[-211,605],[-953,348],[-354,360],[-186,683],[-43,764],[0,511],[86,231],[378,148],[592,-28],[485,70],[303,236],[203,331],[-7,295],[-78,105],[-735,378],[-86,126],[115,337],[485,392],[57,1570],[378,939],[85,526],[-50,462],[-328,582],[-456,1135],[-29,519],[1134,1366],[578,1052],[57,245],[-128,722],[-599,588],[-1513,778],[-877,141],[-464,161],[-1177,-288],[-295,10],[-345,196],[-78,373],[366,757],[-17,509],[-119,93],[-788,143],[-183,239],[-338,831],[-233,120],[-498,90],[-396,216],[-646,551],[-132,745],[136,279],[480,495],[47,206],[-30,193],[-348,599],[-599,531],[-1370,765],[-400,485],[-697,329],[-487,771],[-433,-10],[-1519,-402],[-1323,206],[-409,296],[-51,352],[88,685],[-57,263],[-129,139],[-663,240],[-1090,79],[-206,110],[-446,691],[-383,413],[-64,226],[78,375],[348,828],[54,528],[-50,246],[-285,303],[-943,219],[-261,186],[-186,343],[-61,628],[-355,585],[-379,372],[-805,140],[-102,295],[-13,413],[220,312],[-163,246],[-402,113],[-650,-73],[-650,595],[-612,296],[-494,20],[-582,-183],[-1157,379],[-193,179],[-291,941],[-216,399],[-318,285],[-542,276],[-818,220],[-1076,10],[-1120,-329],[-203,-127],[-227,-442],[-514,-488],[-57,-339],[-258,-449],[-504,-529],[-179,-36],[-443,90],[-206,-60],[-799,-602],[-545,-196],[-91,-306],[44,-345],[-91,-133],[-413,-333],[-413,-545],[-676,-209],[-244,-715],[-190,-223],[-77,-455],[-1036,116],[-795,-312],[-1008,-53],[-271,-246],[-602,-160],[-544,-335],[-735,-127],[-548,-272],[-720,-24],[-1516,-1592],[-342,-143],[-460,37],[-179,-56],[-457,-502],[-1235,-123],[-1065,99],[-389,-143],[-207,-369],[-139,-93],[-172,24],[-237,166],[-233,-30],[-494,-781],[-809,-565],[-294,-522],[-629,-70],[-335,-166],[-450,-685],[-400,-40],[-659,110],[-156,-96],[-213,-449],[-802,193],[-186,-53],[-382,-333],[-816,33],[-889,-89],[-582,-628],[-268,-423],[-473,-109],[-1590,-645],[-450,76],[-247,-56],[-318,-449],[-352,47],[-954,369],[-1803,299],[-180,-117],[-345,-585],[-159,-116],[-1262,-103],[-1113,-269],[-321,-263],[-376,-867],[-1154,-904],[-487,13],[-399,-140],[-683,-412],[-146,10],[-528,309],[-869,-66],[-227,-230],[-78,-388],[-314,33],[-183,-63],[-352,-413],[-788,-535],[-548,-521],[-748,-429],[-612,-133],[-420,-279],[-477,123],[-500,-37],[-1651,-818],[-417,0],[-815,-220],[-343,-335],[-276,-55],[-316,-321],[-684,124],[-260,-156],[-374,-30],[-238,-189],[-213,-9],[-144,-133],[-82,-297],[-495,-94],[-134,-260],[-312,-78],[-50,-238],[-263,-386],[-70,-435],[-510,-261],[-172,-253],[-690,-56],[-333,117],[-322,-4],[-93,78],[-298,-125],[-227,18],[-695,-615],[-483,-291],[-91,-342],[-609,285],[-218,-69],[57,-327],[-90,-149],[-213,-99],[-110,62],[-35,175],[-91,24],[3,237],[-542,-71],[-200,232],[-137,49],[16,155],[-71,48],[-364,14],[-293,-251],[-358,-135],[-171,11],[-270,304],[-180,-158],[-322,-35],[-253,-465],[-309,-105],[-629,-414],[-590,-938],[-92,-368],[-394,-283],[-47,-117],[94,-114],[-61,-112],[-286,-2],[88,-698],[-306,72],[-117,-101],[-43,84],[-145,-132],[-298,-51],[-277,-244],[-80,-348],[-337,-341],[-559,-353],[-301,-35],[-167,-463],[-365,-388],[-250,-98],[-316,-541],[-600,-641],[-315,-192],[-112,-242],[-513,-444],[-87,-252],[-195,-37],[-393,-384],[-396,111],[-290,204],[-430,159],[-355,420],[-298,212]],[[1422413,1618002],[-199,-221],[-101,-373],[-17,-1471],[51,-269],[139,-195],[25,-290],[937,-398],[746,-485],[384,-629],[135,-829],[670,-79],[372,141],[130,-580],[670,-1071],[489,-282],[422,-124]],[[1427266,1610847],[-347,-383],[-716,-370],[-1170,-792],[-303,-396],[-182,-894],[-136,-175],[-1150,-732],[-429,-597],[-485,-446],[-207,-128],[-580,-141],[-383,-232],[-165,-413],[-338,-470],[-885,-663],[-275,-490],[-49,-1070],[-274,-560],[-183,-891],[-285,-474]],[[1418724,1600530],[-824,-868],[469,-361],[192,-413],[-45,-370],[-353,-692],[-534,-590],[-831,-396],[-290,-7],[-521,246],[-725,18],[-1277,392],[-687,296],[-678,91],[-1005,-62],[-1513,-737],[-151,45],[-111,155],[-59,167],[59,174],[-308,463],[-26,212],[347,830],[491,322],[125,219],[6,199],[-118,161],[-1126,540],[-301,232],[-393,-45],[-480,103],[-630,779],[-174,1083],[-422,-111],[-309,-204],[-242,-426],[-854,-832],[-393,-238],[-209,-675],[-17,-448],[478,-746],[50,-436],[-247,-299],[-517,-381],[-349,-116],[-433,-679],[-118,-525],[169,-1127],[106,-238],[1058,-873],[1079,-1226],[124,-856],[419,-548],[501,-363],[307,-492],[-70,-336],[-554,-423],[-29,-1543],[-129,-391],[-325,-647],[-343,-967],[-749,-1188],[134,-970],[-8,-760],[-185,-630],[-644,-662],[-388,-254],[-551,-155],[-427,-298],[-597,-77],[-843,-630],[-934,-558],[-2873,-950],[-107,-89],[-388,-867],[-67,-829],[-169,-348],[-360,-11],[-742,348],[-1000,-76],[-144,-100],[-218,-442],[-685,-217],[-162,-139],[-632,-904],[-113,-629],[-372,-486]],[[1392760,1574649],[-774,317],[-2144,670],[-358,21],[-580,-188],[-869,516],[-908,242],[-1050,-853],[-1206,-286],[-1181,-468],[-464,-303],[-1339,-239],[-369,-155],[-182,-333],[-333,-329],[-826,-597],[-346,-398],[-439,-265],[-270,-394],[-257,-132],[-1038,-298],[-881,-100],[-430,33],[-397,145],[-1903,-113],[-1389,-221],[-229,-247]],[[1372598,1570674],[-108,-273],[799,-1580],[140,-508],[-17,-431],[-180,-182],[-1181,-564],[-798,-502],[-242,-243],[-146,-437],[-568,-387],[-90,-193],[-22,-458],[241,-536],[-5,-94],[-287,-188],[62,-917],[-96,-116],[-500,-199],[-208,-470],[123,-386],[349,-409],[-62,-448],[-433,-1127],[-349,-547],[-33,-221],[-6,-248],[422,-520],[95,-685],[-116,-402],[-216,-339],[52,-152],[663,-499],[304,-508],[444,-459],[73,-762],[275,-1326],[771,-1337],[140,-665],[21,-486],[-134,-547],[21,-537],[-954,-1201],[-399,-807],[0,-110],[371,-337],[355,-591],[146,-553],[-6,-1331],[-81,-518],[148,-455],[-7,-259],[-362,-874],[3,-552],[-158,-605],[380,-894],[193,-1088],[914,-1443],[406,-963],[379,-386],[414,-194],[458,-914],[81,-44],[273,85],[579,359],[248,14],[90,-27],[64,-235],[276,-274],[786,-155],[433,-409],[269,-61],[552,-343],[399,67],[562,414],[219,-72],[253,-707],[0,-1144],[591,-331],[253,-387],[-39,-563],[-90,-183],[-366,-314],[-84,-233],[17,-613],[-130,-353],[0,-243],[326,-260],[383,-61],[669,55],[169,-93],[146,-343],[-34,-807],[433,-519],[456,-276],[461,-194],[562,-55],[326,144],[270,287],[450,149],[636,348],[191,167],[298,655],[485,470],[977,490],[1645,1243],[-457,-1319],[-288,-545],[-43,-325],[169,-822],[1076,-1666],[230,-837],[262,-418],[574,-532],[704,-1014],[175,-614],[38,-481],[541,-1207],[33,-290],[-279,-821],[-82,-664],[-262,-579],[-147,-145],[-17,-193],[17,-483],[131,-483],[-51,-517],[255,-1174],[-396,-339],[-291,-79],[-697,-17],[-1147,129],[-394,-64],[-262,-177],[-377,-757],[-82,-467],[-393,-950],[-1016,-913],[-393,-1014]],[[1385212,1511582],[-128,-215],[-253,-186],[-527,-207],[-1899,62],[-1265,-249],[-464,-331],[-1160,-228],[-711,-531],[-1212,-442],[-436,-348],[-628,-813],[-786,-1370],[-53,-685],[84,-712],[156,-394],[1164,-1135],[139,-249],[186,-1048],[169,-377],[4,-614],[-131,-551]],[[1377461,1500959],[-704,-277],[-241,-54],[-641,46],[-472,-208],[69,-892],[-459,-595],[-543,-357],[-375,-943],[-105,-697],[-626,-574],[-542,-882],[-126,-1578],[-396,-882],[-292,-287],[-1002,-287],[-1732,-144],[-835,-533],[-376,-410],[-313,-738],[-772,-718],[-668,-369],[-730,-164],[-408,-243],[-926,-351],[-175,-251],[-114,-474],[-467,-937],[-345,-465],[-49,-197],[86,-749],[-166,-844],[-141,-426],[-298,-400],[69,-884],[53,-135],[710,-574],[271,-123],[230,0],[480,-308],[188,-225],[125,-513],[-271,-1654],[167,-560],[0,-615],[-84,-712],[-355,-923],[63,-492],[647,-1681],[355,-615],[271,-164],[188,-246],[480,-281],[209,-246],[180,-712],[117,-119],[595,-197],[89,-93],[984,-1997],[460,-588],[-505,-272],[-480,0],[-981,-697],[-1144,-357],[-684,-82],[-184,-114],[-189,-266],[-422,-170],[-899,-48],[-644,-232],[-964,-167],[-713,-623],[-411,-204],[-520,-17],[-1149,238],[-502,-154],[-563,-358]],[[1357844,1465899],[-5908,-22543]],[[1351936,1443356],[-5268,-21107]],[[1346668,1422249],[-2901,-11654]],[[1343767,1410595],[1056,-995],[730,-1325],[410,-451],[642,-511],[492,-885],[1422,-711],[235,-266],[1011,-653],[790,-388],[264,41],[433,-215],[1011,-575],[247,-259],[752,-133],[1667,11],[832,-183],[565,-223],[1392,-51],[919,-256],[453,-506],[277,-457],[-231,-427],[-16,-305],[355,-411],[216,-46],[1171,183],[446,0],[108,76],[-15,137],[-281,371],[-27,361],[46,533],[363,104],[229,-682],[333,-580],[277,-107],[216,138],[123,-92],[251,-517],[-20,-458],[170,-61],[292,76],[509,-15],[0,-625],[168,0],[232,-152],[16,-519],[-598,-763],[505,-684],[124,-519],[-62,-320],[-262,-243],[-385,-808],[-200,-686],[30,-808],[339,-1524],[185,-335],[894,-731],[77,-625],[-236,-369],[-257,3],[-324,274],[-262,92],[-662,-518],[-663,-290],[-279,-546],[-617,-323],[-1205,-68],[-10,-419],[150,-547],[-5,-788],[224,-801],[-75,-273],[-316,-159],[40,-474],[-364,-1233],[67,-1240],[189,-172],[170,-569],[-30,-2420],[609,-1667],[1603,-1134],[199,-232],[329,-673],[168,-1004],[-898,-384],[-412,-302],[99,-392],[394,-665],[43,-292],[1133,-958],[47,-301],[230,-514],[105,-1047],[618,-1546],[68,-904],[139,-240],[785,-667],[1984,-767],[346,-216],[193,-319],[266,-1075],[271,-410],[68,-1226],[137,-518],[-50,-193],[-829,-2240],[-908,-1203],[-251,-735],[194,-1981],[334,-884],[283,-410],[134,-441],[15,-578],[-126,-47],[-17,-117],[83,-407],[223,-292],[148,-35],[135,-167],[642,-1091],[196,32],[240,200],[244,445],[555,457],[153,60],[238,-57],[351,-202],[665,-804],[604,-373],[377,-540],[11,-333],[-234,-848]],[[1372414,1349463],[-246,-621],[-146,-161],[-288,-73],[-323,-613],[-360,-433],[-557,-333],[-624,-215],[-148,-118],[-61,-248],[33,-209],[111,-90],[965,-61],[319,-138],[115,-147],[317,-618],[40,-363],[-294,-375],[-499,-188],[-99,-276],[122,-154],[672,-193],[440,-25],[422,-258],[114,-176],[102,-529],[400,-678],[-36,-308],[-175,-108],[-480,-19],[-1315,408],[-457,-101],[-255,-495],[310,-1174],[-243,-649],[-90,-1035],[-335,-829],[-361,-310],[-290,96],[-742,651],[-251,137],[-160,0],[-85,-78],[-15,-381],[-576,-951],[-148,-44],[-103,78],[-222,490],[-120,668],[-253,359],[-403,225],[-298,-143],[-247,-480],[197,-1114],[-128,-1427]],[[2332059,1111974],[-161830,-45189]],[[2170229,1066785],[-347,1373],[-658,1449],[-458,265],[-758,269],[-383,-130],[-1193,-1788],[-1105,-1328],[-806,-1123],[-687,-655],[-767,-562],[-429,-207],[-392,-58],[-1258,183],[-805,330],[-560,553],[-347,618],[-112,458],[41,468],[249,746],[-175,523],[-354,520],[-401,1196],[-377,1367],[-162,1168],[80,1886],[1201,1701],[165,688],[181,1459],[830,2057],[-129,178],[-1070,521],[9,380],[-448,645],[35,151],[281,270],[-90,118],[-784,120],[-1102,-151],[-1274,12],[-1206,603],[-542,104],[-369,-142],[-722,-486],[-537,-1218],[-832,-728],[-546,-52],[-945,132],[-714,343],[-1064,691],[-341,433],[-895,653],[-396,493],[-256,1067],[306,1132],[-323,1700],[64,387],[-186,343],[-299,256],[-543,106],[-1392,758],[-551,57],[-464,-103],[-181,-149],[-121,-290],[-424,-2083],[-188,-432],[-434,-459],[-467,-296],[-759,-239],[-551,65],[-1060,338],[-777,398],[-1089,654],[-681,533],[-148,529],[-23,551],[186,90],[126,-88],[39,-162],[110,56],[246,494],[43,544],[-405,1273],[-791,1268],[-114,416],[59,542],[-110,133],[-299,-6],[-428,-282],[-653,-775],[-209,-325],[-286,-733],[-246,-188],[-791,49],[-1092,214],[-1032,-32],[-1165,500],[-709,-31],[-280,133],[-213,233],[-194,490],[-361,392],[-1372,798],[-62,529],[-237,480],[-380,1268],[-360,1781],[-288,996],[-375,574],[-606,500],[-647,1119],[6,787],[-114,512],[-98,1467],[-297,1540],[-349,384],[-617,318],[-488,51],[-350,396],[-462,253],[-522,93],[-740,282],[-1217,78],[-518,117],[-1142,491],[-708,531],[-759,1442],[-135,497],[0,282],[84,182],[34,1210],[151,911],[-67,464],[-574,879],[-854,902],[-2081,1274],[-1021,266],[-1135,0],[-2550,-199],[-1366,255],[-1253,563],[-809,724],[-246,475],[-208,648],[-55,1102],[204,720],[508,1106],[130,233],[742,782],[880,1644],[-106,790],[-212,161],[-538,0],[-513,-169],[-375,-379],[-489,-290],[-1842,-711],[-1177,-345],[-720,-34],[-861,-242],[-703,0],[-369,-121],[-696,-1184],[-457,-363],[-703,-397],[-650,-224],[-984,-812],[-369,-552],[-282,-277],[-597,-414],[-808,-121],[-545,-207],[-831,164],[-375,181],[-1413,190],[-263,190],[-1055,17],[-1546,413],[-299,276],[-493,762],[-337,722],[-787,389],[-1892,80],[-474,518],[-211,380],[-88,362],[35,708],[826,1105],[263,580],[879,518],[281,777],[71,829],[228,587],[141,1001],[-71,1364],[-123,374],[-597,674],[-580,138],[-439,-52],[-264,-397],[-281,-242],[-176,35],[-123,173],[-123,0],[-387,-639],[-667,-725],[-661,-253],[-244,-217],[-959,-1863],[160,-865],[-40,-511],[-187,-354],[-471,-324],[-521,-142],[-1960,-158],[-1317,371],[-896,466],[-738,241],[-1476,35],[-299,207],[-158,656],[-282,501],[-1528,1502],[-387,621],[-949,2452],[35,224],[158,233],[36,346],[492,863],[210,880],[-70,484],[88,241],[193,467],[334,241],[229,432],[228,708],[-35,1208],[-70,207],[70,632],[-88,466],[-193,363],[-510,501],[-369,155],[-580,432],[-246,362],[-580,363],[-615,518],[-146,24],[-650,552],[-263,294],[-141,414],[-949,708],[-176,224],[-123,328],[141,259],[211,173],[123,518],[-53,276],[-314,686],[-361,357],[-575,875],[-183,916],[-154,2333],[168,986],[259,675],[0,482],[-429,879],[-672,867],[-323,875],[-281,1722],[-224,792],[-562,1028],[-379,972],[-197,222],[-1123,486],[-1320,84],[-238,83],[-580,926],[-52,1074],[-458,1265],[241,862],[36,449],[-246,570],[-577,544],[-1215,768],[-1572,1319],[-1461,292],[-589,14],[-1643,-472],[-323,0],[-716,333],[-465,349],[-325,476],[-53,925],[-477,208],[-295,311],[-211,-87],[-594,-750],[-473,-446],[-674,-402],[-437,-445],[-75,-171],[-625,-315],[-674,-750],[-927,-541],[-1278,-1000],[-547,-708],[-239,-514],[-674,-153],[-295,-319],[-98,-778],[-295,-889],[-365,-750],[-406,-588],[-1069,-1162],[-927,-1388],[28,-403],[-182,-292],[-421,-319],[-576,-208],[-413,-34],[-219,-494],[-786,-792],[-1401,-79],[-580,104],[-773,362],[-492,121],[-527,35],[-932,-104],[-964,281],[-285,-11],[-1264,-528],[-856,-819],[-548,-83],[-547,55],[-548,181],[-916,705],[-1246,698],[-590,597],[-786,1652],[-421,1500],[-183,334],[-701,781],[-333,846],[-194,259],[0,128],[-1159,13],[-281,181],[-266,361],[-351,1236],[-197,111],[-56,-111],[-197,-500],[-691,-2627],[-179,-456],[-492,-680],[-772,-459],[-772,-166],[-871,97],[-477,181],[-787,750],[-363,638],[-30,473],[85,597],[-492,83],[-617,333],[-829,889],[-42,292],[-1176,994],[-442,593],[-123,191],[17,1045],[-158,121],[-1446,306],[-842,347],[-846,772],[-263,492],[-674,861],[-1166,542],[-589,472],[-1236,653],[-351,27],[-814,306],[-562,430],[-435,709],[-127,625],[-280,514],[-127,611],[99,416],[266,431],[1110,1277],[421,1083],[-70,778],[-590,1806],[-292,269],[-820,353],[-2201,391],[-927,84],[-1236,-195],[-1287,51],[-2433,783],[-562,292],[-1685,444],[-618,389],[-954,236],[-983,639],[-857,1000],[-1362,597],[-1833,1991],[-312,229],[-273,186],[-1190,77],[-467,153],[-468,268],[-234,326],[-390,287],[-702,728],[-741,555],[-273,326],[-117,383],[-312,479],[-78,325],[-19,709],[-64,308],[-133,180],[76,286],[199,241],[-1115,678],[-1136,1017],[-893,1178],[-814,1347],[-590,806],[-562,-97],[-337,111],[-701,552],[-249,75],[-1207,-251],[-503,169],[-691,384],[-574,547],[-1094,598],[-1208,511],[-1000,847],[-455,271],[-688,236],[-4075,603],[-388,-29],[-645,-236],[-1081,111],[-1614,788],[-577,351],[-1277,1000],[-702,389],[-562,83],[-730,306],[-1320,305],[-519,209],[-899,805],[-1404,778],[-464,612],[-432,390],[-770,261],[-312,191],[-241,309],[-72,642],[-144,214],[-633,447],[-1063,1403],[-464,528],[-238,83],[-295,-56],[-197,-222],[-702,-250],[-618,97],[-561,403],[-458,509],[-1432,388],[-553,24],[-601,-95],[-1800,-729],[-533,-319],[-464,-111],[-505,28],[-295,139],[-267,264],[-168,-28],[-815,-875],[-1235,-1597],[-309,-194],[-702,-223],[-309,-361],[-267,-2444],[-323,-1541],[-435,-986],[-168,-750],[-43,-708],[-379,-611],[-1193,-1111],[-225,-472],[-323,-1236],[-252,-305],[-1376,-958],[-815,-736],[-758,-1125],[-1481,-986],[-309,-292],[-98,-357],[-302,-519],[-997,-763],[-1414,-1599],[-1225,-470],[-674,-444],[-618,-153],[-744,-320],[-716,-833],[-632,-402],[-435,-389],[-491,-236],[-632,-83],[-1081,125],[-1400,592],[-1318,746],[-1429,494],[-961,569],[-658,87],[-1001,539],[-520,-125],[-351,14],[-898,347],[-435,-125],[-520,14],[-575,250],[-492,542],[-337,125],[-596,-41],[-328,220],[-30,737],[-127,347],[-308,125],[-534,-69],[-1614,69],[-548,-125],[-1011,-83],[-1265,100],[-902,328],[-1814,1224],[-2316,2069],[-787,583],[-1347,680],[-2415,84],[-1741,-1083],[-1431,-767],[-573,-473],[-607,-218],[-1165,-42],[-1358,-432],[-459,20],[-1469,454],[-519,-97],[-168,97],[-141,458],[-1151,708],[-3145,1236],[-477,250],[-1329,88],[-594,121],[-2106,722],[-758,389],[-1109,902],[-625,379],[-990,371],[-1024,264],[-2027,1553],[-1337,1955],[-623,1210],[-281,905],[-126,167],[-1573,42],[-716,166],[-870,472],[-716,570],[-954,472],[-1432,875],[-815,152],[-407,-13],[-491,-56],[-421,-194],[-786,-42],[-1011,-292],[-1615,-41],[-631,111],[-674,347],[-1404,1028],[-660,888],[-744,1652],[-1011,1189],[-1501,1255],[-941,556],[-1525,629],[-1432,83],[-562,-83],[-674,-347],[-1095,264],[-1277,444],[-1100,218],[-505,-42],[-1769,-486],[-306,-178],[-511,-144],[-1014,-670],[-439,-139],[-684,-52],[-667,104],[-1756,607],[-526,347],[-474,556],[-1457,2769],[-438,573],[-312,662],[85,694],[519,778],[547,1263],[829,1375],[153,2098],[-168,583],[14,264],[-113,208],[-1571,346],[-348,-56],[-3302,-1291],[-744,-83],[-772,-28],[-1291,486],[-1108,843],[-193,235],[107,131],[-14,417],[-351,638],[-562,2375],[-196,402],[-576,486],[-491,125],[-344,-222],[-456,916],[-450,236],[-659,209],[-1180,928],[-477,1001],[-253,736],[-280,403],[-464,319],[-407,111],[-379,-153],[-84,-152],[56,-198],[-181,-1650],[-758,-1875],[-1036,-1257],[-929,-518],[-421,-104],[-767,154],[-877,469],[-930,382],[-246,156],[-456,556],[-532,282],[-404,352],[-1551,124],[-638,446],[-539,82],[-243,345],[-263,121],[-439,-86],[-807,-365],[-772,-630],[-386,-417],[-596,-191],[-632,-69],[-320,0],[-211,99],[-730,-14],[-856,-528],[-435,-111],[-351,14],[-354,155],[-232,211],[-1699,638],[-561,28],[-772,-167],[-618,-277],[-744,14],[-435,-112],[-493,73],[-514,397],[-354,169],[-211,-14],[-207,-242],[-334,226],[-123,0],[-193,-521],[-263,-52],[-246,313],[0,156],[-178,120],[-1813,-409],[-1163,-21],[-238,-153],[-478,-83],[-533,-222],[-1123,69],[-407,278],[-281,83],[-1263,-28],[-912,153],[-576,180],[-475,29],[-1122,805],[-1492,642],[-2161,51],[-1052,181],[-639,260],[-448,495],[-284,1850],[-246,416],[-649,694],[-1071,434],[-1335,-449],[-1246,-625],[-457,-486],[-491,-278],[-830,-275],[-1281,-35],[-1527,1181],[-630,983],[-368,886],[-509,833],[-440,1297],[70,607],[330,769],[-142,1630],[-777,1321],[-520,708],[-1957,1825],[-1749,1951],[-913,816],[-456,277],[-1529,1574],[-358,790],[-419,1733],[-383,1085],[-578,1177],[-450,1193],[-319,1324],[-289,467],[-1165,535],[-547,153],[-253,-97],[-730,-514],[-617,-708],[-520,-361],[-140,-250],[-201,-1545],[-295,-472],[-575,-583],[-884,-348],[-800,-41],[-449,83],[-1591,957],[23,769],[449,1055],[281,930],[126,1222],[-267,1041],[-449,500],[-968,361],[-660,97],[-379,-84],[50,-119],[-474,-340],[-1990,-860],[-716,-194],[-800,0],[-772,264],[-351,485],[-98,570],[0,1207],[140,597],[674,596],[337,404],[814,555],[477,555],[126,320],[-477,2040],[-337,517],[-254,218],[-228,87],[-1843,174],[-684,330],[-1912,1468],[-562,572],[-316,486],[-70,261],[-351,260],[-1211,590],[-754,938],[10,386],[-281,643],[-88,520],[0,556],[138,481],[-122,468],[-316,417],[-895,781],[-1554,761],[-1562,278],[-860,0],[-456,226],[-141,0],[-421,-417],[-158,-34],[-281,0],[-351,121],[-175,174],[-474,642],[-609,1225],[-333,1007],[-228,364],[747,1698],[421,469],[878,399],[-18,139],[-917,488],[-404,417],[-579,174],[-351,503],[-802,1550],[-53,573],[-596,910],[-843,642],[-807,87],[-1035,-35],[-1229,347],[-1687,320],[-702,226],[-1311,92],[-316,173],[-175,261],[-790,625],[-368,139],[-1666,3],[-457,128],[-103,102],[-542,719],[-96,440],[261,631],[5,804],[73,199],[475,255],[465,78],[495,-49],[757,-291],[924,-99],[507,-139],[787,-33],[1262,78],[504,147],[111,499],[-176,638],[-394,435],[-532,118],[-1424,-59],[-708,97],[-656,287],[-554,490],[-231,787],[-545,677],[-280,487],[-440,452],[-158,729],[-404,574],[106,399],[527,539],[316,625],[158,1146],[-87,730],[-141,382],[-386,591],[-720,556],[-527,695],[-422,382],[-246,104],[-1703,35],[-1581,261],[-843,278],[-347,228],[-498,159],[-972,8],[-1332,-334],[-460,-15],[-374,146],[-654,452],[-761,-196],[-562,151],[-335,285],[-578,1204],[-456,1203],[-106,557],[-31,1368],[-516,1535],[-533,947],[-471,587],[-471,346],[-989,542],[-934,234],[-958,-43],[-1073,134],[-1176,360],[-482,-3],[-1076,-166],[-973,-346],[-539,-244],[-789,-591],[-613,-664],[-590,-1085],[-165,-515],[-656,-1357],[-883,-990],[-1170,-557],[-430,-306],[-503,-182],[-1460,226],[-1217,535],[-575,420],[-893,854],[-882,497],[-426,602],[-106,421],[0,1579],[821,2723],[61,812],[-273,978],[-760,1925],[-884,1563],[-289,1387],[-329,896],[-410,800],[-795,950],[-1217,451],[-2068,1048]],[[1651721,1336403],[-1110,622],[-684,226],[-578,90],[-274,151],[-1019,1699],[-365,424],[-121,404],[-350,225],[-259,-120],[-380,-436],[-167,-557],[-487,-992],[-153,-661],[-486,-31],[-745,-391],[-684,-181],[-1004,-812],[-943,-406],[-198,-240],[-139,-413],[-1371,35],[-640,-210],[-568,-6],[-2020,712],[-1318,-22],[-423,115],[-441,331],[-274,511],[-365,421],[74,1001],[-117,388],[-237,410],[-505,407],[-662,136],[-383,-29],[-287,-150],[-1287,-1082],[-1181,-383],[-628,-381],[-286,-1164],[-179,-259],[-243,-155],[-327,-21],[-485,218],[-854,745],[-337,674],[-21,352],[221,1284],[-120,2545],[-209,730],[-76,806],[-422,699],[-455,403],[-120,236],[-503,81],[-331,260],[-1058,-395],[-1552,-1210],[-523,-298],[-320,-67],[-1198,183],[-1144,657],[-1080,1053],[-403,283],[-301,579],[-130,1265],[150,311],[527,630],[132,354],[131,1796],[-29,498],[-122,436],[-456,572],[-430,250],[-606,549],[-1555,1122],[-835,535],[-720,164],[-677,86],[-720,-129],[-246,-181],[-264,-372],[-316,-621],[-729,-1062],[-1547,-1597],[-272,-181],[-638,-212],[-1014,-74],[-1026,171],[-946,328],[-451,278],[-137,144],[-368,788],[-223,857],[-355,793],[-342,388],[-246,18],[-510,-415],[-2164,-2522],[-827,-572],[-841,-788],[-796,-1071],[-516,-1549],[-76,-1113],[-291,-913],[-338,-2796],[78,-982],[-182,-691],[-213,-361],[-578,-512],[-1902,-1038],[-1049,-466],[-1099,-198],[-859,-35],[-1017,348],[-916,915],[-222,585],[7,416],[-786,1186],[-872,759],[-464,221],[-422,-14],[-2390,-593],[-2938,-1736],[-2815,-1228],[-3342,-506],[-904,28],[-183,144],[-180,301],[126,-600],[-99,-39933],[-2546,-1624],[-776,-365],[-844,-66],[-590,331],[-253,647],[-34,828],[203,663],[1283,1484],[78,905],[-383,810],[-574,713],[-373,208],[-1398,504],[-405,50],[-472,-66],[-624,-448],[-1603,-315],[-253,-215],[-236,-381],[17,-497],[243,-1380],[27,-924],[-173,-658],[-249,-453],[-641,-364],[-1114,-216],[-2075,-32],[-2378,231],[-2767,-50],[-2436,454],[-1070,104],[-2145,-392],[-2036,-971],[-326,-90],[-827,266],[-1754,861],[-1687,1409],[-1755,2006],[-1130,1077],[-1114,696],[-607,232],[-577,48],[-1596,-474],[-1654,-1049],[-947,-503],[-1276,-343],[-1373,-728],[-2412,-1061],[-709,-448],[-674,-679],[-1542,-2224],[-645,-807],[-563,-1991],[-236,-332],[-743,-712],[-911,-216],[-472,33],[-287,183],[-928,1657],[-354,481],[-472,331],[-675,166],[-1434,149],[-995,812],[-321,531],[-253,696],[-1046,1342],[-769,1155],[-666,1625],[-717,1492],[-1270,1140],[-512,372],[-1282,627],[-964,109],[-527,-21],[-632,-145],[-696,-342],[-418,-415],[-282,-669]],[[1504949,1302364],[-867,-591],[-540,-265],[-945,-796],[-489,-265],[-675,-83],[-405,182],[-371,348],[-202,415],[303,1392],[439,1409],[84,696],[-151,563],[-287,481],[-524,532],[-623,313],[-591,133],[-557,33],[-961,-464],[-1367,-282],[-2058,-331],[-489,0],[-371,165],[-810,779],[-455,249],[-1299,497],[-557,166],[-1501,249],[-1013,314],[-708,17],[-996,-448],[-489,-430],[-972,-1484],[-443,-362],[-232,41],[-949,632],[-991,1015],[-769,1326],[-1635,1751],[-1233,683],[-338,290],[-274,11],[-200,-83],[-295,-280],[-770,-1419],[-865,-994],[-917,-518],[-2003,-446],[-464,-248],[-728,-446],[-2077,-1771],[-717,-427],[-675,-650],[-168,-415],[189,-559],[422,-456],[475,-207],[790,10],[528,114],[413,274],[348,84],[651,36],[176,-131],[193,-574],[232,-404],[138,-507],[-359,-1036],[-274,-311],[-295,-186],[-1129,-539],[-1592,-476],[-1550,-239],[-326,156],[-485,538],[-2204,2984],[-1877,1647],[-706,269],[-1192,207],[-1697,114],[-1645,-632],[-559,-134],[-786,-53],[-416,-186],[-432,-331],[-496,-653],[-295,-165],[-1634,-249],[-1266,-404],[-1012,-756],[-422,-632],[-569,-290],[-1107,-767],[-896,-994],[-527,-456],[-1097,-632],[-495,-145],[-591,0],[-622,93],[-506,239],[-1213,683],[-1339,922],[-453,187],[-1804,558],[-1897,716],[-1392,155],[-601,11],[-337,-156],[-506,-559],[-1329,-777],[-1339,-62],[-538,186],[-579,73],[-717,-259],[-1708,-373],[-812,166],[-2541,1201],[-1962,1564],[-1043,653],[-1002,497],[-1455,497],[-380,187],[-232,238],[-168,238],[-11,353],[137,290],[1487,849],[362,402],[155,468],[-97,582],[-515,547],[-538,373],[-527,124],[-380,0],[-1191,-673],[-1023,-1191],[-551,-235],[-1392,-221],[-1940,124],[-942,125],[-1814,511],[-801,83],[-759,-125],[-2137,-732],[-1378,-165],[-576,124],[-1237,773],[-717,1147],[-900,704],[-576,663],[-380,801],[-323,995],[56,497],[-117,709],[-1905,1464],[-1380,-157],[-1012,-594],[-2390,-2320],[-760,-939],[-548,-870],[-450,-263],[-674,-14],[-549,249],[-407,345],[-605,884],[-450,207],[-584,125],[-1904,1063],[-506,346],[-182,265],[-507,3]],[[1384470,1311451],[-446,-177],[-404,-345],[-211,-397],[-510,-329],[-457,-34],[-1616,207],[-1736,642],[-1252,100],[-527,-103],[-953,-620],[-488,67],[-633,398],[-211,414],[-70,1174],[-316,949],[-299,397],[-1581,846],[-106,398],[70,552],[809,880],[580,518],[871,577],[106,656],[-387,1191],[-176,346],[-474,414],[-3220,1753],[-418,319],[-386,1726],[-369,863],[-772,1214],[-1320,1376],[-351,725],[-132,819],[62,528],[263,656],[35,500],[-105,518],[-902,2146],[-613,580],[42,518],[-207,1223]],[[1550932,1519990],[-8937,-3623],[12381,-21260],[-157,-727],[-139,-243],[-237,-92],[-21,-207],[519,-347],[321,-59],[7,-387],[179,-77],[20,-147],[156,-153],[-13,-181],[185,-160],[226,-15],[60,-240],[186,-149],[581,-174],[509,181],[42,-91],[-103,-420],[91,-109],[451,227],[153,-61],[130,-224],[158,73],[136,-45],[211,139],[141,-29],[240,107],[256,-57],[174,100],[158,-26],[432,276],[256,-73],[413,200],[174,-19],[159,-603],[329,-222],[-15,-182],[125,-141],[47,-469],[174,-256],[195,-47],[61,-92],[-189,-382],[5,-325],[89,-217],[188,-57],[232,205],[135,-11],[95,-113],[-16,-173],[379,-122],[309,-269],[278,-16],[238,176],[137,-249],[297,-205],[546,40],[240,-186],[55,-371],[333,-478],[381,-168],[183,160],[87,-401],[314,112],[761,-125],[289,-633],[193,48],[-9,-215],[536,-259],[49,-300],[242,-144],[114,-214],[106,-36],[178,281],[473,-267],[43,-124],[-198,-256],[29,-180],[258,236],[911,20],[-355,-397],[-510,25],[-29,-110],[189,-261],[-387,-169],[-3,-138],[270,-121],[367,93],[246,-274],[229,138],[-28,262],[123,57],[158,-48],[123,-397],[-66,-124],[-118,0],[-37,-113],[238,-121],[189,-250],[-160,-321],[217,0],[164,368],[152,-36],[94,-225],[126,-45],[89,67],[23,183],[95,-11],[68,-327],[-286,-591],[596,-62],[54,59],[-66,135],[112,96],[218,-127],[118,-597],[-38,-523],[72,-636],[146,-15],[344,516],[186,53],[89,-250],[-246,-234],[-58,-194],[791,0],[95,-141],[-32,-317]],[[1573199,1479545],[-16424,3]],[[1556775,1479548],[161,567],[-216,14],[-6,-335],[-138,-77],[-129,188],[38,591],[-509,142],[210,488],[9,222],[-184,128],[-457,-91],[-155,54],[17,344],[-396,111],[-121,142],[0,511],[-89,225],[-184,0],[-141,-299],[-160,-65],[-150,105],[-31,191],[-173,153],[9,307],[213,65],[83,185],[-144,74],[-74,176],[-224,48],[-35,80],[-17,429],[230,392],[-351,94],[64,250],[-64,85],[-428,-9],[-74,86],[239,174],[11,99],[-252,57],[-32,81],[65,456],[-86,1115],[-347,214],[168,269],[-23,162],[108,80],[-352,337],[-337,36],[46,243],[-337,307],[245,520],[-150,225],[303,190],[-63,273],[-73,69],[-323,16],[-231,300],[-521,290],[-358,419],[-707,-56],[-1349,454],[-888,442],[-1146,233],[-253,257],[-990,1743],[-621,842],[-268,225],[-556,269],[-132,352],[-158,142],[-531,185],[15,294],[-323,479],[-35,298],[250,869],[-301,427],[-461,231],[-78,419],[114,471],[-961,721],[-695,971],[-360,889],[-329,439],[3,161],[145,257],[-162,508],[373,331],[78,200],[-93,110],[-402,125],[-82,134],[179,204],[-51,367],[207,168],[158,459],[-88,52],[-89,-204],[-826,75],[144,454],[-289,60],[-238,448],[221,225],[-103,361],[215,-53],[-124,278],[246,312],[42,327],[-92,123],[-287,106],[-40,298],[-304,74],[-384,455],[23,300],[480,548],[-76,154],[-469,411],[269,208],[-38,161],[-195,223],[92,260],[-1079,1194],[28,723],[-85,530],[-754,712],[11,745],[-225,319],[12,536],[95,268],[569,769],[702,536],[-2986,479],[-407,-256],[-463,-110],[-5229,8816],[-387,-295],[-474,76],[-273,200],[-656,-72],[-733,62],[-690,-286],[-733,79],[-568,389],[-659,248],[-1087,148],[-519,214],[-102,117],[-957,155],[-841,603],[-542,116],[-1198,-185],[-835,-426],[-1339,-313],[-420,377],[-1128,574],[-988,1224],[-804,666],[-296,428],[-371,351],[-46,425],[-205,28],[-561,-114],[-114,92],[-111,338],[-159,105],[-91,-253],[-223,122],[-357,-268],[-383,-61],[-238,347],[-21,271],[-150,242],[175,274],[-40,571],[-325,158],[-169,183],[3,127],[-98,90],[104,163],[-20,176],[-152,26],[-160,-190],[-421,142],[-100,463],[-242,151],[45,517],[-258,136],[95,216],[-324,68],[-43,178],[-133,44],[-349,540],[-68,-31],[-2,259],[-278,119],[255,645],[-323,187],[136,444],[-385,645],[88,221],[-175,226],[-93,288],[138,150],[-5,125],[-26167,-17821],[511,-517],[823,-603],[71,-240],[857,-1173],[76,-238],[-6,-787],[-222,-355],[-559,181],[-396,-67],[-326,-258],[-163,-423],[-320,-77],[-236,108],[-84,225],[-11,408],[101,309],[-98,141],[-908,231],[-595,14],[-104,283],[-211,253],[-564,231],[-177,8],[-1051,-383],[-646,167],[-334,267]],[[1475606,1519507],[236,162],[650,108],[193,203],[35,452],[-338,676],[-669,522],[-394,187],[-182,506],[-578,473],[27,338],[-151,279],[-231,3],[-793,-336],[-113,357],[-367,493],[163,333],[289,292],[8,216],[-515,230],[-337,500],[-916,573],[224,987],[-131,135],[-411,16],[-211,278],[-740,257],[-363,339],[-74,344],[58,279],[252,436],[459,172],[258,241],[198,545],[239,351],[-57,264],[-175,100],[-983,0],[-1074,-132],[-270,358],[131,1041],[-106,263],[-288,96],[-578,-265],[-599,25],[-778,280],[-249,197],[-270,370],[-1753,918],[-60,242],[995,369],[154,314],[18,342],[-243,328],[123,377],[0,411],[-204,407],[116,290],[81,760],[-190,452],[-21,304],[60,342],[341,259],[-135,210],[-19,342],[307,521],[15,431],[578,624],[1560,100],[414,306],[31,112],[0,435],[-580,1201],[-207,621],[-83,590],[-31,2462],[135,346],[83,648],[-373,498],[-425,255],[-528,173],[-1046,620],[-373,336],[-1533,499],[-719,397],[-383,447],[-332,611],[-797,555],[-384,407],[228,570],[1399,2060],[113,346],[0,336],[-258,743],[-22,676],[312,576],[1232,194],[361,180],[327,-41],[330,81],[302,220],[22,181],[188,283],[337,83],[606,430],[-44,167],[292,721],[474,259],[120,205],[736,376],[373,684],[592,508],[537,713],[668,1234],[389,265],[248,327],[213,390],[30,492],[167,248],[273,161],[94,149],[93,1063],[945,607],[1016,910],[88,267],[1,524],[-366,481],[-233,159],[-50,403],[199,217],[109,322],[585,584],[6,222],[134,179],[-59,240],[564,733],[-9,478],[-225,672],[-5,924],[181,140],[468,100],[716,713],[415,698],[450,413],[532,213],[717,45],[480,467],[339,18],[290,257],[-67,629],[-601,183],[-456,367],[-1253,30],[-135,-101],[-259,-448],[-756,-479],[-114,-40],[-456,244],[-569,-173],[-425,20],[-176,61],[-300,296],[-187,346],[-735,508],[-104,448],[-259,285],[-248,-122],[-94,-214],[-828,-183],[-518,71],[-810,-671],[-166,-418],[-176,-122],[-393,285],[-32,275],[166,336],[-93,346],[-135,81],[-414,-122],[-166,-193],[-290,-51],[-611,81],[-362,265],[-456,10],[-549,366],[-425,122],[-52,428],[-134,193],[-425,224],[-342,305],[-973,326],[-1119,173],[-518,-31],[-373,-193],[-279,20],[-446,173],[-217,-91],[-239,-275],[-1470,-529],[-1316,-183],[-642,0],[-599,114],[-814,-343],[-710,-509],[-176,35],[-841,611],[-299,871],[-315,1955],[-692,2078],[-1048,1374],[-186,387],[-684,407],[-317,70],[-429,62],[-1419,-112],[-973,417],[-1192,194],[-103,122],[-62,463],[-827,397],[-311,-72],[-922,-580],[-569,122],[-1616,692],[-145,326],[68,321],[-256,557],[81,322],[3,652],[238,585],[146,1258],[-113,568],[44,653],[-155,695],[-243,401],[0,161],[-811,641],[-730,-80],[-799,625],[-253,25],[-246,233],[233,671],[80,699],[-21,397],[-227,473],[284,648],[-47,329],[-248,146],[-1066,108],[-1077,20],[-538,-213],[-483,99]],[[1435315,1601712],[-564,694],[-155,468],[-556,1054],[-496,732],[-855,569],[-143,-37],[-547,-518],[-1620,-141],[-991,209],[-1015,1],[-750,-378],[-441,-42],[194,650],[126,1392],[-277,529],[-291,354],[-67,562],[150,1058],[622,1216],[-128,473],[-245,290]],[[1418724,1600530],[230,-193],[197,-401],[281,-331],[377,-36],[406,-503],[135,-940],[291,-1067],[-1027,-1547],[-754,-325],[-206,-463],[-851,-612],[-371,-423],[-629,-220],[-172,-532],[-411,-222],[-185,-590],[45,-173],[206,-163],[-68,-277],[212,-266],[-23,-247],[97,-112],[165,-686],[160,-323],[616,-323],[25,-199],[-25,-547],[-270,-1276],[-9,-464],[59,-307],[321,-539],[8,-248],[-168,-309],[-59,-1558],[-253,-862],[-51,-522],[59,-1264],[-362,-463],[-42,-629],[-85,-190],[-43,-591],[47,-516],[121,67],[-20,-215],[-164,-408],[-557,140],[-554,-217],[-460,-435],[-651,-982],[-211,-783],[-17,-397],[118,-473],[-101,-497],[-110,-207],[-354,-282],[-93,-282],[117,-472],[405,539],[18,-133],[333,-279],[202,-422],[-116,-346],[-9,-727],[-93,-403],[-328,-383],[-161,-387],[-113,-46],[-296,80],[-104,-66],[-205,-469],[-675,-736],[-455,-99],[-289,173],[-440,22],[-181,-182],[268,-257],[141,-250],[41,-269],[-21,-520],[-182,-410],[91,-809],[-60,-180],[-283,-290],[-293,-120],[-71,-180],[10,-449],[-738,-1099],[-151,-140],[-132,30],[-182,-390],[-359,-480],[-94,-175],[-4,-422]],[[1409135,1563354],[-3839,4089],[-1055,-328],[-843,-17],[-328,258],[-925,418],[226,863],[-51,602],[-85,167],[-480,505],[-657,351],[-701,598],[-88,378],[-415,381],[-517,879],[-718,461],[-109,324],[-422,174],[-401,294],[-878,1237],[-497,415],[-412,13],[-343,-204],[-395,-43],[-483,-218],[-303,-46],[-303,-204],[-1180,-106],[-173,54]],[[1501138,1415444],[-205,-4674],[-34453,-36683]],[[1466480,1374087],[-318,-8],[-1768,-594],[-897,219],[-844,52],[-540,337],[-11,1113],[-273,464],[-815,476],[-905,221],[-357,5],[-245,-135],[-132,-315],[-206,-192],[-1135,-336],[-436,-279],[-265,-279],[-222,-503],[-45,-453],[172,-290],[534,-442],[-59,-265],[-121,-94],[-222,-25],[-891,335],[-667,2],[-236,-292],[79,-1017],[-177,-364],[-214,-152],[-1296,160],[-1527,-238],[-697,172],[-1085,-183],[-220,89],[-112,450],[-433,105],[-267,-415],[-245,-765],[-453,-478],[-1048,-878],[-546,-99],[-697,207],[-301,-185],[-253,-1152],[-323,-716],[-737,-917],[-326,-152],[-478,196],[-467,668],[-950,693],[-463,199],[-813,57],[-542,295],[-433,109],[-358,21],[-371,-208],[-1853,-530],[-265,143],[-262,-3],[-832,-312],[-216,27],[-515,415],[-1334,469],[-1621,354],[-817,64],[-1100,-49],[-1436,291],[-1194,-201],[-254,101],[-524,442],[-256,427],[-277,97],[-472,-18],[-185,-88],[-218,-381],[-413,-200],[-59,-305],[-156,-145],[-1188,-11],[-163,-63],[-304,-257],[-135,-304],[-318,-180],[-1389,-66],[-618,166],[-613,44],[-1099,-126],[-490,-338],[-288,-350],[-484,-126],[-578,409],[-519,55],[-440,-80],[-481,-350],[-1617,-45],[-518,218],[-150,433],[-409,327],[-269,156],[-618,42],[-500,-51],[-175,-80],[-441,-438],[-371,-202],[-274,-14],[-773,398],[-612,517],[-1124,201],[-355,-55],[-570,-239],[-924,-48],[-833,-262],[-640,438],[-970,297],[-530,366],[-661,325],[-837,262],[-927,114],[-591,162],[-1226,-38],[-239,87],[-134,200],[7,466],[250,970],[-28,335],[-517,829],[-429,497],[-334,145],[-63,145],[562,1119],[113,590],[-60,422],[-239,379],[-151,111],[-594,152],[-404,462],[63,342],[865,756],[288,439],[-7,338],[-1380,426],[-245,658],[-105,667],[49,405],[278,436],[-82,430],[-114,183],[-996,548],[-454,713],[-1202,853],[438,847],[-255,1727],[-23,1042],[-225,373],[-745,458],[-369,546],[-438,301],[-20209,-40050]],[[1377461,1500959],[704,-2519],[789,-748],[254,-387],[394,-139],[789,-968],[564,-222],[451,-304],[28,-167],[422,-526],[282,-193],[198,-305],[704,-498],[733,-166],[479,-526],[1634,83],[672,-247],[993,-218],[324,-269],[513,-267],[782,-263],[184,-222],[533,-360],[672,-278],[1318,-751],[2776,-862],[2280,-557],[753,-339],[856,-118],[327,256],[544,978],[376,160],[890,182],[452,267],[647,113],[573,547],[534,74],[355,554],[580,119],[394,308],[69,168],[565,167],[315,-110],[300,-631],[836,-824],[398,-303],[711,-370],[642,-588],[287,-140],[736,-259],[1594,-293],[888,-30],[1261,204],[850,34],[665,-185],[496,-297],[78,-238],[-145,-224],[19,-170],[366,-358],[660,-995],[-85,-847],[145,-483],[-233,-406],[54,-364],[410,-781],[666,-514],[515,-869],[923,-839],[536,-981],[183,-720],[149,-1410],[-52,-707],[-109,-213],[-497,-468],[-27,-378],[164,-339],[23,-313],[-65,-173],[-365,-366],[-55,-226],[54,-150],[173,-123],[522,-29],[237,-127],[109,-305],[58,-767],[-299,-636],[-828,-820],[-75,-269],[102,-119],[300,-41],[315,-151],[139,-179],[99,-714],[177,-515],[109,-2116],[396,-657],[-52,-784],[-228,-744],[-40,-1286],[102,-564],[287,-233],[578,-4],[209,-97],[484,-570],[606,-1153],[638,-267],[1172,-992],[642,-190],[588,134],[437,-128],[105,-234],[65,-583],[165,-412],[853,-513],[354,-550],[515,-555],[312,-829],[402,-552],[573,-462],[166,-13],[401,188],[534,-400],[163,-269],[50,-467],[-236,-1003],[57,-388],[842,-1045],[317,-642],[144,-788],[306,-284],[831,-178],[348,-8],[382,103],[503,253],[846,1083],[393,291],[638,225],[769,559],[233,25],[410,-173],[498,-5],[980,292],[1474,741],[500,-308],[264,41],[554,256],[143,-22],[239,-242],[396,-203],[328,0],[293,403],[1216,-275],[618,-303],[266,25],[610,306],[1455,-148],[831,-236],[551,120],[828,325],[953,86],[707,469],[823,-125],[253,92],[329,238],[157,403],[279,220],[2002,911],[304,-55],[505,-284],[357,-103],[998,347],[536,65],[1218,-224],[1615,348],[755,-18],[771,-172],[936,419],[613,170],[700,-120],[560,4],[615,-329],[265,-56],[1175,237],[881,408],[875,737],[294,59]],[[1468057,1457619],[775,-352],[230,-195],[127,-553],[0,-771],[310,-758],[201,-249],[1673,-1019],[1131,-422],[748,-21],[288,104],[172,170],[190,455],[358,469],[126,111],[218,-4],[112,-100],[214,-552],[95,-632],[260,-233],[811,-392],[309,-400],[347,-1007],[401,-472],[512,-160],[801,184],[393,-257],[323,-642],[337,-406],[165,-375],[109,-799],[129,-243],[134,-80],[1264,496],[1362,7],[913,122],[579,-170],[277,-174],[95,-118],[-14,-215],[-333,-188],[-1292,358],[-274,-83],[-506,-351],[-133,-292],[260,-118],[129,-191],[60,-1185],[168,-111],[277,-5],[289,-133],[1057,122],[333,-21],[246,-118],[467,-487],[196,-451],[193,-878],[190,-296],[365,-55],[316,187],[657,101],[767,-96],[-80,-88],[230,-191],[71,-194],[-385,-1594],[-14,-893],[-248,-1937],[12,-951],[248,-409],[1150,-769],[1334,-1194],[305,-479],[109,-372],[-10,-731],[-498,-804],[-75,-526],[109,-169],[225,-74],[955,41],[1638,654],[478,74],[300,-61],[198,-114],[1131,-1121],[382,-562],[158,-101],[260,42],[411,423],[309,-76],[369,-583],[-64,-500],[95,-445],[319,-396],[225,-121],[773,451],[484,444],[376,174],[618,708],[175,73],[379,-73],[703,-805],[277,-70],[248,51],[130,185],[-636,-15148]],[[1761685,1355105],[-67229,-11686],[-42735,-7016]],[[1504949,1302364],[-4549,21213]],[[1500400,1323577],[-10533,50704],[-488,-211],[-232,-194],[-436,-739],[-439,-279],[-693,-145],[-509,-11],[-647,-214],[-411,31],[-1571,984],[-478,180],[-320,-128],[-604,-894],[-218,-131],[-615,-163],[-637,-542],[-1223,-677],[-256,52],[-193,142],[-953,939],[-380,-104],[-393,-507],[-229,-90],[-752,345],[-393,-114],[-306,-611],[-218,-62],[-1083,394],[-1395,-456],[-710,297],[-604,-121],[-246,-183],[-819,-981],[-376,-69],[-656,32],[-328,-166],[-401,7],[-299,183],[-938,1267],[-411,887],[-327,377],[-513,887],[-144,197],[-543,397]],[[1501138,1415444],[442,-316],[719,-298],[713,-440],[310,-543],[-3,-926],[409,-284],[525,-100],[179,398],[441,118],[764,-206],[1417,32],[225,-176],[527,-800],[357,-280],[1816,-458],[2039,-813],[1508,-347],[374,-239],[298,-345],[64,-364],[14,-177],[-222,-428],[-193,-186],[-551,-209],[-500,-300],[-317,-372],[-231,-658],[14,-133],[267,-210],[211,-311],[63,-373],[-63,-559],[-253,-891],[63,-373],[1265,-953],[380,-104],[1160,498],[108977,16149]],[[1624346,1419467],[93,-51],[189,-595],[168,-123],[462,-91],[16,-100],[-321,-582],[15,-147],[454,-695],[161,-716],[-65,-236],[70,-402],[-129,-450],[199,-614],[-171,-589],[48,-197],[230,-75],[211,-214],[1016,-242],[435,-333],[160,-250],[9,-197],[-301,22],[-367,250],[-175,-14],[12,-203],[241,-264],[278,-180],[514,77],[169,153],[157,345],[31,283],[-37,444],[-755,1345],[-171,461],[53,166],[306,109],[551,-237],[146,-230],[-23,-1103],[410,-294],[660,2],[270,245],[239,639],[185,55],[191,-153],[98,-600],[-163,-572],[222,-719],[-115,-233],[8,-228],[227,-425],[677,-542],[98,-194],[-266,-120],[-700,-22],[-626,-119],[-741,-325],[-391,-425],[-48,-255],[180,-825],[483,-873],[210,-127],[711,158],[612,-59],[127,56],[267,480],[36,514],[-78,406],[67,64],[286,0],[239,-62],[219,-175],[775,-1369],[331,-172],[228,58],[124,455],[182,153],[489,178],[104,238],[-239,306],[-284,206],[-1319,728],[-113,161],[26,97],[280,167],[332,-20],[783,-411],[1306,-100],[1303,-1175],[514,-217],[354,128],[84,144],[23,350],[-163,397],[-1309,945],[-817,414],[-879,580],[-345,362],[247,188],[295,84],[247,-42],[1154,-747],[612,-273],[680,-191],[536,-356],[135,147],[87,275],[143,-30],[180,-195],[303,261],[186,372],[-25,672],[-101,237],[-784,166],[-755,-80],[-205,172],[92,420],[203,322],[379,377],[160,353],[37,1086],[-113,428],[-22,541],[-174,578],[129,133],[172,-47],[384,-572],[211,-94],[185,138],[20,392],[90,203],[149,55],[213,-47],[84,-203],[-177,-394],[225,-159],[441,178],[180,164],[53,122],[-194,334],[87,88],[189,-22],[244,-297],[137,22],[54,175],[-59,317],[115,133],[169,-400],[5,-422],[-227,-511],[-220,-278],[14,-192],[236,-50],[231,114],[202,0],[303,-436],[101,-11],[542,480],[28,598],[439,394],[238,-3],[312,-694],[199,-31],[233,144],[234,-194],[190,11],[304,311],[671,325],[101,-122],[65,-309],[266,-77],[149,-217],[93,-261],[-14,-411],[81,-125],[118,58],[101,239],[141,11],[53,-350],[261,-139],[219,-417],[1182,25],[717,-189],[176,45],[57,272],[311,-114],[9,-150],[-169,-200],[6,-292],[511,-1044],[-82,-108],[-497,-92],[-45,-164],[99,-166],[497,13],[351,231],[205,258],[157,-31],[253,-200],[244,139],[418,-11],[394,156],[238,-150],[323,-473],[506,-119],[407,116],[309,-80],[578,-522],[452,-256],[292,8],[110,172],[-539,342],[-121,267],[202,250],[486,1011],[506,624],[-11,170],[-216,272],[76,311],[637,1108],[157,0],[104,-122],[180,-622],[323,147],[182,-50],[-421,-830],[8,-278],[144,-67],[1927,1963],[179,-2],[475,-364],[789,-309],[-6,-128],[-140,-77],[-604,-150],[-438,22],[223,-352],[296,-184],[579,-39],[480,105],[281,-161],[253,47],[502,559],[309,-39],[51,125],[-135,208],[-578,58],[278,434],[135,-28],[859,-711],[163,-300],[123,-11],[267,169],[-98,322],[53,322],[152,209],[191,61],[76,-281],[-354,-1166],[-453,-656],[0,-650],[-340,-44],[-202,139],[-104,597],[-87,106],[-179,-11],[-79,-1173],[-96,-77],[-331,-6],[-34,-108],[53,-142],[441,-66],[65,-187],[-141,-130],[-477,86],[79,-372],[294,-342],[200,-111],[317,-3],[1020,231],[438,-195],[550,-72],[388,-309],[808,-375],[323,-259],[124,38],[33,243],[267,234],[855,-60],[168,-202],[396,-196],[28,-125],[-226,-87],[-470,90],[-463,-193],[-58,-223],[355,-218],[229,-8],[1103,658],[729,101],[11,108],[-308,147],[36,417],[85,89],[1379,-631],[333,-275],[335,163],[223,-41],[44,-152],[-154,-517],[38,-245],[707,-599],[603,46],[99,-323],[-30,-460],[-122,-153],[-313,49],[-135,-51],[-187,-387],[-99,19],[-380,398],[-214,13],[-9,-269],[339,-261],[126,-289],[105,-13],[124,185],[145,-232],[6,-206],[-132,-286],[-531,-378],[-465,-248],[-124,0],[-383,229],[-88,-299],[-113,-109],[-233,109],[-190,383],[-154,112],[-193,-65],[-63,-243],[558,-557],[248,-678],[767,-351],[374,5],[457,248],[190,-17],[553,-552],[418,-76],[355,195],[55,210],[-371,136],[-380,267],[-124,155],[20,120],[932,-20],[600,-182],[8,-150],[-335,-87],[-42,-160],[672,-730],[110,-242],[-124,-152],[-369,-52],[8,-231],[77,-82],[498,174],[559,-76],[132,501],[143,46],[270,-63],[-89,-884],[-514,-106],[-143,-163],[-99,-221],[27,-745],[-69,-106],[-308,-36],[-93,-138],[68,-156],[718,-310],[77,-150],[-99,-291],[-228,-196],[-237,281],[-451,71],[-148,-169],[66,-180],[1039,-604],[801,-310],[322,-267],[314,-142],[1150,221],[99,-123],[27,-373],[85,-46],[198,98],[204,642],[426,254],[235,440],[710,-86],[469,382],[827,-738],[350,106],[61,258],[170,151],[119,296],[383,-261],[429,-103],[64,-171],[-97,-442],[168,-399],[-135,-193],[-41,-233],[241,-349],[452,-88],[464,-336],[637,-10],[157,-40],[48,-116],[-152,-196],[-718,-514],[-485,-50],[-164,-93],[-196,-765],[58,-502],[-266,-288],[134,-166],[396,-3],[124,66],[203,484],[269,193],[173,-23],[279,-379],[533,-32],[1015,235],[274,143],[264,271],[286,482],[384,1418],[-81,1716],[-305,723],[28,203],[158,120],[439,-128],[748,-519],[946,62],[23,-190],[-129,-537],[603,-813],[28,-798],[58,-73],[208,7],[378,477],[229,-40],[160,-271],[-107,-532],[38,-296],[416,-537],[515,-259],[304,58],[102,228],[-3,269],[-548,379],[-197,231],[-8,338],[236,279],[-132,484],[51,118],[495,10],[408,-387],[599,33],[725,-653],[262,-115],[258,113],[599,471],[320,-2],[193,-161],[20,-805],[210,-367],[673,103],[10,183],[-155,397],[71,334],[203,486],[203,143],[224,20],[314,-436],[358,-101],[53,-153],[-891,-630],[-142,-466],[180,-261],[931,-133],[226,-146],[31,-140],[-122,-480],[43,-406],[-84,-261],[48,-183],[388,-389],[312,0],[343,346],[170,324],[-355,296],[0,143],[363,0],[281,-261],[0,-239],[-216,-351],[165,-738],[-416,-619],[13,-246],[477,-191],[342,-484],[231,-166],[482,-148],[659,-485],[198,31],[-324,489],[60,118],[183,55],[1020,-63],[545,371],[178,-40],[588,-833],[214,-469],[30,-683],[-130,-251],[-563,-291],[-41,-178],[254,-251],[424,-57],[104,92],[46,465],[91,155],[274,43],[99,-126],[76,-441],[-97,-1042],[-238,-75],[-589,213],[-89,-25],[-66,-160],[41,-163],[282,-204],[235,-379],[307,-195],[607,55],[1773,634],[112,153],[-160,178],[-406,48],[-383,-93],[-226,33],[-152,176],[-20,286],[160,170],[335,78],[314,13],[335,-123],[135,105],[208,391],[162,46],[109,-48],[13,-477],[175,-268],[388,-179],[1157,8],[241,-429],[756,-505],[223,-294],[363,-87],[119,203],[51,344],[264,496],[88,409],[148,20],[281,-461],[175,-106],[353,28],[165,195],[25,492],[203,520],[-89,110],[-568,258],[-66,184],[84,233],[350,83],[1017,-179],[711,183],[1083,743],[208,263],[193,485],[87,50],[355,-51],[276,83],[231,472],[315,195],[139,229],[-152,645],[56,396],[-185,366],[-5,184],[170,7],[419,-213],[474,45],[-41,-525],[101,-96],[209,142],[155,456],[-170,535],[-180,153],[-518,-113],[-119,324],[104,953],[543,374],[43,552],[257,35],[472,-342],[595,87],[278,-182],[173,0],[274,1280],[262,207],[540,129],[-64,501],[85,125],[506,103],[810,-25],[308,-174],[396,-596],[232,-191],[156,62],[89,187],[-308,629],[63,174],[228,13],[194,-187],[106,-386],[116,-1636],[122,-539],[578,-808],[186,-389],[-17,-448],[-169,-451],[177,0],[300,253],[110,488],[265,29],[173,-252],[-228,-477],[-194,-87],[-67,-203],[76,-244],[299,-133],[511,203],[375,-108],[928,-754],[63,-368],[-164,-150],[12,-132],[346,-133],[1628,95],[396,-157],[157,-149],[231,-472],[-189,-663],[514,-394],[-42,-568],[333,-505],[30,-597],[173,-327],[750,-79],[460,-410],[612,-390],[215,-116],[354,-12],[274,215],[9,170],[-85,100],[-223,99],[-755,-33],[-262,269],[-63,187],[72,170],[632,240],[232,373],[279,16],[1164,-940],[291,-79],[367,113],[211,-186],[101,-294],[-110,-709],[-177,-95],[-409,145],[-67,-104],[84,-248],[203,-87],[409,78],[624,659],[949,145],[856,328],[329,223],[304,21],[29,-162],[-308,-414],[42,-646],[266,-435],[527,-257],[101,-154],[34,-103],[-126,-340],[-350,-290],[-30,-124],[257,-170],[528,-141],[8,-249],[-156,-261],[76,-207],[274,-108],[304,241],[130,-241],[59,-513],[178,-220],[223,71],[72,745],[126,116],[156,-8],[220,-327],[223,-1011],[190,-261],[392,-83],[329,298],[388,58],[245,-54],[409,-290],[84,-315],[186,-257],[114,38],[67,352],[211,0],[203,-568],[400,-223],[160,-179],[38,-418],[-147,-323],[-118,-91],[-190,-71],[-143,42],[-388,331],[-114,-137],[379,-683],[388,-332],[397,-124],[135,-124],[-102,-233],[-375,-211],[97,-211],[675,-13],[620,-509],[316,-83],[165,161],[84,539],[-270,1140],[333,62],[232,-236],[110,-365],[873,-862],[173,-50],[152,137],[337,-236],[262,-779],[333,-232],[152,-481],[147,-33],[144,153],[21,365],[92,170],[232,21],[186,-120],[207,-763],[-51,-306],[-55,-121],[-131,-49],[-447,62],[-80,-54],[-25,-207],[531,-423],[793,274],[308,-150],[13,-87],[-274,-455],[-688,-253],[-122,-170],[25,-108],[578,-344],[595,-91],[185,-116],[9,-203],[-346,-410],[76,-257],[143,-153],[253,-96],[253,92],[241,240],[198,-54],[-42,-199],[-620,-692],[25,-315],[84,-95],[283,21],[540,447],[223,33],[207,-132],[135,-531],[481,-269],[156,-539],[-85,-476],[-177,-274],[-4,-339],[266,0],[396,348],[253,-104],[127,-161],[8,-179],[-105,-178],[-549,-306],[-139,-195],[-8,-187],[198,-211],[232,-108],[1097,-157],[345,91],[604,489],[253,37],[725,-853],[55,-402],[-173,-232],[-152,-13],[-409,232],[-202,21],[-388,-178],[-144,-220],[-131,-1230],[127,-241],[388,-393],[46,-203],[-92,-241],[-325,-157],[-506,66],[-405,-70],[-198,-145],[-51,-249],[97,-360],[148,-125],[168,13],[287,244],[219,-41],[452,-435],[346,-203],[210,-448],[270,-178],[502,75],[574,464],[434,-46],[93,-128],[-84,-299],[-473,-402],[-295,-443],[-557,-518],[224,-530],[42,-298],[578,-639],[-224,-261],[-177,-12],[-223,124],[-76,-49],[-110,-166],[63,-174],[232,-166],[350,87],[186,-33],[249,-232],[29,-124],[-261,-174],[-452,33],[-122,-100],[25,-294],[245,-133],[477,361],[147,-41],[177,-228],[5,-208],[-359,-493],[4,-252],[85,-100],[194,37],[152,431],[172,-16],[72,-199],[-139,-394],[55,-211],[1092,-365],[1168,299],[1131,808],[274,294],[244,16],[313,-95],[168,-99],[93,-207],[-287,-394],[-42,-265],[245,-721],[156,-224],[278,-166],[354,133],[405,-87],[418,-419],[240,-635]],[[1468057,1457619],[81433,-1992],[53,78],[-69,170],[154,52],[4,127],[-356,468],[47,147],[-60,208],[208,13],[230,-163],[151,10],[79,94],[-62,244],[237,88],[29,267],[175,176],[-92,107],[26,237],[-138,130],[-335,10],[-355,-176],[-203,88],[-34,147],[261,472],[282,91],[157,224],[1072,842],[147,426],[203,191],[-165,625],[-246,78],[-246,-80],[-90,74],[102,220],[240,17],[60,82],[-39,90],[-183,70],[62,173],[-74,103],[72,73],[183,-20],[40,92],[-365,372],[209,424],[-832,356],[-189,212],[-34,158],[-188,71],[48,278],[-345,217],[-55,243],[127,57],[19,109],[-136,185],[15,194],[-480,334],[-129,414],[-126,4],[-202,-135],[-261,36],[-585,331],[-77,-80],[183,-273],[-522,-199],[-97,123],[228,186],[-18,91],[-454,-51],[-242,69],[66,125],[246,94],[-75,534],[224,20],[52,85],[-255,416],[-244,163],[106,214],[-56,128],[-475,87],[34,229],[-243,-80],[-316,72],[-286,-121],[-307,72],[-258,-262],[-407,197],[-9,185],[179,280],[-28,189],[243,37],[-88,222],[152,-21],[58,66],[-397,332],[-275,119],[-3,116],[225,334],[-28,160],[-164,-23],[-345,-240],[-600,585],[86,552],[-242,478],[-28,232],[241,507],[-283,7],[-172,153],[-16,415],[-301,450],[-49,362],[-187,288],[55,385],[-53,551],[-506,794],[-134,477],[-386,431],[8,435],[-275,431],[71,223],[-173,471],[94,555],[-590,1064],[106,257],[16274,-2]],[[1573199,1479545],[-161,-373],[13,-114],[131,-5],[37,-75],[-105,-250],[409,5],[188,-234],[-23,-108],[-274,-227],[-9,-123],[247,-316],[301,-117],[388,14],[135,-167],[-32,-187],[-470,-24],[-253,-278],[-209,-52],[-81,-148],[119,-109],[478,-12],[77,-122],[-472,-281],[-112,-236],[247,-1471],[-46,-253],[232,-82],[574,183],[265,-188],[-26,-148],[-511,-361],[-129,-255],[164,-69],[412,179],[508,18],[27,-198],[-401,-658],[50,-75],[99,41],[371,527],[112,14],[136,-106],[84,-299],[-63,-447],[59,-279],[168,-247],[191,151],[120,-9],[213,-298],[-207,-226],[236,-235],[-79,-449],[52,-101],[229,-56],[283,221],[249,-73],[207,57],[70,-380],[-130,-482],[138,-147],[561,-198],[44,-123],[-79,-251],[326,-246],[153,-470],[532,-344],[-14,-146],[-811,-360],[91,-455],[174,-37],[286,259],[-196,-334],[-20,-228],[68,-98],[159,46],[128,420],[109,75],[375,-44],[335,-148],[29,-176],[-465,-206],[-51,-80],[58,-90],[216,67],[427,-25],[202,80],[139,-174],[286,107],[-6,-96],[-433,-449],[140,-65],[236,146],[202,-2],[250,-403],[249,-31],[138,-227],[492,-347],[45,-123],[-99,-340],[87,-80],[229,4],[-7,-194],[161,-117],[-163,-263],[52,-315],[421,-269],[458,-936],[430,-296],[458,-100],[237,-219],[478,-242],[688,83],[272,117],[413,-25],[214,-92],[268,119],[89,-81],[-25,-334],[85,-79],[303,-30],[66,-96],[-289,-373],[34,-105],[198,-117],[39,-321],[97,-21],[124,115],[74,-257],[718,-225],[85,-117],[-85,-157],[421,-240],[202,-330],[508,-175],[366,232],[241,46],[212,-90],[479,29],[13,-96],[-141,-127],[124,-279],[-68,-287],[64,-297],[-382,32],[-93,-160],[633,-709],[510,-237],[303,-623],[227,40],[147,-80],[-56,-419],[62,-121],[354,251],[339,-117],[448,92],[103,-37],[129,-313],[289,-36],[383,163],[288,231],[504,-159],[92,-361],[363,-330],[194,-19],[418,136],[355,-110],[84,-155],[61,-598],[294,-362],[171,-103],[231,265],[136,-1],[64,-133],[-151,-313],[291,-313],[427,-122],[224,-183],[49,-208],[-69,-217],[266,-105],[33,278],[236,-159],[98,-298],[-102,-77],[-4,-128],[334,-294],[73,-347],[-133,-211],[-199,-60],[-222,-210],[-22,-443],[71,-60],[248,97],[49,-657],[285,-102],[234,-202],[209,-104],[214,32],[831,-215],[158,50],[207,355],[113,-35],[24,-154],[332,-86],[243,234],[-329,6],[355,390],[168,-59],[466,-459],[159,-65],[72,59],[0,314],[523,195],[233,-240],[267,21],[89,-225],[691,74],[156,-323],[472,-192],[99,225],[-180,216],[-27,157],[159,17],[126,-257],[759,-450],[-129,-529],[-311,101],[-71,-69],[388,-224],[45,-335],[706,-6],[-129,-473],[78,-290],[141,-3],[188,287],[197,80],[-30,-509],[-170,-239],[45,-83],[251,-92],[173,-228],[386,-245],[127,30],[110,173],[274,0],[280,-196],[526,-71],[59,-106],[-278,-73],[28,-83],[393,56],[70,-62],[-91,-171],[-282,-102],[183,-98],[179,-411],[304,-208],[387,104],[695,-21],[-52,-154],[-230,-106],[-44,-117],[358,-644],[-60,-665],[58,-137],[285,-132],[596,45],[291,-96],[107,-306],[215,-248],[281,-92],[613,-38],[1095,-1019],[212,-30],[432,186],[435,51],[467,-75],[245,-158],[226,-276],[385,-735],[772,-692],[371,-467],[312,-564],[801,-814],[199,-506],[284,-417],[-48,-669],[395,-189],[644,-36],[479,-434],[83,-217],[-8,-627],[93,-311],[146,-241],[427,-390],[191,-343],[14,-343],[-141,-250],[78,-451],[328,-68],[686,47],[551,-144],[945,50],[301,-49],[220,-163],[850,-1345],[112,-482],[262,-18],[419,-171],[68,-138],[-145,-209],[-72,-703],[-305,-416],[-197,-119],[-91,54],[132,339],[-165,256],[-71,410],[-190,119],[-49,-899],[-74,-198],[-118,-106],[-64,147],[-104,41],[-222,-277],[-143,-391],[-198,155],[8,-250],[157,-321],[672,-399],[484,-152],[134,-247],[-74,-388],[-217,-177],[55,-174],[-88,-230],[-703,84],[-502,372],[-220,-100],[74,-193],[772,-533],[0,-339],[150,-464],[-285,-541],[-382,-138],[-115,-130],[-17,-112],[201,-421],[-44,-260],[-201,-280],[-395,-144],[-85,-127],[129,-188],[357,-68],[255,-439],[285,-144],[-63,-185],[-186,24],[-341,-749],[49,-214],[269,-71],[157,-177],[123,-624],[-49,-179]],[[1911311,1438075],[-64,-520],[-79,-120],[-27106,-30908],[-29060,-35306],[-30541,-5206],[-62776,-10910]],[[1435315,1601712],[-53,-173],[-553,-707],[-139,-88],[-281,-3],[-212,-225],[-60,-268],[-176,-220],[42,-250],[-291,-330],[-165,-339],[-14,-258],[142,-512],[-41,-382],[-228,-290],[-201,-620],[-899,-1603],[-1214,-1375],[-530,-861],[-290,-1128],[884,-1273],[6,-315],[-119,-404],[70,-399],[422,-521],[357,-703],[2,-155],[217,-267],[51,-312],[462,-544],[-40,-270],[257,-1046],[158,-284],[111,-645],[128,-246],[-123,-368],[5,-239],[315,-416],[-341,-382],[82,-380],[370,-416],[242,-429],[125,-689],[111,-145],[245,-115],[93,-454],[639,-635],[205,-92],[127,-628],[-149,-675],[81,-261],[329,-250],[667,-177],[429,-599],[313,-184],[162,-401],[-58,-331],[128,-160],[11,-150],[-153,-163],[-30,-333],[-211,-228],[-93,-479],[-315,-404],[-174,-857],[166,-339],[-148,-254],[-34,-239],[-286,-468],[-44,-264],[-1243,-1165],[-112,-180],[-20,-245],[-310,-471],[-562,-569],[-778,-166],[-265,-612],[-407,-400],[-91,-184],[-203,-132],[-719,96],[-457,-124],[-135,-196],[-472,-107],[-650,-340],[-928,-224],[-1197,157],[-270,166],[-329,0],[-410,166],[-101,-75],[-85,-248],[-152,-67],[-506,58],[-1569,-480],[-227,-191],[-363,25],[-464,-323],[-368,41],[-202,116],[-707,60],[-326,-217],[-655,-15],[-168,-174],[-151,283],[120,175],[-12,119],[-249,37],[-400,-90],[-1169,38],[-299,-248],[-555,12],[-1013,-290],[-283,-260],[-386,228],[-353,50],[-332,-146],[-206,-478],[-365,-54],[-200,-235],[156,-310],[-40,-640],[-355,-267],[-278,76],[-134,-236],[-448,6],[-432,-101],[-287,-413],[-119,-516],[-414,-233],[-151,-51],[-587,199],[-264,-134],[-174,233],[-1104,404],[-734,124]],[[1475606,1519507],[-351,358],[-191,16],[-236,-80],[-323,-336],[-337,-178],[-579,-3],[-786,161],[-211,167],[-11,370],[-247,450],[-1270,291],[-497,556],[-612,410],[-667,-219],[-380,22],[-598,-539],[-469,157],[-129,92],[278,838],[-110,173],[-424,17],[-850,-164],[-779,87],[-363,-125],[-422,7],[-503,-167],[-105,136],[-42,330],[-524,785],[-362,273],[-207,-20],[-308,-272],[-485,-66],[-684,563],[-415,-109],[-695,387],[-215,-169],[-200,-27],[-674,355],[-268,-70],[-969,-536],[-244,-14],[-559,171],[-489,-164],[-297,-12],[-230,85],[-354,294],[-395,63],[-449,-233],[-475,54],[-406,198],[-180,246],[-411,280],[-370,104],[-810,465],[-426,750],[-96,843],[-121,98],[-416,48],[-218,269],[-183,92],[-598,-282],[-324,73],[-1114,1172],[-272,174],[-355,19],[-627,700],[-282,-10],[-406,-287],[-407,143],[-979,1372],[-250,41],[-282,-113],[-656,82],[-1355,-512],[-313,123],[-166,174],[-250,748],[-417,153]],[[1442204,1530835],[-271,174],[-125,215],[-521,185],[-125,276],[-574,266],[-1062,277],[-1011,-41],[-699,71],[-521,318],[-166,256],[-615,-62],[-480,174],[-648,451],[-562,-21],[-897,707],[-771,92],[-615,-31],[-479,-153],[-521,-297],[-1594,768],[-428,51],[-465,164],[-1010,20],[-178,205],[-52,389],[313,348],[94,358],[-73,246],[-334,450],[-41,338],[83,585],[-656,461],[-146,194],[-21,707],[-73,102],[-782,399],[-500,133],[-604,389],[-603,103],[-1709,809],[-239,225],[-84,624],[-250,615],[-344,-31],[-542,215],[-323,389],[-292,225],[-427,154],[-458,389],[-782,133],[-948,-410],[-302,-235],[-365,113],[-688,624],[-1167,-143],[-282,164],[-323,760],[-479,154],[-73,389],[-156,266],[-1292,-194],[-344,552],[-594,482],[-365,-41],[-440,-860],[-83,-41],[-1188,0],[-698,522],[-146,0],[-553,-410],[-323,-112],[-437,-11],[-573,226],[-605,-420],[-62,-850],[-188,-102],[-657,174],[-145,0],[-271,-184],[-115,20],[-1092,420],[-563,-297],[-615,461],[-104,245],[10,318],[-104,143],[21,584],[125,245],[52,563],[302,369],[-52,706],[542,942],[-62,287],[73,219],[1215,707],[156,163],[198,543],[104,102],[813,226],[250,256],[104,286],[282,-31],[94,103],[-42,102],[73,256],[292,246],[-42,102],[-229,103],[-32,512],[-187,163],[-11,215],[615,400],[157,301],[104,491],[-73,225],[-209,185],[-440,198],[-421,553],[-7,125],[239,213],[68,487],[283,231],[232,597],[190,166],[-169,559],[-176,152],[-147,808],[-338,186],[-14,263],[366,421],[457,228],[1251,356],[140,352],[-21,179],[-499,857],[-14,228],[831,1052]],[[1384470,1311451],[236,1152],[2970,8763],[785,-600],[165,-466],[436,18],[172,-143],[165,-513],[140,-164],[1008,-38],[288,-312],[537,-39],[351,-302],[333,-80],[660,334],[408,746],[449,476],[-11,338],[1911,1285],[5,238],[-118,320],[-585,223],[-106,287],[78,196],[154,121],[545,0],[264,121],[87,156],[-14,221],[-203,134],[-246,17],[-222,-259],[-214,14],[-331,494],[88,190],[130,59],[127,-35],[137,-269],[190,-59],[752,187],[49,421],[-288,131],[-92,183],[180,449],[-50,656],[-221,79],[-250,-317],[-151,3],[-42,173],[236,197],[130,266],[-109,448],[-144,183],[-85,-3],[-253,-225],[-161,-27],[-60,155],[239,232],[28,148],[-176,418],[-239,169],[-393,17],[-239,149],[-102,480],[-201,345],[-928,432],[-311,-40],[-157,398],[-438,61],[-62,183],[424,412],[73,433],[-46,141],[-489,313],[-38,215],[113,202],[141,16],[911,-231],[192,85],[-68,266],[-127,140],[-502,316],[-347,120],[-83,122],[27,173],[389,656],[232,141],[790,47],[1127,441],[190,338],[105,597],[81,67],[443,-48],[211,119],[41,529],[268,292],[-11,77],[-557,987],[-422,172],[-170,158],[4332,1475],[3051,-8504],[8811,-1313],[3768,9790],[8459,-455],[494,-682],[127,-575],[753,-80],[-10,-550],[702,40],[185,-84],[27,-281],[-146,-325],[5,-205],[116,-165],[516,-175],[620,-1937],[4081,975],[303,-531],[616,-513],[359,-1],[105,-237],[352,-207],[1194,-143],[636,-519],[399,-215],[155,-443],[308,-247],[318,-10],[606,305],[1007,38],[366,-500],[14,-243],[140,-110],[218,-32],[144,-184],[89,-519],[211,-253],[425,355],[352,-10],[752,293],[101,-24],[490,-293],[-55,-308],[96,-447],[-72,-615],[-90,-181],[-356,-273],[-1015,-95],[-223,-284],[-42,-234],[329,-479],[152,54],[235,-83],[514,-9],[986,-210],[746,27],[88,-146],[455,-325],[240,-321],[396,-262],[131,-396],[42,-1008],[860,-1046],[446,-1017],[-9,-296],[188,-133],[280,-26],[240,-756],[-87,-829],[-110,-189],[-332,-210],[-415,30],[-499,-451],[-70,-155],[188,-120],[180,-563],[157,-206],[358,-172],[363,-21],[40,-82],[-22,-580],[175,-502],[-398,-859],[-35,-245],[135,-30],[372,245],[682,-133],[153,-189],[142,-619],[7218,971],[16719,10446],[30774,-3119]],[[1442204,1530835],[2,-342],[-532,-356],[-548,58],[-860,-67],[-279,125],[-1273,273],[-228,-315],[244,-514],[-177,-223],[-978,-846],[-177,-248],[-245,-75],[-1257,17],[-329,-91],[-135,-166],[0,-365],[-194,-472],[-151,-174],[-245,157],[-380,705],[-177,66],[-160,-17],[-346,-265],[-337,108],[-245,273],[-818,-198],[-169,-133],[-152,-398],[-742,-613],[-76,-232],[-194,-83],[-295,240],[-253,83],[-818,-431],[-110,-141],[-126,-497],[135,-190],[-26,-216],[-211,-240],[-447,166],[-565,389],[-143,-8],[-810,-986],[-1029,215],[-439,282],[-219,8],[-540,-505],[101,-688],[-194,-158],[-531,249],[-363,-133],[-599,125],[-345,455],[-346,-49],[-279,-265],[-8,-191],[481,-555],[50,-191],[-59,-182],[-590,273],[-304,-356],[-320,-58],[-245,323],[-194,91],[-515,-91],[-573,91],[-439,-41],[-59,-263],[-228,-224],[-84,-331],[169,-456],[-9,-166],[-708,83],[-287,-107],[-135,-150],[-76,-663],[-447,125],[-143,-232],[-9,-680],[203,-439],[-42,-423],[-144,17],[-481,315],[-177,-17],[-202,-248],[-59,-655],[152,-779],[-237,-290],[-118,-406],[-168,-124],[-498,-9],[-700,332],[-498,-216],[-312,-356],[-725,-1467],[-253,-240],[-304,-149],[-447,107],[-928,-91],[-810,-356],[-725,-91],[-616,-299],[-590,-91],[-93,-190],[0,-589],[523,-489],[0,-232],[-194,-298],[-228,-66],[-717,439],[-287,25],[-995,-680],[-2041,-323],[-3585,323],[-1198,-107],[-1004,49],[-219,-83],[-67,-124],[-338,-33],[-624,232],[-194,-8],[-203,-116],[-303,58],[-405,-299],[-481,473],[-1442,-506],[-608,365],[-9268,-442]]]}
