{"type":"Topology","bbox":[-81.73562055563167,12.480297449868868,-81.34909390461243,13.394727762020977],"transform":{"scale":[0.000003385120954067422,0.0000034456095261769775],"translate":[-81.73562055563167,-4.229406466336059]},"objects":{"MGN_ADM_MPIO_GRAFICO":{"type":"GeometryCollection","geometries":[{"type":"MultiPolygon","arcs":[[[0]],[[1]],[[2]],[[3]]],"bbox":[-81.73562055563167,12.480297449868868,-81.68706099554558,12.601066063761373],"properties":{"dpto_ccdgo":"88","mpio_ccdgo":"001","mpio_cdpmp":"88001","dpto_cnmbr":"ARCHIPIÉLAGO DE SAN ANDRÉS, PROVIDENCIA Y SANTA CATALINA","mpio_cnmbr":"SAN ANDRÉS"}},{"type":"MultiPolygon","arcs":[[[4]],[[5]]],"bbox":[-81.39624863950259,13.320340497960341,-81.34909390461243,13.394727762020977],"properties":{"dpto_ccdgo":"88","mpio_ccdgo":"564","mpio_cdpmp":"88564","dpto_cnmbr":"ARCHIPIÉLAGO DE SAN ANDRÉS, PROVIDENCIA Y SANTA CATALINA","mpio_cnmbr":"PROVIDENCIA"}}]}},"arcs":[[[13942,4869668],[-246,229],[-45,147],[55,50],[112,16],[214,-151],[-6,-249],[-84,-42]],[[13848,4870567],[-2,1],[-2,8],[-10,8],[-1,13],[-7,13],[-5,5],[-26,23],[-9,8],[-5,8],[-2,9],[-1,11],[0,5],[4,5],[3,3],[5,5],[4,1],[10,0],[12,-6],[4,-6],[9,-12],[19,-23],[2,-3],[8,-19],[4,-15],[1,-23],[11,-4],[-17,-16],[-9,1]],[[9283,4882798],[92,27],[119,-122],[229,-460],[270,-104],[404,-346],[102,-653],[450,-550],[802,-320],[768,-189],[78,63],[-55,-93],[263,-211],[520,-256],[288,-74],[93,63],[-17,-128],[69,22],[118,-143],[106,37],[127,-263],[103,-83],[45,54],[88,-305],[-126,-20],[-8,-67],[-149,25],[166,-147],[-119,-17],[42,-91],[-58,-56],[-51,111],[92,93],[-53,37],[-116,-7],[26,-144],[-186,58],[-194,-183],[-126,2],[-50,118],[-143,32],[-87,-160],[-49,107],[74,33],[-178,96],[-91,-82],[-42,59],[-23,-155],[-56,16],[65,138],[-187,86],[-306,-92],[12,-135],[123,15],[-108,-36],[-141,-16],[119,35],[-117,9],[62,112],[-288,-106],[-405,30],[-87,-98],[-23,67],[-189,-101],[-27,-102],[-109,12],[-60,-102],[84,-72],[-235,47],[-494,-455],[-888,-514],[-125,-296],[898,-685],[132,-609],[-455,-52],[-51,-339],[-166,-81],[-46,-124],[-122,168],[-360,227],[-36,-46],[-722,251],[-19,100],[136,31],[596,-100],[41,132],[-552,202],[-318,291],[-151,42],[-35,-60],[149,-48],[-131,-392],[78,-90],[-124,59],[19,-171],[224,16],[26,-120],[152,-34],[-25,-157],[285,-103],[28,-250],[117,-29],[75,263],[197,120],[282,-214],[-65,-92],[-82,41],[190,-321],[425,38],[51,-103],[236,36],[103,-88],[-131,-583],[-118,-22],[-135,100],[-181,-118],[-166,47],[86,-28],[1,-86],[-128,-149],[-566,142],[-363,-99],[-250,27],[-206,-191],[81,-170],[-98,-99],[132,-289],[756,-17],[-49,62],[56,19],[207,-143],[-73,-248],[59,-698],[-53,-72],[115,-673],[-210,-403],[36,-252],[-101,-583],[50,-93],[-88,-241],[118,-343],[42,-521],[121,-138],[45,-679],[-100,-135],[-572,-142],[-566,-542],[94,-512],[-110,-1154],[43,-102],[159,2],[144,-131],[-255,-353],[168,-223],[133,-52],[-209,-533],[-246,-328],[45,-144],[-93,-98],[-58,71],[-61,-58],[-8,-202],[-374,-296],[-149,-299],[-131,-18],[-282,-312],[-290,-82],[-118,-139],[-176,-721],[-25,-735],[-155,-394],[-1,-473],[-178,-925],[6,-679],[-317,-919],[112,-333],[2,-433],[-381,-411],[-86,-226],[-89,27],[-94,-223],[-35,-478],[-288,-691],[-529,-792],[-123,-640],[-195,-173],[-448,-1031],[-684,-952],[-324,-751],[-445,-562],[-560,-155],[-595,511],[-343,137],[21,458],[-214,581],[-205,161],[-161,387],[57,489],[-149,80],[-21,292],[37,1156],[144,587],[617,942],[501,575],[407,774],[135,715],[-25,295],[-172,258],[-62,568],[162,1781],[157,297],[-71,301],[170,257],[-105,257],[133,509],[-298,233],[-56,493],[104,-199],[99,-36],[205,229],[348,162],[-35,159],[-797,-100],[-242,275],[-289,37],[-18,65],[-602,193],[-470,781],[133,570],[385,646],[147,347],[7,291],[235,446],[-19,512],[260,583],[66,351],[-53,349],[140,79],[5,209],[411,266],[60,178],[-3,182],[-218,73],[-248,274],[-83,584],[-312,1049],[423,1022],[495,542],[423,298],[120,325],[849,815],[267,441],[271,105],[-98,389],[-12,530],[116,38],[149,382],[-101,117],[57,263],[-167,429],[202,269],[13,342],[-95,406],[268,481],[1074,1259],[313,134],[690,566],[647,868],[943,938],[340,259],[184,13],[909,393],[87,-39]],[[13629,4884078],[-197,-75],[-164,94],[266,515],[144,-71],[91,-342],[-140,-121]],[[109681,5112308],[142,-436],[348,-325],[79,-858],[204,-269],[513,-141],[674,66],[658,-132],[331,-337],[25,-233],[-215,-477],[-432,-518],[-524,-429],[-60,-276],[275,46],[150,-120],[-98,-285],[-252,-170],[5,-168],[319,32],[286,-725],[181,-100],[1,-81],[-107,-8],[-80,-119],[44,-107],[182,-15],[-11,-99],[148,-67],[7,-201],[305,-360],[6,-217],[-836,-56],[-220,-253],[188,-80],[290,215],[413,147],[176,-147],[301,52],[652,335],[202,16],[232,-323],[-183,-1118],[-279,-206],[-276,-11],[-618,-312],[-457,-116],[-468,-414],[60,-228],[143,12],[128,-186],[-190,-725],[53,-597],[249,-752],[-7,-310],[-224,-373],[-104,-505],[-555,-806],[-304,-594],[-105,-450],[-296,-165],[-152,54],[-695,-95],[-467,-182],[-548,-39],[-472,-172],[-194,-189],[-227,-381],[7,-111],[-264,4],[-170,-239],[-147,41],[-102,-349],[-174,19],[-71,-85],[-369,-677],[-703,-444],[-573,-115],[-228,168],[-647,-91],[-1071,-535],[-89,-268],[-238,-177],[-975,185],[-253,145],[55,94],[-72,397],[-529,884],[173,255],[38,314],[-82,191],[57,114],[211,56],[116,308],[-235,916],[-307,426],[-43,554],[-125,175],[-701,229],[-230,211],[252,306],[74,598],[116,126],[-111,212],[232,61],[131,151],[80,351],[-60,218],[223,544],[-16,913],[-205,218],[123,311],[-121,190],[98,10],[95,260],[44,276],[-80,96],[261,410],[30,314],[251,64],[-252,7],[-5,106],[350,262],[231,377],[184,598],[199,245],[203,803],[239,9],[168,124],[366,388],[103,322],[253,243],[373,70],[377,194],[83,132],[328,-157],[425,139],[203,-466],[118,-81],[485,-132],[95,123],[200,-119],[571,134],[437,306],[581,788],[48,179],[-34,849],[-70,170],[61,403],[148,309],[-148,190],[-133,-33],[216,103],[-41,136],[215,124],[-11,98],[181,-18],[481,186],[69,132],[-50,183],[81,440],[226,-8],[327,117],[129,-116]],[[107779,5114887],[277,-185],[-31,98],[273,149],[83,-267],[-634,-558],[-122,-585],[164,-386],[-146,-406],[191,-45],[82,68],[96,-143],[37,133],[113,17],[39,-114],[254,-104],[-7,-140],[-292,-127],[-371,-914],[-190,7],[-238,141],[-414,-194],[-312,47],[-615,-265],[-21,257],[-139,88],[54,49],[-216,327],[-370,-43],[9,192],[-153,92],[-141,-20],[-21,103],[62,14],[-45,84],[-49,-37],[7,106],[-61,-50],[-112,100],[68,155],[-83,616],[340,858],[134,123],[172,-77],[110,135],[249,54],[-60,342],[86,35],[153,-84],[165,109],[290,-114],[318,199],[444,-68],[432,292],[141,-64]]]}
