{"type":"Topology","bbox":[-71.07792943969247,2.7371094909934417,-67.40980221850215,6.324316340648663],"transform":{"scale":[0.000003385120954067422,0.0000034456095261769775],"translate":[-81.73562055563167,-4.229406466336059]},"objects":{"MGN_ADM_MPIO_GRAFICO":{"type":"GeometryCollection","geometries":[{"type":"Polygon","arcs":[[15,16,13]],"bbox":[-68.81653323753727,5.302369228841728,-67.40980221850215,6.324316340648663],"properties":{"dpto_ccdgo":"99","mpio_ccdgo":"001","mpio_cdpmp":"99001","dpto_cnmbr":"VICHADA","mpio_cnmbr":"PUERTO CARREÑO"}},{"type":"Polygon","arcs":[[-17,17,18,-6,-5,-4,12]],"bbox":[-70.65202029149361,4.875819997548648,-68.81352725013006,6.2217129801781645],"properties":{"dpto_ccdgo":"99","mpio_ccdgo":"524","mpio_cdpmp":"99524","dpto_cnmbr":"VICHADA","mpio_cnmbr":"LA PRIMAVERA"}},{"type":"Polygon","arcs":[[-19,19,-1,-9,-8,-7]],"bbox":[-71.07792943969247,4.70900081233879,-70.19700248821074,5.374275654043515],"properties":{"dpto_ccdgo":"99","mpio_ccdgo":"624","mpio_cdpmp":"99624","dpto_cnmbr":"VICHADA","mpio_cnmbr":"SANTA ROSALÍA"}},{"type":"Polygon","arcs":[[14,-11,-10,-12,-3,-2,-20,-18,-16]],"bbox":[-71.07766878537902,2.7371094909934417,-67.70760146419433,5.563887546269035],"properties":{"dpto_ccdgo":"99","mpio_ccdgo":"773","mpio_cdpmp":"99773","dpto_cnmbr":"VICHADA","mpio_cnmbr":"CUMARIBO"}}]}},"arcs":[[[3148393,2649316],[92,-50071]],[[3148485,2599245],[16,-397928]],[[3148501,2201317],[11,-137346]],[[3635549,3000481],[-1450,-806],[-571,-431],[-278,-389],[-195,-601],[-516,-701],[-562,-1044],[-1138,-1524],[-552,-565],[-1723,-1411],[-2668,-1072],[-2162,-1191],[-1233,-334],[-1474,-615],[-2363,-719],[-824,-489],[-1178,-942],[-1766,-740],[-1202,-913],[-984,-528],[-1115,-437],[-1263,-679],[-1495,-562],[-2530,-379],[-1259,-693],[-1064,-775],[-1728,-448],[-1402,-80],[-1197,400],[-714,-87],[-2859,174],[-2530,-175],[-3940,-839],[-876,-391],[-2236,-169],[-5638,-953],[-3309,-35],[-2593,182],[-1655,-83],[-5386,936],[-3177,-367],[-4150,-31],[-2159,339],[-4315,1760],[-2414,131],[-1822,-579],[-3854,176],[-1949,-495],[-1588,-17],[-1883,608],[-1650,754],[-1968,671],[-2243,651],[-3087,1736],[-1122,107],[-3898,-491],[-1970,-433],[-4876,-2071],[-2565,-1358],[-1932,-666]],[[3515299,2980798],[-105,-245],[-1086,-1105],[-844,-1142],[-474,-1666],[37,-1522],[-625,-3989],[-143,-254],[-175,-790],[-176,-1290],[17,-348],[-319,-1002],[-813,-1459],[-741,-1670],[-670,-705],[-1857,-1438],[-482,-509],[-470,-279],[-582,-242],[-1411,-313],[-965,-47],[-631,184],[-854,-375],[-482,-537],[-771,-1704],[-200,-214],[-646,-1251],[-215,-825],[-195,-306],[-249,-888],[-844,-1106],[-1321,-1054],[-890,-1395],[-213,-712],[-97,-1651],[-261,-645],[-1280,-1357],[-635,-416],[-1587,-779],[-841,-630],[-315,-413],[-484,-263],[-483,-462],[-743,-1078],[-636,-1632],[-411,-1374],[-608,-1362],[-75,-389],[5,-3249],[-287,-1252],[-410,-681],[-545,-449],[-3354,-1575],[-1783,-702],[-483,-182],[-2164,-312],[-409,-194],[-817,-497],[-434,-413],[-397,-619],[-336,-912],[-88,-986],[34,-1618],[183,-619],[144,-1004],[-148,-907],[144,-860],[338,-908],[144,-1004],[-293,-907],[-974,-1335],[-1315,-2052],[-1120,-2004],[-1294,-1699],[-50,64],[-293,-348],[-587,-954],[-1378,-1832],[-2894,-2980],[-2076,-2480],[-1014,-1414],[-768,-222],[-1939,-1335],[-715,-296],[-1164,-1033],[-934,-1375],[-328,-215],[-915,-307],[-381,21],[-649,-136],[-343,-251],[-785,-369],[-684,-576],[-261,-940],[-201,-2630],[-377,-1196],[-249,-2074],[-1,-563],[-443,-1045],[-365,-541],[-469,-1161],[-1468,-2208],[-528,-512],[-935,-571],[-1684,-668],[-472,-747],[-122,-948],[-206,-383],[-287,-317],[-118,-65],[-488,30],[-488,-94],[-941,-367],[-258,-173],[-803,-1131],[-246,-671],[-1077,-856],[-1510,-1581],[-1218,-1935],[-666,-681],[-2537,-3313],[-1826,-3660],[-624,-2115],[-156,-193],[-1621,-152],[-558,-216],[-197,-247],[-9,-405],[-1185,-1888],[-873,-856],[-363,-200],[-2642,-2285],[-1577,-1012],[-2259,-1605],[-584,-248],[-1381,-304],[-1158,255],[-1059,610],[-1117,455],[-346,70],[-670,-68],[-855,-542],[-1094,-288],[-1132,-472],[-289,98],[-465,328],[-828,745],[-499,70],[-790,-55],[-1343,-573],[-1348,-923],[-372,-399],[-274,-708],[-1052,-1568],[-1072,-1071],[-681,-497],[-1951,-800],[-1090,-72],[-1166,-360],[-581,-334],[-857,-838],[-701,-382],[-631,-242],[-790,29],[-1387,-421],[-1358,-642],[-1162,-728],[-362,-112],[-347,-3],[-995,-513],[-910,-331],[-224,-21],[-785,388],[-622,65],[-747,266],[-1323,805],[-2300,688],[-4198,1783],[-608,-28],[-685,78],[-888,-83],[-736,-226],[-1031,-552],[-641,-71],[-449,-28],[-360,87],[-1027,474],[-2218,-101],[-2789,-296],[-831,326],[-1001,958],[-2482,1589],[-1503,768],[-412,67],[-488,-40],[-370,-176],[-617,-485],[-359,-462],[-356,-701],[-1697,-1497],[-993,-725],[-515,-799],[-314,-211],[-1127,-391],[-569,-505],[-364,-549],[-584,-446],[-1288,-759],[-1335,-280],[-1738,-28],[-248,-72],[-639,-346],[-523,-485],[-1053,-642],[-811,-763],[-309,-133],[-1175,-1059],[-519,-659],[-261,-804],[-68,-2199],[-124,-167],[-594,10],[-406,130],[-982,-138],[-245,-83],[-728,-622],[-1127,-341],[-2876,38],[-411,-65],[-562,-528],[-491,-752],[-684,-347],[-913,-730],[-1473,-807],[-671,-566],[-944,-417],[-378,-436],[-672,-1208],[-312,-250],[-1416,-687],[-1966,-314],[-978,-458],[-824,-516],[-1124,-1107],[-359,-155],[-868,-62],[-375,-166],[-556,-408],[-908,-838],[-311,-390],[-797,-1321],[-365,-848],[-498,-491],[-84,-768],[-886,-1258],[-219,-98],[-1024,1],[-2110,-644],[-1672,-280],[-1002,-364],[-2064,-1481],[-464,-701],[-2214,-1706],[-1955,-1814],[-736,-342],[-1102,-267],[-235,-163],[-223,-209],[-351,-651],[-338,-362],[-794,-554],[-370,-43],[-282,-218],[-125,-516],[-116,-1243],[-131,-198],[-389,-3],[-713,280],[-267,-371],[-544,34],[-542,-273],[-560,-392],[-1424,-1727],[-262,-84],[-384,37],[-485,638],[-471,-15],[-228,-170],[-351,-479],[-386,-290],[-1047,-11],[-978,-201],[-613,-357],[-317,-437]],[[3288311,2801142],[-512,-1088],[-718,-878],[-719,-1242],[-552,-681],[-1549,-1265],[-774,-1174],[-1428,-1251],[-981,-582],[-4424,-3076],[-1746,-1069],[-316,-385],[-142,-749],[-239,-619]],[[3274211,2787083],[-119,-178],[-401,-58],[-2415,343],[-706,22],[-467,-85],[-577,-353],[-1923,-1508],[-1037,-1020],[-630,-874],[-540,-1085],[116,-2567],[464,-974],[210,-1358],[216,-791],[515,-1148],[529,-1847],[280,-2407],[-40,-1038],[-282,-850],[-453,-713],[-939,-1050],[-372,-256],[-147,-440],[-456,-342],[-660,-723],[-627,-1304],[-907,-1405],[-195,-842],[-424,-641],[-238,-539],[-588,-668],[-495,-345],[-764,-279],[-991,-840],[-1029,-1111],[-1028,-616],[-732,-605],[-815,-456],[-1187,-267],[-780,-431],[-553,-682],[-388,-938],[-510,-368],[-693,-169],[-375,-298],[-861,-1030],[-964,-757],[-2412,-1261],[-966,-1059],[-529,-799],[-2685,-2388],[-1510,-1762],[-365,-177],[-1318,-1001],[-4884,-2893],[-1534,-1161],[-747,-409],[-2905,-1937],[-1315,-731],[-371,-372],[-131,-622],[-807,-943],[-407,-785],[-160,-16],[-111,283],[-231,244],[-263,31],[-478,-259],[-248,-471],[-478,-266],[-605,267],[-399,-110],[-119,-102],[-88,-251],[135,-534],[-66,-367],[-502,-304],[-1110,-1755],[-649,-537],[-634,-1140],[-324,-322],[-1101,-743],[-898,-787],[-416,-618],[-346,-357],[-317,-597],[-2141,-1581],[-1456,-841],[-822,-1068],[-350,-237],[-340,-186],[-758,0],[-1695,1115],[-942,270],[-515,-11],[-197,-54],[-1008,-701],[-943,-410],[-536,-86],[-1665,130],[-548,-140],[-723,-388],[-1107,-356],[-1649,-56],[-692,131],[-1876,-307]],[[3196976,2719405],[-325,-23],[-310,-146],[-906,-810],[-387,-126],[-682,-27],[-2375,-1463],[-1703,-824],[-629,-414],[-1165,-529],[-475,-371],[-1797,-1909],[-184,-357],[-225,-787],[-746,-812],[-87,-399],[83,-795],[-61,-1452],[-245,-1095],[-317,-570],[-406,-378],[-784,-535],[-874,-1047],[-634,-537],[-1051,-515],[-702,-908],[-197,-16],[-357,-188],[-323,-307],[-178,-299]],[[3178934,2701766],[9,-714],[300,-464],[165,-594],[208,-268],[404,-292],[320,-445],[209,-522],[559,-1867],[-166,-1087],[-296,-416],[-948,-694],[-1555,-555],[-855,-726],[-977,-1108],[-994,-741],[-66,-430],[468,-1308],[108,-816],[-206,-250],[-385,-765],[-351,-909],[-156,-841],[-1017,-2220],[-220,-874],[-318,-796],[-152,-1503],[-526,-805],[-658,-1603],[-171,-1249],[-812,-3899],[-238,-178],[-1560,-28],[-489,-106],[-573,-288],[-455,-372],[-377,-746],[-457,-1378],[-430,-783],[-847,-1074],[-455,-1452],[-307,-519],[-1326,-1253],[-644,-484],[-690,-1163],[-1073,-853],[-784,-490],[-174,-206],[-305,-816],[-269,-3156],[-261,-848],[-1967,-2209],[-2453,-3167],[-386,-277],[-631,-135],[-665,14],[-821,205],[-808,71],[-906,-134],[-917,-553],[-398,-1070],[-796,-241]],[[3318779,2036619],[1056,151],[230,538],[59,1618],[-518,1629],[-142,1059],[18,921],[424,607],[1025,834],[566,35],[707,-643],[689,-17],[1502,486],[1114,260],[1272,70],[583,139],[1414,677],[5713,761],[3808,788],[2751,947],[4416,1040],[1824,568],[1536,789],[1920,1263],[3360,1894],[1236,875],[1043,469],[1166,243],[1899,148],[1406,390],[831,538],[530,521],[778,1233],[707,2691],[167,1292],[-95,1423],[-766,2686],[-159,1233],[-214,854],[-665,1524],[-354,1198],[-17,1233],[70,625],[195,486],[371,504],[937,642],[1188,238],[579,0],[583,-64],[2404,-903],[2439,-191],[742,87],[1952,807],[2785,1705],[1248,1074],[929,1042],[608,410],[1760,505],[3252,375],[527,159],[212,278],[212,365],[89,538],[0,1667],[106,1198],[-18,1858],[-530,4601],[-161,2831],[-765,3793],[-638,2181],[-893,1978],[-672,1183],[-3453,4205],[-682,1193],[35,486],[212,469],[513,312],[495,191],[583,87],[830,-84],[1855,-381],[1362,-473],[1927,-364],[1721,-103],[2008,450],[1272,434],[813,573],[690,782],[106,329],[0,782],[-336,903],[-583,1111],[-2068,2153],[-1697,2240],[-459,486],[-1609,886],[-2156,642],[-3163,122],[-1609,-70],[-2863,-503],[-601,86],[-548,209],[-601,364],[-1095,1199],[-248,520],[-71,747],[142,764],[194,434],[283,469],[566,504],[1820,711],[884,122],[1696,0],[2740,-260],[2015,312],[1343,365],[442,260],[318,347],[177,435],[194,1041],[-212,1424],[-424,1407],[-654,972],[-972,1129],[-531,885],[-70,625],[17,365],[107,295],[636,851],[601,573],[760,573],[2721,1615],[1803,555],[1061,834],[689,677],[475,848],[-14,642],[325,1094],[383,755],[708,755],[459,736],[364,792],[136,587],[-72,963],[78,635],[160,532],[737,1209],[852,783],[1170,735],[833,145],[1234,26],[1232,-371],[649,-377],[645,-590],[559,-763],[549,-978],[857,-775],[614,-234],[1029,-4],[686,338],[1130,1079],[281,492],[120,1026],[-396,1916],[-465,903],[-927,814],[-1043,525],[-912,602],[-708,658],[-57,568],[159,1079],[601,962],[712,375],[586,161],[588,-24],[520,-164],[941,-518],[774,-660],[669,-1033],[593,-1356],[243,-1471],[19,-826],[201,-1539],[590,-1363],[614,-755],[515,-239],[1150,-374],[851,-143],[1281,141],[804,211],[1762,739],[845,525],[1463,1099],[224,275],[416,815],[706,580],[531,850],[153,541],[14,811],[-964,1454],[-2684,2885],[-1356,1100],[-1047,1268],[-135,489],[-91,923],[168,2309],[479,818],[444,542],[272,211],[957,250],[1009,9],[474,-91],[451,-421],[1210,-662],[973,-943],[284,-757],[617,-1032],[179,-554],[28,-2120],[-104,-1860],[187,-712],[244,-2166],[551,-1066],[694,-946],[695,-275],[915,24],[1724,803],[1946,1687],[439,639],[323,690],[77,1406],[0,1435],[-153,1360],[76,1285],[-769,2493],[0,1284],[-461,2645],[-1230,1511],[-2461,1057],[-1000,-75],[-1769,529],[-923,982],[-307,604],[-385,2947],[385,3324],[282,277],[102,403],[769,756],[685,362],[768,671],[716,460],[772,369],[674,214],[1633,30],[562,-78],[455,-184],[1372,-968],[1025,-966],[1522,-1818],[519,-143],[677,79],[1036,463],[429,353],[185,267],[142,1227],[237,1062],[-64,685],[-415,819],[-528,726],[-1023,811],[-682,397],[-1853,450],[-2307,2116],[-3230,2493],[-1230,453],[-692,0],[-1231,680],[-2461,2342],[-615,680],[-461,831],[-769,907],[-616,529],[-538,604],[-154,302],[-153,907],[153,604],[616,680],[7536,2040],[2076,302],[1308,1058],[538,756],[615,1284],[308,1133],[0,2040],[-615,1134],[-154,755],[0,907],[154,906],[1153,1436],[1154,529],[1076,151],[1077,-756],[744,-889],[-444,-987],[-58,-618],[-105,-130],[95,-495],[274,-603],[409,-393],[608,-398],[553,-132],[1831,-52],[3430,617],[3339,146],[963,109],[884,178],[1798,581],[1730,936],[965,420],[1541,958],[857,720],[466,544],[756,1160],[758,1362],[2321,1837],[406,150],[767,89],[813,-15],[770,-139],[1059,-568],[1459,-1307],[266,-438],[306,-324],[118,-271],[280,-1379],[18,-782],[-752,-2571],[-180,-1744],[56,-410],[345,-1050],[275,-457],[204,-192],[1398,-1004],[1016,-378],[1187,-157],[877,71],[2697,1272],[1284,1156],[4744,2087],[6082,1205],[1563,604],[782,990],[504,1432],[113,1762],[-221,1460],[-723,1708],[-1226,1323],[-2452,1710],[-2006,2040],[-501,1323],[-165,1487],[280,1377],[671,1431],[1396,769],[1674,108],[1171,-221],[3848,-1437],[2007,-608],[1840,-718],[1450,-773],[2060,-2921],[444,-1818],[445,-1268],[724,-551],[1116,-2],[3682,547],[2400,988],[1173,1100],[728,1706],[336,1487],[-54,1157],[-277,1377],[3,2533],[1174,1871],[1061,1045],[727,991],[1,991],[-445,992],[-947,937],[-1171,828],[-723,1267],[-834,1757],[-2595,2397],[-2019,1656],[-1268,1312],[-519,1027],[-344,1710],[406,1824],[1041,1139],[1156,739],[1502,112],[1328,-1],[1269,-515],[981,-628],[576,-856],[1210,-2510],[1496,-4163],[921,-1996],[921,-1654],[1038,-1597],[1268,-1199],[2597,-1200],[4847,-1945],[1444,55],[752,797],[175,1311],[-634,1483],[-3170,3823],[-1845,1827],[-3456,6616],[-344,1996],[3,1596],[637,1424],[1503,1537],[1387,682],[2136,111],[1790,-458],[1096,-971],[921,-1597],[286,-2166],[-350,-2622],[-581,-2279],[229,-1824],[980,-1370],[1038,-856],[865,-400],[1098,283],[1098,569],[1918,1694],[1087,1268],[410,1247],[24,1233],[-282,1076],[-236,2621],[-437,1500],[22,881],[557,1193],[628,837],[433,824],[324,267],[721,269],[624,717],[370,263],[558,156],[480,-29],[964,-412],[2074,-309],[709,-202],[958,-140],[1084,-391],[1917,-1324],[299,-313],[561,-835],[1658,-1420],[1539,-1065],[915,-94],[2616,92],[1635,1003],[798,837],[188,337],[45,399],[-62,869],[-117,458],[-952,2589],[-991,1037],[-341,258],[-446,188],[-1639,431],[-1119,171],[-1132,37],[-551,119],[-778,356],[-533,516],[-255,529],[-371,1169],[-158,1112],[123,331],[538,645],[536,414],[403,159],[1502,307],[948,0],[552,-163],[1425,-811],[687,-526],[1185,-589],[992,-1106],[1503,-1261],[731,-1280],[656,-939],[864,-2057],[150,-1115],[44,-4536],[206,-750],[61,-10],[1024,-69],[342,55],[820,549],[694,640],[938,1341],[832,916],[312,637],[1131,1531],[845,1880],[528,1781],[371,1792],[323,712],[286,325],[441,290],[2189,815],[612,51],[729,-127],[903,-294],[792,-425],[777,-747],[1427,-1878],[860,-784],[2071,-622],[1210,-75],[694,43],[1289,450],[523,534],[317,583],[331,1249],[93,2070],[-138,958],[78,450],[195,348],[559,446],[1146,603],[604,120],[957,-25],[612,-274],[416,-290],[593,-656],[448,-696],[177,-408],[1126,-3924],[319,-832],[279,-416],[588,-447],[252,-104],[645,977],[222,486],[648,2860],[1511,2776],[607,1451],[592,1804],[640,3063],[-37,2417],[-266,1106],[-60,783],[-468,797],[-646,1363],[-163,539],[92,3006],[-64,775],[185,951],[320,899],[526,932],[774,735],[851,537],[447,617],[107,269],[52,682],[-146,703],[-434,784],[-369,275],[-1055,340],[-920,1],[-641,-194],[-1131,-575],[-679,-632],[-425,-209],[-642,-77],[-534,102],[-393,217],[-230,491],[23,577],[296,535],[606,540],[1107,797],[517,157],[799,66],[1758,-114],[1510,-348],[1360,-457],[2793,-742],[1332,104],[2772,-863],[2351,-384],[1470,109],[1704,400],[3842,615],[1023,293],[1055,33],[735,-117],[459,-247],[439,-468],[999,-832],[268,-354],[173,-498],[176,-1240],[-44,-740],[-282,-923],[-636,-1328],[-67,-404],[231,-389],[632,-403],[871,-298],[320,-21],[748,234],[657,393],[253,253],[205,477],[255,1391],[-368,1726],[-219,2362],[925,2212],[743,2031],[1015,1876],[606,657],[2459,2208],[1276,902],[569,237],[1834,-44],[1948,-282],[1181,-329],[761,-550],[1180,-1325],[464,-962],[543,-891],[219,-583],[610,-931],[788,-2227],[416,-2006],[259,-661],[766,-1369],[476,-545],[426,-342],[2004,-1054],[1037,-187],[707,-34],[700,87],[643,261],[440,281],[442,447],[474,687],[459,1108],[226,774],[244,1492],[257,655],[1181,1305],[1162,235],[1121,-81],[919,-872],[719,-1068],[235,-2570],[640,-791],[1600,-557],[1122,235],[882,789],[1752,1946],[1932,1035],[598,589],[1369,1046],[1212,451],[1016,502],[878,652],[570,635],[819,476],[1322,195],[1202,512],[923,946],[603,1185],[284,1620],[442,1066],[300,339],[858,486],[484,432],[630,155],[853,-130],[827,-338],[364,-255],[1980,-1654],[300,-692],[267,-1851],[-21,-1429],[-268,-915],[-270,-699],[-2522,-4365],[-1086,-2646],[-365,-2173],[-204,-1778],[439,-1147],[599,-475],[840,-515],[841,-121],[1321,116],[922,354],[1083,749],[1123,1104],[1458,2667],[548,725],[844,1440],[935,2685],[172,864],[3,1212],[-202,1517],[-645,1651],[-1124,1148],[-2834,1990],[-439,847],[-400,917],[-174,942],[2,793],[178,1015],[453,668],[728,345],[1004,23],[2156,-351],[500,-13],[2371,-421],[1957,-675],[1285,-613],[286,-212],[609,-700],[393,-278],[259,-342],[177,-624],[1083,-1633],[478,-1686],[98,-1202],[-459,-3523],[83,-455],[613,-1442],[1204,-946],[668,-216],[1983,357],[651,299],[886,803],[411,523],[702,1325],[418,2125],[818,1912],[273,342],[522,412],[358,153],[378,25],[1215,-246],[1345,-628],[411,-439],[324,-868],[47,-631],[-309,-1240],[-378,-1011],[-895,-1670],[-259,-682],[31,-463],[195,-664],[300,-528],[326,-360],[890,-528],[393,-139],[753,-31],[748,120],[1295,604],[1864,1808],[231,166],[335,85],[802,-14],[541,-150],[738,-497],[860,-724],[207,-387],[191,-1078],[-154,-1173],[-344,-995],[-824,-1437],[-659,-722],[-829,-624],[-2070,-1130],[-786,-583],[-405,-438],[-143,-355],[-56,-610],[377,-1493],[733,-158],[1201,37],[638,-204],[949,-75],[1680,366],[650,219],[671,521],[824,498],[2100,954],[647,367],[532,404],[1012,1243],[2024,1800],[520,783],[1148,2359],[1088,1485],[1042,948],[1092,504],[822,176],[1789,-46],[364,-311],[489,-878],[562,-1243],[317,-1052],[40,-2970],[90,-925],[953,-2234],[372,-465],[1131,-897],[825,-402],[793,-225],[275,-1],[1053,254],[925,541],[146,224],[66,543],[532,2078],[448,1089],[456,752],[248,172],[509,143],[834,-60],[536,-142],[599,-232],[368,-258],[584,-756],[1007,-2057],[168,-552],[625,-602],[473,-302],[270,-84],[1405,47],[1938,906],[1459,976],[1476,2501],[575,761],[305,286],[834,513],[1253,1157],[459,472],[790,1031],[4084,4129],[1054,819],[1186,723],[1654,872],[1180,457],[1635,319],[1251,95],[1414,-71],[1344,-255],[928,-498],[316,-423],[2175,-1644],[1466,-981],[681,-225],[1278,-177],[681,25],[1038,327],[903,458],[477,434],[544,887],[381,714],[446,1135],[7,211],[391,1093],[-6,1696],[-289,1547],[-473,1349],[-1205,2249],[-1526,2436],[-171,490],[-18,607],[111,545],[241,597],[759,1023],[764,376],[698,135],[563,15],[556,-91],[818,-265],[793,-483],[429,-473],[375,-576],[359,-669],[214,-610],[40,-697],[-363,-2540],[-629,-1756],[-142,-619],[-220,-2912],[15,-1548],[106,-917],[497,-1327],[206,-322],[329,-278],[1732,-951],[1096,-352],[1229,-69],[1534,287],[1273,492],[866,495],[1493,1431],[714,927],[996,1060],[684,516],[1213,534],[831,497],[1234,521],[1681,328],[1627,-84],[847,-241],[2072,-842],[474,-347],[433,-469],[709,-1452],[1124,-1862],[407,-847],[287,-1085],[148,-1552],[236,-713],[292,-397],[834,-557]],[[3810209,2292781],[637,-166],[977,176],[174,84],[310,397],[220,367],[147,573],[77,889],[-39,984],[-191,439],[-515,714],[-1194,1208],[-272,371],[-242,788],[-226,1654],[-830,1411],[-1231,1640],[-1253,1091],[-747,1050],[-371,736],[-198,1058],[6,2445],[339,1585],[470,726],[403,395],[536,263],[536,65],[466,216],[503,113],[1442,40],[1158,-447],[703,-439],[787,-797],[674,-532],[669,-1221],[1079,-1135],[334,-717],[211,-257],[1667,-1402],[504,-218],[456,-95],[647,-12],[1680,200],[546,124],[1526,592],[1162,586],[959,595],[1944,816],[1185,919],[650,746],[1768,3502],[216,2085],[-350,2822],[125,737],[339,932],[581,1057],[943,980],[708,1007],[372,282],[1431,627],[517,133],[711,8],[560,-76],[534,-181],[1340,-732],[2738,-2096],[2216,-830],[1070,-290],[3878,-486],[1746,-31],[1862,326],[1662,708],[717,632],[487,298],[1454,542],[1189,144],[2080,-160],[1173,-434],[482,-385],[552,-303],[854,-1045],[906,-1285],[415,-391],[889,-374],[577,114],[825,394],[681,446],[171,1069],[30,944],[-138,526],[-313,478],[-1155,1302],[-658,460],[-1151,631],[-1630,649],[-1038,296],[-1662,323],[-858,351],[-590,450],[-538,563],[-407,582],[-376,760],[-232,664],[-75,673],[106,725],[232,625],[797,1016],[429,398],[547,236],[695,16],[544,-82],[2649,-770],[923,-505],[906,-785],[1106,-1459],[902,-1634],[217,-539],[392,-1588],[546,-1016],[1498,-1716],[901,-806],[453,-232],[829,-239],[862,-94],[599,66],[838,276],[1946,1125],[1818,1540],[521,249],[1054,300],[768,-57],[418,-122],[3241,-1834],[454,-230],[466,-56],[693,349],[104,136],[555,1120],[335,1338],[441,653],[200,175],[323,126],[862,-4],[1070,-340],[874,-527],[558,-463],[635,-804],[1492,-2192],[479,-1073],[311,-1051],[170,-290],[542,-548],[424,-278],[447,-135],[504,80],[193,89],[285,493],[292,762],[137,782],[-1127,2262],[-1051,1532],[-4294,3663],[-537,703],[-326,650],[-247,1252],[-150,1646],[221,552],[442,735],[307,328],[335,218],[916,370],[1214,203],[733,-159],[542,-252],[1338,-928],[1025,-868],[3086,-3875],[3341,-3687],[710,-646],[1254,-899],[1008,-553],[1116,-97],[1198,100],[452,121],[379,209],[686,843],[593,1427],[155,1165],[-159,831],[-384,813],[-332,361],[-1164,857],[-453,446],[-972,1398],[-214,525],[-131,554],[9,658],[114,559],[465,1111],[-88,1039],[204,563],[720,901],[1298,921],[-44,64],[2903,1554],[454,560],[744,632],[942,967],[1261,1058],[1101,558],[1471,465],[792,63],[880,-57],[699,-196],[730,-332],[1776,-1234],[1436,-1849],[272,-293],[346,-194],[760,-268],[697,-115],[479,187],[511,336],[610,708],[571,1367],[66,548],[-98,1073],[134,666],[-368,1290],[-161,298],[-501,589],[-1454,1280],[-510,877],[-87,1525],[211,1386],[424,1109],[493,658],[776,312],[1622,-35],[812,-173],[740,-277],[600,-555],[881,-900],[706,-1109],[1269,-2945],[1340,-2356],[811,-1109],[776,-727],[741,-451],[740,-277],[706,-138],[2045,450],[787,504],[447,397],[353,658],[282,728],[282,1074],[-35,1004],[-212,1040],[-211,797],[-388,727],[-1305,1455],[-1481,1040],[-1023,450],[-1516,866],[-1869,1248],[-811,415],[-2116,797],[-670,416],[-1693,1906],[-423,658],[-247,831],[-35,589],[35,693],[282,867],[1023,1489],[811,624],[1058,624],[1904,658],[1058,69],[1658,-69],[987,-208],[1093,-416],[1058,-589],[2328,-1697],[881,-485],[1587,-624],[741,-139],[1552,70],[670,138],[1093,451],[494,381],[1234,1420],[740,243],[3069,277],[1516,416],[811,935],[353,693],[141,693],[0,1039],[-212,520],[-352,520],[-953,935],[-458,347],[-1199,693],[-423,485],[-141,554],[-177,1490],[494,1559],[846,1386],[847,935],[317,520],[212,762],[70,1663],[-352,1247],[-247,451],[-212,624],[0,658],[388,623],[353,382],[529,346],[1410,208],[600,-69],[1446,-347],[1269,-658],[1481,-1317],[1200,-1212],[705,-555],[952,-519],[2081,-208],[952,34],[3174,347],[1516,277],[1728,69],[1869,-277],[1552,-416],[2257,-381],[811,-34],[3068,138],[2010,-34],[1799,-278],[1481,-658],[811,-520],[1587,-1247],[3174,-2217],[952,-416],[882,-277],[776,69],[423,277],[599,1109],[106,589],[-106,1351],[282,2737],[-35,901],[-388,693],[-423,624],[-1411,1524],[-70,381],[70,901],[283,381],[352,277],[952,35],[529,-139],[1834,-1489],[2046,-1317],[1657,-381],[2222,-35],[917,70],[1058,381],[2363,1247],[1199,797],[2292,1143],[1410,520],[1587,312],[706,34],[1234,-173],[1058,-416],[776,-727],[423,-693],[494,-866],[388,-1767],[105,-1005],[-211,-1525],[-882,-1905],[-564,-728],[-776,-797],[-1340,-1212],[-635,-762],[-388,-728],[-141,-658],[177,-624],[246,-520],[600,-866],[1270,-1143],[952,-624],[634,-277],[741,-35],[635,243],[1657,935],[882,555],[670,554],[670,728],[353,623],[458,1490],[318,2945],[317,1109],[635,1039],[1199,1040],[776,415],[1587,347],[2327,-70],[494,-242],[603,-651],[568,-1203],[175,-1331],[-87,-1590],[-350,-988],[-481,-859],[-612,-816],[-875,-1031],[-743,-688],[-175,-730],[77,-795],[-214,-499],[616,-1076],[821,-672],[890,135],[753,806],[2874,5782],[2326,5513],[1437,5848],[1779,3160],[558,914],[764,130],[1749,-172],[612,-257],[438,-473],[656,-2105],[-44,-773],[-918,-2879],[-44,-730],[87,-773],[438,-817],[578,-652],[122,-287],[958,-538],[1642,-605],[1232,0],[1232,269],[1710,605],[858,1038],[326,127],[743,43],[787,-86],[348,-113],[360,0],[1368,-807],[753,-1143],[821,-1008],[616,-471],[1985,-807],[1505,-269],[1026,-538],[1574,-134],[2122,269],[2617,566],[1478,-270],[700,-387],[874,-816],[440,-570],[665,-540],[1711,-3227],[821,-2823],[547,-3698],[-68,-1815],[68,-1076],[195,-629],[257,-229],[259,-84],[71,-141],[1207,74],[2264,297],[988,243],[-40,166],[932,203],[20,-145],[2477,423],[2038,667],[1367,355],[1048,609],[2264,1853],[1358,1557],[1179,993],[5613,6495],[4981,4894],[1358,1779],[1812,1409],[3018,2002],[732,302],[2091,1697],[2362,1460],[4722,2578],[1837,1160],[1530,1160],[1706,902],[5597,2234],[2143,644],[1967,1031],[3482,2383]],[[3148512,2063971],[188,71],[310,-82],[679,-304],[1013,-854],[1334,-1370],[143,-959],[-92,-2396],[215,-867],[275,-404],[392,-366],[1294,-1002],[981,-308],[2333,-154],[2099,-289],[1196,-366],[1451,-675],[490,-96],[490,19],[373,39],[333,135],[491,346],[764,848],[1157,1676],[589,174],[353,0],[921,-193],[647,-366],[844,-829],[862,-1387],[883,-1849],[667,-559],[274,-327],[255,-366],[294,-655],[765,-925],[529,-540],[510,-231],[1491,-77],[1706,347],[784,289],[667,501],[765,732],[1392,1580],[314,212],[392,134],[765,174],[823,38],[922,-154],[372,-250],[844,-655],[451,-636],[333,-867],[137,-1984],[-176,-2626],[-318,-630],[-608,-865],[-1804,-1403],[-941,-924],[-439,-740],[-47,-509],[156,-478],[330,-431],[1035,-971],[1302,-1557],[722,-524],[580,-293],[691,-107],[925,61],[1836,663],[1459,1973],[470,832],[518,1418],[769,3113],[94,632],[-47,1403],[-47,339],[-173,323],[-267,370],[-831,832],[-910,617],[-612,277],[-925,694],[-581,817],[-361,832],[-125,524],[-141,1665],[125,1048],[267,1094],[612,1140],[408,324],[564,108],[691,0],[643,-170],[2071,-924],[2933,-817],[596,-308],[189,-185],[486,-725],[675,-2111],[439,-1988],[345,-925],[47,-1187],[110,-508],[392,-1434],[753,-2188],[831,-1742],[550,-909],[1066,-1172],[141,-570],[157,-246],[832,-602],[423,-154],[926,-169],[816,-31],[345,46],[1427,509],[816,169],[173,201],[157,1063],[-236,694],[259,1664],[-16,555],[-141,524],[-345,863],[-1004,1942],[-533,817],[-1020,1218],[-314,524],[-188,554],[-157,1126],[16,801],[63,586],[219,832],[283,693],[533,478],[298,124],[518,0],[502,-124],[1929,-1618],[2416,-1264],[769,-755],[502,-848],[204,-555],[361,-1525],[47,-925],[-345,-817],[-1020,-986],[-973,-663],[-502,-570],[-360,-771],[-110,-832],[-424,-879],[-769,-847],[-298,-509],[110,-401],[424,-493],[94,-277],[47,-247],[-94,-570],[-408,-524],[-1381,-1095],[-282,-570],[47,-293],[220,-462],[345,-416],[1412,-848],[549,-139],[737,47],[565,185],[784,647],[691,956],[909,1726],[1679,1957],[690,1464],[361,386],[330,215],[768,278],[1851,277],[1146,940],[721,709],[894,586],[989,416],[1412,93],[1459,-108],[878,-185],[486,-293],[1428,-1125],[628,-725],[392,-570],[891,-1905],[234,-1687],[508,-2143],[-1390,-2167],[-972,-571],[-2508,-573],[-554,-316],[-496,-401],[-291,-401],[-29,-831],[116,-429],[175,-402],[409,-372],[495,-258],[1079,-172],[1167,0],[1166,229],[1488,688],[1314,486],[1681,433],[1755,650],[1390,-1],[1389,-217],[2120,0],[2267,866],[2413,1661],[1317,1227],[1795,2043],[320,790],[1184,1011],[896,474],[831,31],[352,-190],[1088,-948],[511,-1138],[407,-1858],[0,-2023],[-220,-2167],[-879,-3033],[0,-1806],[1237,-2591],[309,-319],[641,-401],[671,-286],[496,-86],[520,28],[559,172],[729,573],[612,803],[992,1547],[1808,1748],[729,1031],[963,2006],[291,1174],[234,1662],[349,659],[321,401],[438,344],[1020,430],[1225,143],[3004,-229],[963,29],[408,200],[554,688],[526,1155],[640,979],[2111,1720],[813,792],[501,964],[288,916],[65,2339],[0,1137],[-305,1093],[-706,1118],[-1866,1772],[-2201,1403],[-1157,1098],[-918,1216],[-320,784],[-186,947],[27,701],[838,1098],[639,274],[1756,-78],[2808,-729],[2023,-927],[692,-776],[427,-790],[291,-1373],[403,-3638],[-297,-3807],[0,-1098],[79,-588],[160,-549],[878,-902],[280,-902],[479,-902],[1038,-1255],[718,-509],[599,-236],[587,232],[1733,980],[608,409],[505,458],[359,627],[918,3059],[465,2426],[303,705],[185,689],[285,2485],[289,853],[448,411],[1056,600],[1408,220],[1183,-158],[640,-474],[320,-443],[402,-281],[1119,-327],[1477,-588],[1397,-902],[399,-549],[280,-628],[958,-941],[1756,-1490],[854,-560],[440,-154],[672,-63],[2015,-854],[2879,-1708],[895,-601],[698,-691],[4101,-3421],[583,-295],[477,-87],[866,-69],[1047,40]],[[3635549,3000481],[408,-505],[3062,1462],[1440,2302],[2351,1531],[3259,502],[2605,-520],[2349,1017],[4571,3190],[2869,631],[1957,635],[2731,-1931],[1818,-1672],[2072,-3979],[773,-2565],[1423,-3208],[1292,-2167],[936,-564],[2637,-324],[2269,-7],[936,-221],[1820,-1170],[911,-367],[2416,-274],[789,191],[494,241],[1110,166],[641,-2],[2020,-734],[960,-222],[2613,-106],[666,95],[335,99],[1377,1186],[3269,3577],[1309,1661],[790,2304],[265,1280],[525,1023],[1046,1022],[1906,1593],[4365,3349],[2808,2563],[1388,444],[1288,-174],[1304,124],[1013,381],[2348,-90],[330,80],[421,284],[502,1092],[726,838],[783,1462],[661,1433],[315,893],[141,693],[303,727],[810,976],[924,1377],[1081,939],[1604,1188],[482,265],[782,178],[1359,97],[1920,-58],[1946,449],[1058,562],[438,345],[580,1122],[277,822],[222,416],[590,944],[598,387],[1693,717],[1396,344],[3085,1106],[1720,367],[1437,35],[2141,653],[1106,178],[879,-31],[2624,-718],[510,-226],[459,-315],[422,-475],[360,-613],[993,-2492],[595,-1113],[1618,-1858],[540,-326],[614,-193],[1039,-73],[1337,-259],[476,-19],[5789,1237],[1993,181],[1436,-119],[758,-237],[2884,-1847],[3280,-1257],[1879,-1202],[2604,-1018],[869,-114],[1599,69],[1281,-101],[667,239],[560,-12],[2591,-814],[1499,-246],[3310,-1181],[1703,-444],[1027,-163],[2239,-91],[791,129],[686,216],[1477,605],[2225,1810],[569,268],[2287,391],[3751,326],[1437,24],[1565,-341],[596,-226],[2989,-1529]],[[3817321,3019001],[779,-404],[519,-367],[837,-954],[645,-991],[1679,-1571],[592,-934],[352,-1612],[314,-358],[432,-205],[879,-24],[1282,441],[2194,451],[2062,281],[1255,254],[951,405],[1766,514],[590,244],[1104,179],[1678,-4],[3832,-1135],[1573,-285],[2959,-129],[3278,171],[1712,-398],[905,-509],[645,-475],[149,-267],[441,-1844],[296,-733],[461,-544],[1249,-1079],[1732,-359],[799,-54],[796,79],[776,189],[2227,198],[3641,-526],[839,-254],[1852,-85],[831,217],[2228,1100],[1681,1067],[1697,1439],[769,946],[602,895],[626,610],[3035,1752],[2460,1895],[2484,867],[1652,249],[1368,13],[462,-99],[985,-534],[1025,-875],[1511,-892],[2854,-2030],[1101,-645],[1251,-256],[1519,35],[1092,247],[1426,520],[819,629],[1690,1057],[679,551],[596,637],[550,775],[410,942],[486,814],[278,905],[366,702],[566,675],[469,278],[1088,296],[1117,109],[4321,-4],[1334,263],[1943,730],[1836,-95],[2160,30],[1658,275],[1469,621],[1247,289],[721,9],[705,-143],[1840,-547],[2022,-755],[1103,-189],[1031,135],[1367,448],[1724,373],[2939,-729],[1427,-159],[1203,1],[1978,261],[1157,546],[535,153],[1116,112],[1287,-51],[445,-158],[1264,-687],[1721,-363],[2175,-796],[2683,-1411],[879,-803],[541,-331],[2025,-1124],[1617,-692],[1271,-138],[1443,27],[747,-281],[713,-89],[721,3],[1428,198],[1139,371],[2013,506],[1903,1016],[1691,1054],[1086,807],[910,883],[1873,1064],[715,511],[412,476],[1168,1697],[715,744],[1023,751],[780,172],[2911,-157],[1275,119],[3803,1222],[2854,1243],[1198,444],[1516,143],[2769,421],[2402,29],[1347,185],[2489,912],[711,341],[538,683],[571,557],[513,372],[645,328],[452,150],[1032,135],[3030,1234],[1897,298],[1397,353],[885,37],[876,-93],[1461,-647],[765,-222],[2323,2],[1114,131],[985,335],[1155,700],[1270,489],[867,152],[1201,44],[1432,-146],[2218,-679],[1561,-350],[603,-216],[240,4],[760,-434],[1695,-708],[1453,-827],[2221,-2045],[615,-726],[746,-1121],[691,-765],[900,-782],[1189,-803],[1064,-552],[842,-243],[1119,-88],[1599,112],[1302,375],[1938,944],[3365,1836],[978,334],[1031,170],[719,13],[795,-107],[1083,-288],[1198,-109],[1037,82],[1018,216],[398,265],[1372,1324],[1883,1468],[3193,1957],[1793,873],[3610,1296],[2078,1019],[1124,757],[833,734],[1470,1867],[1679,1689],[2365,3276],[466,538],[829,617],[3091,1975],[1271,955],[3387,1787],[3925,2858],[1239,999],[961,949],[1634,2429],[647,585],[1308,763],[1814,834],[7352,1918],[1119,-72],[1023,-197],[829,-306],[828,-475],[1527,-1274],[3052,-3338],[552,-455],[1349,-847],[823,-961],[724,-625],[536,-337],[1884,-675],[714,-67],[799,75],[6081,1723],[1907,226],[1748,561],[1526,120],[538,-98],[1254,-712],[1547,-648],[1232,-352],[1026,-161],[6006,-150],[1667,-211],[2571,-590],[4245,-27],[2710,-247],[2161,70],[2198,464],[396,18],[859,-181],[1143,-374],[1313,-591],[851,-595],[1194,-1042],[859,-1334],[671,-883],[1709,-1879],[432,-345],[1118,-623],[1261,-519],[775,-144],[2081,180],[3584,836],[3001,489],[1122,-35],[1164,-276],[2088,-811],[848,-457],[647,-458],[4769,-5725],[723,-737],[1403,-1173],[1802,-1175],[3517,-1706],[3695,-2500],[2046,-1079],[1383,-1073],[870,-813],[891,-1211],[1183,-1061],[675,-784],[308,-632],[22,-798],[-297,-346],[-1750,-1400],[-1885,-1707],[-1566,-1224],[-1339,-1243],[-1702,-1319],[-361,-411],[-355,-711],[-787,-2313],[-492,-1077],[-468,-1995],[-305,-2420],[65,-943],[180,-928],[293,-817],[764,-1648],[922,-1659],[1046,-1392],[1282,-1298],[669,-981],[441,-930],[333,-968],[330,-2501],[271,-1153],[770,-1285],[2738,-3980],[1206,-1367],[2582,-2118],[2367,-1750],[2341,-1203],[801,-521],[283,-288],[100,-364],[-268,-1241],[-48,-628],[58,-868],[173,-517],[606,-837],[744,-825],[1594,-1050],[1273,-1095],[313,-444],[274,-656],[364,-1457],[80,-2046],[-77,-702],[-449,-1434],[-217,-420],[-413,-480],[-1121,-889],[-1007,-492],[-1831,-573],[-1491,-574],[-2456,-1155],[-1245,-710],[-1878,-1343],[-1976,-1199],[-1498,-1058],[-877,-910],[-1038,-1403],[-471,-824],[-662,-1522],[-407,-679],[-549,-681],[-606,-505],[-3254,-1866],[-3505,-2490],[-4062,-1660],[-1650,-808],[-1360,-825],[-1565,-1229],[-1588,-1443],[-1494,-1643],[-1556,-2099],[-872,-1321],[-287,-564],[-1858,-2267],[-973,-1627],[-1061,-2556],[-994,-654],[-1157,-970],[-1625,-1003],[-3388,-2890],[-422,-467],[-732,-1037],[-1105,-1139],[-629,-1003],[-541,-2142],[-97,-938],[-16,-1342],[-280,-988],[-424,-928],[-1460,-1978],[-565,-1217],[-235,-1558],[-333,-3768],[-1207,-2998],[-350,-1536],[-91,-1098],[-896,-2530],[-249,-578],[-450,-652],[-2490,-2877],[-261,-485],[-458,-2239],[-117,-1016],[-120,-4802],[-252,-2109],[-103,-2833],[-401,-1277],[-230,-1158],[-260,-662],[-105,-700],[-24,-5589],[211,-2589],[355,-1123],[1031,-1688],[603,-1292],[63,-2198],[85,-461],[329,-804],[30,-2048],[351,-1293],[188,-1166],[360,-876],[192,-767],[648,-799],[292,-556],[574,-1725],[50,-387],[-60,-1497],[-232,-2825],[19,-867],[185,-935],[321,-619],[919,-1000],[2460,-1615],[1512,-1295],[663,-883],[416,-1020],[-69,-1105],[-161,-692],[-398,-858],[-431,-1350],[-728,-1404],[-450,-556],[-416,-368],[-1346,-504],[-785,-542],[-698,-758],[-469,-1000],[-585,-2694],[-540,-1563],[-58,-4173],[-206,-1082],[-275,-907],[-210,-423],[-1251,-1422],[-854,-712],[-566,-664],[-1970,-1204],[-998,-788],[-1856,-1229],[-2395,-2090],[-2021,-2127],[-1604,-1033],[-728,-732],[-1294,-926],[-870,-811],[-569,-294],[-1614,-451],[-3613,-687],[-736,-301],[-906,-508],[-1558,-1224],[-314,-357],[-953,-719],[-510,-497],[-633,-813],[-1656,-2606],[-431,-465],[-502,-236],[-1979,-632],[-5725,-2626],[-1589,-1059],[-3434,-2955],[-1346,-843],[-1228,-574],[-4159,-1411],[-1229,-569],[-767,-569],[-1866,-1836],[-1933,-2611],[-64,78]],[[4112593,2778025],[-692,-1152],[-1021,-1107],[-2583,-2236],[-532,-199],[-842,-544],[-1355,-1048],[-1121,-1374],[-686,-1100],[-1118,-1313],[-541,-1136],[-219,-4723],[-325,-1988],[414,-1121],[184,-886],[716,-1271],[1455,-945],[2600,-997],[520,-320],[513,-1149],[944,-936],[772,-1022],[94,-1180],[-367,-1378],[-1075,-2589],[-687,-2705],[224,-1092],[8,-1478],[267,-1796],[548,-1186],[600,-861],[218,-1670],[-554,-1388],[-1310,-1190],[-1058,-1190],[-1057,-1536],[-1166,-3835],[-389,-935],[-993,-1912],[-992,-2166],[-1166,-1954],[-216,-808],[86,-764],[302,-1275],[776,-1360],[3363,-3740],[550,-918],[2201,-4284],[956,-1637],[754,-744],[604,-942],[-202,-1537],[-51,-1984],[301,-1686],[1560,-1290],[2365,-893],[807,-1007],[0,-275],[-325,-1740],[-794,-1704],[-2957,-3869],[-505,-1917],[-1,-2485],[215,-1953],[108,-1882],[-289,-1172],[-145,-1065],[-217,-3053],[-217,-1491],[-433,-1740],[-1608,-4351],[-432,-603],[-649,-497],[-541,-674],[-577,-888],[-324,-994],[-1,-1456],[612,-2521],[-1,-2556],[251,-2308],[107,-2060],[-36,-2130],[-254,-2414],[36,-1101],[180,-1420],[756,-2060],[1440,-2912],[539,-1775],[468,-2095],[467,-3267],[-1,-2095],[-108,-1527],[143,-1207],[-37,-1811],[287,-3053],[-1191,-5539],[107,-2947],[-109,-2805],[72,-1385],[539,-3550],[215,-2947],[-73,-1953],[324,-1456],[467,-1243],[504,-781],[432,-2273],[35,-1917],[-541,-2024],[-901,-2272],[-1550,-3124],[-1046,-1739],[-2126,-3870],[-1009,-2130],[-830,-2875],[-109,-4403],[323,-2379],[107,-1882],[-649,-4225],[-20,-1994],[792,-2202],[970,-4900],[288,-2166],[-37,-1278],[-360,-852],[-2954,-2769],[-1369,-1739],[-721,-2272],[107,-1882],[1044,-2024],[2232,-2025],[1872,-1563],[5041,-1812],[1512,-747],[2736,-2060],[2700,-2806],[936,-1172],[935,-1421],[324,-1100],[0,-1243],[-289,-1882],[-840,-1775],[-681,-2598],[27,-1205],[869,-1323],[2286,-2183],[1538,-628],[1785,-588],[802,-521],[283,-997],[-23,-911],[-860,-938],[-908,-1425],[-540,-1278],[-397,-2165],[431,-2380],[359,-1384],[2340,-1812],[1367,-1812],[684,-1527],[467,-1846],[215,-1740],[-396,-1775],[-253,-604],[-1362,-671],[-1483,-333],[-2495,676],[-2696,9],[-2396,-1359],[-1445,-2345],[-490,-3500],[1089,-3656],[1375,-3113],[1782,-4442],[-416,-2547],[-811,-2092],[-239,-3217],[-653,-2236],[-48,-895],[71,-614],[106,-263],[302,-1757],[705,-1104],[1551,-1906],[1022,-1772],[1323,-650],[1444,-1950],[240,-4136],[0,-2127],[481,-1832],[1323,-2599],[353,-1474],[5649,-4529],[2147,-2166],[1166,-1751],[746,-1474],[700,-1520],[606,-2303],[699,-3224],[699,-2441],[1026,-2672],[559,-3270],[745,-3547],[1399,-3040],[605,-782],[842,-831],[383,-487]],[[4112593,2778025],[-389,291],[-1559,831],[-616,491],[-436,206],[-942,30],[-323,84],[-494,-92],[-2017,-104],[-897,-207],[-355,-187],[-189,-243],[-722,44],[-1389,723],[-223,371],[-126,420],[-659,552],[55,848],[464,1811],[308,750],[144,877],[-92,1905],[-342,609],[-507,337],[-1310,-23],[-2875,-650],[-1116,-395],[-665,-123],[-986,6],[-1795,-411],[-1662,-215],[-186,-160],[-332,-113],[-2556,-607],[-1144,-433],[-2257,-1053],[-795,-520],[-437,-540],[-215,-677],[-455,-559],[-139,-344],[-22,-1861],[110,-291],[571,-605],[114,-244],[-108,-381],[-372,-450],[-991,-29],[-616,354],[-1158,276],[-1330,-74],[-442,-151],[-315,-228],[-427,-524],[-213,-499],[-82,-359],[13,-686],[-209,-699],[-170,-296],[-202,-911],[-346,-845],[-527,-905],[-257,-948],[-343,-336],[-296,-447],[-836,-2533],[-898,-675],[-1118,-460],[-82,-129],[-403,-255],[-491,-10],[-342,172],[-876,703],[-439,687],[-751,864],[-636,924],[-421,1085],[-429,662],[-384,450],[-856,595],[-274,418],[-502,1602],[-286,1294],[-334,2342],[-287,666],[-72,541],[-447,1194],[-215,827],[-789,1772],[-701,728],[-312,221],[-2153,763],[-665,32],[-803,-223],[-952,-626],[-424,-14],[-870,-366],[-1097,-881],[-544,-558],[-748,-218],[-360,-216],[-707,-127],[-225,10],[-586,215],[-699,681],[-2023,2635],[-1399,1328],[-2538,1973],[-2861,1322],[-1075,1027],[-768,529],[-531,639],[-316,680],[-309,93],[-447,-27],[-481,-410],[-92,-329],[-447,-677],[-23,-422],[327,-785],[198,-261],[1142,-910],[488,-274],[1033,-868],[409,-215],[271,-39],[313,-467],[174,-1007],[-4,-859],[-264,-655],[-153,-644],[-365,-549],[-345,-231],[-488,-100],[-784,63],[-2513,958],[-1898,979],[-627,629],[-1268,909],[-793,858],[-652,323],[-275,245],[-404,657],[-435,1055],[2,273],[492,1540],[113,1128],[-134,2044],[123,633],[65,1152],[-45,555],[188,1835],[-29,2531],[-234,706],[-403,701],[-1014,1302],[-372,227],[-2647,1041],[-1246,161],[-3120,-72],[-426,-209],[-227,-222],[-45,-406],[83,-432],[196,-175],[207,-432],[541,-441],[787,-977],[1180,-1272],[245,-439],[835,-1075],[394,-294],[552,-1126],[-187,-485],[-327,-430],[-798,-531],[-961,-285],[-2260,-161],[-2113,-12],[-261,-75],[-480,2],[-140,152],[-668,95],[-358,189],[-203,263],[-797,1903],[-370,395],[-40,1558],[-99,797],[-337,685],[-513,651],[-645,473],[-741,351],[-2311,732],[-2373,188],[-3298,521],[-1835,79],[-1935,-96],[-567,-298],[-1200,-299],[-1812,-12],[-1066,-125],[-312,-109],[-318,-413],[-192,-715],[18,-759],[237,-605],[371,-585],[485,-392],[715,-346],[1676,-266],[867,-262],[1556,-962],[749,-578],[333,-355],[1056,-1432],[644,-1176],[0,-300],[279,-243],[119,-1127],[-230,-1133],[-223,-334],[-457,-395],[-758,-323],[-1688,-200],[-632,128],[-973,341],[-899,429],[-495,331],[-135,527],[-655,435],[-440,966],[-475,1534],[-774,2068],[-781,1683],[-2381,3509],[-1089,1444],[-616,640],[-674,417],[-940,229],[-616,33],[-639,-87],[-1004,252],[-835,98],[-697,-105],[-342,-268],[-65,-227],[-190,-107],[-389,60],[-525,253],[-419,482],[-313,888],[-547,3525],[-128,592],[-401,997],[-359,564],[-627,730],[-726,589],[-2084,1173],[-1142,-85],[-1206,-749],[-348,-298],[0,-510],[724,-1828],[39,-2390],[293,-829],[95,-682],[393,-635],[66,-574],[-91,-149],[91,-618],[-34,-584],[452,-781],[10,-300],[-518,-1180],[426,0],[71,-312],[-2112,-1271],[-301,-94],[-243,39],[216,470],[-397,294],[-371,-154],[-366,13],[-2041,763],[-272,0],[-17,135],[-2415,1439],[-671,500],[-1658,1794],[-513,1602],[-72,581],[94,1340],[-113,2119],[85,793],[-319,862],[-416,756],[-498,404],[-528,198],[-978,-13],[-1816,-603],[-832,-82],[-1379,49],[-589,434],[-631,714],[-217,475],[69,559],[285,258],[307,149],[441,666],[29,357],[-225,425],[-399,411],[-222,422],[-332,1274],[139,776],[1014,1736],[96,733],[-263,380],[-584,354],[-2180,693],[-942,774],[-641,380],[-449,127],[-820,527],[-702,227],[-855,62],[-3913,-419],[-343,60],[-323,-82],[-193,103],[-292,-125],[-97,-189],[-511,-212],[-609,140],[-705,434],[-978,876],[-375,751],[-164,483],[-140,985],[-418,928],[-27,274],[303,1836],[-132,1771],[-211,559],[-340,406],[-360,226],[-489,108],[-369,0],[-372,-84],[-226,-144],[-1200,-220],[-873,-423],[-2115,-825],[-492,-358],[-504,-471],[-1026,-1440],[-457,-1157],[-50,-330],[152,-465],[-45,-184],[-381,-439],[-339,-148],[-524,-50],[-345,58],[-1201,705],[-627,1146],[-260,712],[-297,1046],[-95,896],[-235,384],[-485,284],[-1266,-124],[-1428,-641],[-1264,-860],[-1314,-1348],[-1871,-1195],[-1058,-340],[-415,0],[-444,102],[-554,286],[-732,97],[-1241,1258],[-691,1496],[-207,1251],[-216,540],[-104,802],[396,1887],[293,692],[220,848],[112,951],[-93,463],[-240,579],[-368,317],[-423,101],[-548,1],[-803,-305],[-534,-500],[-377,-501],[-333,-874],[-323,-389],[-968,-754],[-1149,-526],[-297,-73],[-494,103],[-321,235],[-553,660],[-910,521],[-220,61],[-771,-24],[-3099,-230],[-894,-418],[-627,-492],[-730,-720],[-796,-1090],[-689,-1321],[-186,-875],[65,-653],[-257,-764],[-6,-315],[285,-496],[930,-12],[655,-206],[1268,-918],[371,-508],[429,-853],[229,-777],[48,-654],[-12,-757],[-580,-1084],[-571,-467],[-1012,-462],[-748,-245],[-780,-48],[-760,-235],[-1263,-91],[-413,-117],[-755,-380],[-340,2],[-314,192],[-263,460],[-219,715],[-259,1559],[-531,1219],[-697,1301],[-990,1466],[-618,711],[-523,376],[-649,702],[-432,667],[-264,766],[-242,121],[-583,-141],[-342,-309],[-196,-478],[-124,-573],[22,-669],[210,-1794],[-19,-201],[-135,-166],[-757,-125],[-2416,339],[-461,26],[-394,-83],[-275,-152],[-391,-486],[-276,-1036],[-362,-731],[-856,-715],[-1092,-515],[-1501,-401],[-1595,146],[-1136,-53],[-2278,-910],[-683,-46],[-262,-89],[-533,-325],[-1038,-376],[-848,249],[-527,504],[-850,642],[-974,546],[-316,25],[-608,-261],[-244,-262],[-286,-704],[-767,-4760],[-502,-1727],[-128,-741],[36,-904],[230,-1186],[865,-2712],[-13,-549],[98,-540],[-38,-519],[142,-1123],[-191,-543],[-1934,-1255],[-502,-32],[-1145,281],[-3890,1995],[-1704,2417],[-886,1071],[-139,449],[-415,541],[-566,1259],[-179,662],[-311,540],[-564,601],[-863,310],[-1223,133],[1,-553],[102,-315],[775,-592],[324,-439],[436,-312],[647,-1162],[-54,-674],[-122,-256],[-453,-287],[-2380,-472],[-957,-509],[-538,-549],[-113,-750],[-796,-963],[-451,-402],[-223,-639],[183,-549],[927,-1497],[246,-1241],[-60,-1012],[-475,-1068],[-391,-405],[-906,-521],[-684,219],[-219,242],[1,3425],[-543,1587],[-331,310],[-406,210],[-768,27],[-1021,-688],[-308,-382],[-429,-914],[-36,-1939],[155,-1378],[-75,-290],[-534,-691],[-86,-235],[-375,143],[-651,-73],[-1185,-666],[-317,-406],[-140,-951],[-151,-418],[-698,-818],[-514,-321],[-273,-81],[-814,122],[-296,185],[-233,401],[-405,193],[-308,288],[-637,162],[-546,-142],[-635,-622],[-136,-349],[43,-243],[207,-332],[690,-763],[451,-755],[95,-605],[-103,-634],[-342,-677],[-823,-560],[-326,-319],[-510,-798],[-511,-626],[-318,-610],[-800,-620],[-232,-305],[-578,-6],[-559,125],[-847,492],[-269,267],[-538,1297],[-277,2361],[-97,220],[-235,167],[-185,59],[-383,-214],[-549,-1237],[-863,-939],[-368,-185],[-748,113],[-630,406],[-521,1204],[-824,1272],[-1187,1468],[-618,529],[-608,305],[-758,159],[-502,-151],[-479,-337],[-216,-497],[19,-502],[-848,-2591],[-1039,-1018],[-794,-172],[-513,23],[-629,272],[-553,458],[-358,1382],[101,538],[-233,752],[-414,733],[-607,544],[-1011,251]],[[3816433,2800184],[888,218817]],[[3816433,2800184],[-658,-152],[-662,-441],[-826,-918],[-409,-871],[-151,-155],[-1127,-429],[-482,-104],[-747,50],[-947,182],[-1928,1276],[-464,867],[-268,242],[-288,-13],[-159,-275],[-84,-369],[-77,-1118],[40,-602],[217,-585],[1078,-1547],[155,-460],[32,-421],[-21,-664],[-351,-1514],[-212,-547],[-10,-439],[-624,-1214],[-915,-285],[-649,0],[-294,97],[-588,510],[-738,1545],[-576,608],[-554,336],[-1395,478],[-2638,379],[-673,23],[-765,-80],[-1039,-341],[-929,-65],[-205,-123],[-168,-364],[0,-454],[335,-807],[260,-138],[268,44],[1579,893],[1419,29],[584,-132],[107,-120],[-16,-605],[-163,-608],[-518,-272],[-1304,-297],[-721,-83],[-486,-253],[-119,-179],[-187,-689],[-348,-659],[-414,-532],[-417,-173],[-234,-356],[-298,-196],[-225,-302],[166,-1741],[384,-700],[-59,-280],[-497,246],[-913,-353],[-549,-66],[-225,-109],[-425,-816],[-559,-1840],[-971,-1218],[-401,-194],[-1753,-45],[-1091,283],[-1090,540],[-217,216],[-238,7],[-201,-97],[-166,-410],[-60,-532],[239,-2363],[-26,-718],[-158,-415],[-493,-550],[-289,-178],[-820,-61],[-789,189],[-860,475],[-666,563],[-343,187],[-181,227],[-110,314],[-230,1501],[-447,768],[-542,332],[-736,267],[-427,369],[-259,67],[-434,-49],[-464,-184],[-646,-536],[-294,-526],[7,-335],[309,-865],[520,-555],[172,-356],[-146,-986],[-853,-965],[-512,-172],[-1225,-201],[-1159,-685],[-971,-1028],[-419,-769],[-391,-47],[-391,170],[-53,134],[-919,912],[-1159,651],[-1530,452],[-695,-71],[-523,-188],[-1389,-1002],[-173,-325],[-306,-1100],[-594,-1036],[-505,-1464],[-668,-855],[-368,-1011],[-595,-498],[-1292,-616],[-372,16],[-289,129],[-432,294],[-415,500],[-267,510],[-429,1253],[-511,395],[-676,977],[-134,707],[-39,880],[-236,350],[-639,615],[-433,184],[-408,-90],[-552,-407],[-1012,-527],[-2180,-932],[-588,-384],[-443,-483],[-813,-476],[-855,-678],[-257,92],[54,90],[-60,220],[-213,197],[-353,155],[-412,21],[-402,-130],[-550,-429],[-202,-529],[-269,-156],[-435,91],[-349,299],[-72,386],[494,1227],[-72,433],[-316,604],[-366,362],[-489,170],[-954,-141],[-349,-315],[-664,-382],[-313,-429],[-134,-1019],[-302,-456],[-1386,-857],[-195,27],[-81,245],[-177,192],[-1331,771],[-980,-86],[-1043,-454],[-257,-321],[-249,-671],[57,-490],[306,-850],[-133,-840],[-456,78],[-598,-121],[-175,-211],[-104,-390],[-5,-226],[144,-265],[268,-136],[1482,-65],[1160,-451],[825,-420],[1108,-30],[575,82],[754,460],[350,318],[333,512],[431,322],[586,60],[552,-166],[82,-36],[181,-457],[222,-829],[574,-712],[359,-138],[453,-306],[386,-124],[544,-376],[382,-339],[660,-838],[72,-561],[-99,-627],[-224,-423],[-398,-378],[-864,-384],[-881,-117],[-710,-383],[-320,-337],[-294,-167],[-1058,35],[-177,129],[-1315,1872],[-1308,277],[-347,-94],[-833,-892],[-822,-529],[-754,-249],[-1846,-139],[-795,-424],[-353,-355],[-270,-760],[561,-3535],[12,-1107],[336,-1110],[-44,-496],[-358,-218],[-766,50],[-436,170],[-1490,327],[-1504,244],[-1114,384],[-872,220],[-784,36],[-673,256],[-2369,25],[-766,-191],[-1271,-566],[-2177,-1635],[102,-280],[245,-209],[1735,-58],[1091,-562],[637,-52],[177,203],[288,126],[460,-3],[411,-66],[997,-372],[274,-278],[1635,-869],[723,-704],[170,-448],[1,-824],[-177,-1138],[-435,-436],[-334,-194],[-2045,-437],[-1488,29],[-1338,271],[-1150,-10],[-1121,-248],[-796,-288],[-508,-360],[-830,-284],[-594,-418],[-315,-77],[-315,-253],[-359,-472],[-190,-348],[-250,-1565],[-102,-1397],[-2,-675],[73,-265],[244,-218],[708,-387],[440,-98],[1516,-4],[195,-73],[439,-387],[73,-289],[-617,-657],[-259,-693],[-116,-527],[-19,-1380],[-562,-1033],[43,-357],[257,-520],[423,-437],[195,-424],[-124,-602],[-294,-120],[-341,339],[-426,262],[-505,566],[-411,194],[-550,-18],[-368,-146],[-373,-265],[-550,-579],[-581,-170],[-664,-31],[-896,245],[-1310,943],[-487,141],[-510,14],[-90,141],[4,217],[362,549],[25,958],[-276,890],[-257,450],[-738,794],[-923,791],[-887,500],[-705,127],[-1672,-42],[-512,-360],[-211,-440],[-27,-378],[122,-681],[486,-1282],[20,-662],[-146,-873],[-365,-210],[-135,-328],[-184,-116],[-474,-1],[-739,-236],[-656,42],[-882,263],[-529,351],[-109,285],[-22,422],[189,1268],[94,220],[-17,635],[-160,544],[-350,380],[-151,57],[-460,-127],[-985,-1000],[-469,-343],[-373,-146],[-671,-78],[-625,119],[-350,193],[-364,322],[-433,687],[-422,313],[-269,97],[-314,-32],[-325,-184],[-897,-1076],[-918,-644],[-1264,-184],[-481,14],[-914,-205],[-946,109],[-369,258],[-920,230],[-2570,-117],[-482,453],[-242,91],[-298,329],[-1308,128],[-386,145],[-447,290],[-361,-19],[-337,-236],[-240,-703],[-563,-1090],[-262,-127],[-1870,-1683],[-373,-687],[-306,-1177],[-317,-486],[-442,-433],[-146,73],[-48,217],[142,469],[-201,661],[-683,484],[-473,12],[-119,-145],[-130,-467],[-42,-925],[-132,-228],[-408,-330],[-430,-252],[-192,42],[-231,-64],[-1229,207],[-730,7],[-385,-272],[-167,-362],[-646,-719],[-513,-206],[-635,84],[-470,342],[-272,366],[-110,583],[259,1388],[-34,777],[-173,795],[-160,334],[-190,241],[-486,293],[-801,179],[-721,-130],[-428,-421],[-330,-601],[-146,-466],[-322,-502],[-333,-358],[-808,-372],[-727,-170],[-533,60],[-1201,509],[-319,226],[-340,408],[0,340],[106,264],[856,835],[390,768],[250,1644],[-25,200],[-198,136],[-791,-148],[-1147,-706],[-1287,-325],[-806,-33],[-202,82],[-437,463],[-403,132],[-285,0],[-252,-116],[-572,-528],[-403,-182],[-2281,-6],[-1095,-163],[-639,-395],[-589,-783],[-171,-347],[-1008,-1061],[-856,-604],[-754,-222],[-1636,-166],[-1018,83],[-708,-30],[-503,80],[-164,148],[-110,232],[-20,302],[383,1164],[31,798],[-178,576],[-230,343],[-108,432],[-276,592],[-286,452],[-203,154],[-188,60],[-277,-133],[-481,-461],[-262,-381],[-286,-172],[-1210,-427],[-1098,-48],[-1139,-214],[-989,23],[-844,299],[-589,-169],[-126,-85],[-123,-253],[107,-988],[-129,-583],[-477,-900],[-68,-426],[73,-504],[894,-1489],[81,-729],[-285,-576],[-887,-806],[-15,-429],[125,-175],[235,-132],[504,0],[286,115],[874,-66],[420,-281],[286,-543],[-87,-560],[-245,-199],[-282,-15],[-148,199],[-432,-127],[-291,-902],[-519,-508],[-30,-694],[202,-380],[403,-248],[773,33],[252,347],[168,594],[521,247],[655,50],[386,-66],[564,-241],[528,-360],[-92,-275],[-609,-564],[-39,-168],[205,-184],[240,-448],[-39,-866],[-439,-342],[-1098,-121],[-456,-306],[-126,-585],[28,-681],[-535,-879],[178,-608],[228,-86],[242,40],[62,149],[541,372],[408,84],[321,-170],[64,-190],[-59,-427],[-296,-432],[-363,-273],[-769,-321],[-490,-8],[-646,494],[-242,-162],[81,-248],[693,-628],[-50,-742],[-202,-958],[-7,-729],[167,-97],[625,159],[584,-82],[826,-590],[651,-189],[406,-482],[148,-308],[26,-361],[0,-228],[-150,-213],[-443,-382],[-136,-1303],[-85,-10],[2,126],[-163,58],[-216,-121],[-224,-298],[32,-374],[247,-327],[73,-328],[-105,-674],[-262,-608],[-565,-611],[-217,-88],[-86,-224],[57,-247],[-68,-107],[-259,-110],[-69,-205],[-287,-130],[-370,-3],[-428,311],[-117,11],[-336,-126],[-161,-174],[3,-326],[302,-248],[605,-198],[471,-346],[156,-427],[-123,-507],[-227,-443],[-358,-251],[-473,-82],[-251,-163],[-38,-339],[470,-296],[81,-388],[-672,-705],[-146,-1067],[76,-422],[168,-255],[883,-137],[346,-246],[215,-436],[-44,-343],[-341,-476],[-162,-90],[-669,-49],[-798,153],[-279,-91],[-114,-208],[46,-237],[153,-85],[418,-642],[278,-283],[340,-663],[-28,-413],[-163,-326],[-573,-702],[-140,-405],[-434,-275],[-269,-22],[-772,217],[-1338,1254],[-218,33],[-210,-69],[-120,-185],[-22,-220],[1144,-1040],[544,-998],[86,-497],[-91,-351],[-174,-260],[-140,-589],[-199,191],[-36,620],[-96,179],[-335,289],[-429,103],[-375,-61],[-469,-747],[-279,-248],[-481,-229],[-416,-23],[-392,119],[-916,-95],[-296,-203],[-717,-1015],[-581,-1542],[-396,-249],[-1155,143],[-444,372],[-50,231],[33,330],[118,215],[588,363],[672,759],[453,1387],[-67,280],[-957,330],[-924,116],[-454,0],[-403,-149],[-50,-379],[100,-429],[34,-1123],[-571,-1254],[-101,-313],[0,-331],[185,-313],[941,-528],[328,-308],[-14,-216],[-228,-249],[-146,144],[-126,5],[-281,-155],[-108,-264],[-58,-846],[-525,-492],[-805,22],[-688,172],[-529,-62],[-121,-95],[59,-831],[-154,-326],[-343,-92],[-230,44],[-456,880],[-237,199],[-1265,-168],[-516,-638],[-468,-400],[-165,-50],[-705,23],[-357,94],[-282,252],[-630,314],[-328,383],[-217,-21],[-415,-209],[-62,-212],[41,-374],[463,-500],[1108,-225],[564,-254],[221,-324],[-61,-491],[-238,-356],[-326,-299],[-952,-446],[-125,-156],[-49,-286],[70,-214],[653,-207],[319,-187],[304,-396],[194,-571],[70,-882],[573,-473],[193,-266],[-70,-485],[-284,-384],[-401,-76],[-614,-485],[-654,-19],[-381,160],[-258,392],[-229,153],[-931,223],[-978,404],[-861,-328],[-540,-349],[-243,-25],[-450,233],[-619,710],[-529,123],[-360,-82],[-1082,-694],[-630,-574],[-292,-56],[-369,-223],[-760,-823],[-270,-196],[-809,761],[-379,47],[-340,-164],[-119,-189],[38,-370],[745,-971],[371,-289],[49,-153],[-94,-191],[-963,-428],[-85,-214],[72,-456],[372,-270],[1253,-220],[402,-382],[-34,-524],[-89,-214],[34,-460],[-193,-811],[16,-418],[101,-208],[515,-215],[1193,99],[907,-49],[319,-215],[118,-181],[-17,-446],[-252,-627],[0,-462],[-168,-611],[-621,-577],[-689,148],[-202,182],[-302,577],[-756,83],[-135,82],[-184,264],[-202,1106],[-302,297],[-1546,99],[-437,-115],[-504,-396],[-739,-330],[-722,-809],[-185,-396],[67,-1189],[-184,-1006],[-404,-330],[-823,-198],[-823,-925],[-168,-82],[-722,82],[-555,543],[-407,263],[-526,89],[-665,-45],[-1023,-597],[-467,7],[-680,-128],[-320,-179],[-104,-402],[189,-317],[501,-258],[685,-177],[400,-323],[98,-346],[-108,-355],[-256,-242],[-265,-55],[-377,-697],[-16,-278],[-188,-338],[78,-812],[-203,-295],[-296,-24],[-190,355],[-537,166],[-1018,-62],[-382,121],[-185,164],[-216,581],[-480,562],[-816,343],[-436,318],[-977,297],[-352,360],[-251,474],[-244,78],[-148,-232],[3,-273],[-118,-628],[-164,-397],[-18,-362],[96,-317],[223,-318],[414,-432],[480,-290],[18,-151],[-390,-418],[-113,20],[117,135],[-112,200],[-515,351],[-674,217],[-1440,-343],[-297,-240],[-240,-475],[-406,-62],[-305,351],[-63,1255],[-162,189],[-181,48],[-371,-30],[-247,-213],[-335,-934],[107,-209],[-368,-251],[-773,157],[-439,232],[-138,575],[-306,461],[-400,224],[-493,50],[-379,-262],[-77,-210],[23,-309],[326,-534],[175,-560],[475,-244],[116,-291],[-122,-371],[-198,-208],[-115,78],[4,169],[-133,68],[-252,-13],[-326,-190],[-134,-191],[52,-325],[-163,-250],[-27,-282],[-362,-67],[-314,299],[342,417],[-177,764],[-118,128],[-347,151],[-286,-16],[-1202,-477],[-263,22],[-188,144],[-14,309],[457,339],[358,791],[-102,530],[37,597],[-69,181],[-204,87],[-161,-39],[-274,-469],[-449,-394],[-216,9],[-347,257],[-201,328],[-16,583],[-130,622],[-333,660],[-326,261],[-777,244],[-418,249],[-363,363],[-660,381],[-488,536],[-100,702],[-267,307],[-101,299],[-438,616],[-58,584],[-76,111],[-41,1636],[-147,949],[-256,306],[-549,69],[-218,-87],[-398,-336],[-189,-319],[-167,-988],[91,-844],[-270,-775],[376,-1743],[373,-1123],[106,-833],[192,-570],[-88,-794],[-274,-1216],[-212,-192],[-137,-24],[-388,418],[-819,85],[-269,-124],[-275,-290],[-373,-61],[-325,-179],[-779,5],[-182,139],[-388,704],[-747,642],[-1358,479],[-453,351],[-508,31],[-387,-171],[-316,-359],[-409,-948],[-203,-1307],[-496,-661],[12,-522],[149,-134],[544,721],[218,160],[666,320],[1088,277],[981,-155],[279,-135],[575,-500],[115,-337],[-4,-619],[-74,-140],[-131,-43],[-354,-623],[-102,-308],[9,-285],[104,-253],[530,-642],[324,-770],[335,-432],[295,-564],[-238,-1029],[-650,-1226],[-298,-238],[-1008,-518],[-326,-266],[-167,-265],[-177,-80],[-382,20],[-740,345],[-1026,204],[-476,37],[-719,-96],[-283,235],[8,258],[156,135],[795,258],[351,244],[551,850],[86,336],[-51,201],[-289,174],[-458,116],[-2188,1198],[-712,130],[-458,-366],[-484,-1050],[-208,-762],[84,-443],[114,-289],[193,-191],[952,-332],[214,-279],[760,-670],[309,-537],[119,-1882],[-124,-314],[-228,-188],[-833,70],[-1940,997],[-563,878],[84,756],[-62,636],[-465,1643],[-670,1376],[-367,482],[-640,538],[-868,572],[-575,150],[-1751,-303],[-688,-496],[-159,-235],[-45,-257],[69,-208],[182,-75],[1244,-10],[881,-593],[263,-315],[231,-555],[708,-1162],[337,-919],[-41,-377],[-189,-369],[-322,-385],[-338,-144],[-418,-41],[-714,371],[-1063,687],[-692,565],[-246,314],[-863,1807],[-275,324],[-1323,40],[-935,-182],[-471,307],[-235,61],[-204,-33],[-121,-177],[10,-276],[188,-302],[87,-1102],[-352,-824],[-121,-554],[29,-377],[251,-618],[26,-528],[-284,-533],[-477,-234],[-369,24],[-359,452],[-635,290],[-395,-123],[-744,-452],[-399,5],[-266,106],[-111,183],[12,283],[297,484],[262,794],[-105,327],[-313,214],[-292,5],[-662,-209],[-338,-266],[-734,-831],[-350,-153],[-356,61],[-420,255],[-667,620],[-67,251],[-18,384],[370,333],[196,457],[-85,641],[-236,279],[-499,196],[-341,-36],[-245,-232],[8,-184],[286,-378],[-55,-256],[-231,-147],[-373,200],[-327,21],[-358,-319],[-728,-210],[-259,-565],[-114,-96],[-547,105],[-285,456],[91,237],[735,654],[70,262],[-42,222],[-227,232],[-866,120],[-252,-35],[-157,-159],[135,-765],[-106,-297],[-136,-131],[-186,20],[-867,607],[-581,90],[-387,-193],[-1630,-1204],[-638,-225],[-151,66],[-61,152],[129,771],[-87,467],[-404,615],[-371,174],[-187,-175],[-24,-383],[-492,-1445],[-239,-127],[-572,73],[-471,-282],[-243,-17],[-210,98],[-85,189],[446,566],[64,231],[-140,204],[-451,232],[73,669],[-67,208],[-143,147],[-275,74],[-404,-26],[-570,-172],[-163,27],[-27,214],[367,373],[125,434],[-3,345],[-181,144],[-422,-1],[-199,165],[257,873],[4,1072],[270,456],[-19,187],[-161,267],[0,256],[127,222],[500,427],[92,241],[-29,263],[-125,161],[-203,-21],[-128,-531],[-309,-214],[-286,72],[-186,301],[27,762],[-153,376],[-488,307],[-629,45],[-311,426],[343,205],[294,59],[212,191],[-22,212],[-557,268],[-57,326],[123,207],[408,71],[381,217],[-7,252],[-297,335],[-34,480],[579,309],[169,297],[-41,225],[-199,170],[-679,218],[-597,312],[-212,204],[-82,239],[72,383],[364,94],[173,153],[-2,237],[-219,243],[-61,396],[772,1107],[5,181],[-92,144],[-499,205],[-659,429],[-582,80],[-871,542],[-245,52],[-324,-71],[-142,66],[-204,540],[20,1049],[-336,1197],[-631,782],[-500,189],[-507,-17],[-265,-96],[-244,-262],[-348,-611],[-400,28],[-785,569],[-248,10],[-97,-93],[6,-337],[602,-749],[145,-532],[-271,-1509],[-86,-104],[-779,-560],[-292,-101],[-141,13],[-330,259],[-781,393],[-135,-94],[-127,39],[-163,97],[-168,258],[-130,452],[-49,562],[226,623],[147,1196],[-29,263],[-277,511],[-476,569],[-720,410],[-696,243],[-1194,222],[-680,-110],[-220,-183],[-127,-262],[59,-680],[414,-727],[-102,-1083],[201,-692],[-269,-1198],[-439,-1127],[-509,-467],[-659,-200],[-837,47],[-621,198],[-206,188],[-221,1335],[291,657],[88,932],[257,992],[12,335],[-233,1104],[-273,470],[-735,133],[-520,211],[-709,-75],[-335,-413],[-255,-696],[-1892,-1062],[-642,96],[-723,669],[-41,158],[80,38],[16,574],[-189,335],[135,351],[307,358],[70,278],[-288,1079],[65,818],[81,117],[394,63],[160,121],[688,1092],[87,534],[-185,248],[-199,72],[-1155,-317],[-704,219],[-602,-623],[-149,-54],[-562,145],[-368,304],[-201,49],[-354,-152],[-189,-321],[-7,-372],[367,-328],[254,-378],[166,-388],[-20,-110],[-44,-71],[-353,-70],[-178,164],[-192,611],[-166,114],[-225,-15],[-123,-204],[8,-151],[177,-461],[233,-1243],[-127,-191],[-551,-270],[-469,-404],[-196,-14],[-157,191],[-70,270],[8,636],[-250,465],[-473,264],[-522,-197],[-114,-159],[-66,-349],[18,-643],[148,-490],[740,-850],[641,-434],[49,-242],[-181,-601],[-742,-1174],[-145,-113],[-643,-64],[-706,188],[-271,404],[-44,1365],[-135,307],[-249,207],[-406,151],[-607,52],[-185,-108],[-136,-284],[201,-635],[-89,-106],[-512,-21],[-272,-160],[-137,-963],[-279,-886],[-348,-348],[-166,-310],[-10,-530],[-288,-1154],[-409,-490],[-760,81],[-48,101],[131,346],[289,200],[251,335],[-145,430],[144,543],[-10,321],[-224,140],[-456,-52],[-268,360],[-236,115],[-188,-172],[32,-482],[-291,-316],[-252,48],[-426,439],[-192,-30],[-166,-190],[-15,-279],[179,-655],[-5,-580],[217,-740],[-15,-268],[-105,-188],[-285,-207],[-599,-190],[-971,229],[-576,368],[-878,983],[-602,142],[-147,104],[83,290],[578,393],[178,297],[-28,426],[-375,774],[-615,278],[-605,-22],[-339,-147],[-113,-165],[-72,-426],[53,-425],[134,-289],[378,-430],[376,-771],[719,-838],[62,-392],[-435,-866],[-363,-475],[-169,-76],[-508,31],[-563,-149],[-376,176],[-198,201],[250,973],[-126,698],[-222,298],[-487,378],[-729,404],[-1422,436],[-1194,-114],[-295,-107],[-325,-307],[73,-345],[371,-294],[861,-346],[839,-684],[520,-214],[185,-330],[-194,-294],[-483,-281],[-280,-540],[-385,-76],[-40,202],[-260,136],[-116,202],[214,568],[-12,198],[-128,168],[-248,106],[-403,-43],[-496,-248],[-876,-128],[-1121,42],[-533,-270],[-124,-263],[164,-229],[848,-208],[313,-179],[155,-198],[6,-185],[-219,-351],[-511,-364],[0,-229],[245,-56],[384,195],[231,-28],[308,-213],[107,-293],[-94,-484],[-209,-338],[-160,-117],[-450,-57],[-133,-256],[-729,-423],[-148,-1097],[-432,587],[-156,1523],[-299,797],[-374,602],[-685,795],[-420,694],[-225,614],[-236,181],[-153,-4],[-613,-300],[-243,-280],[78,-218],[352,-119],[263,-384],[-53,-796],[93,-865],[-128,-656],[-454,-544],[-210,-518],[-99,26],[-211,-159],[-236,5],[-381,292],[-90,185],[580,1015],[50,250],[-130,183],[-733,383],[-614,537],[-950,-171],[-397,342],[-208,28],[-260,-166],[-492,-839],[-864,-102],[-505,193],[-262,-200],[-96,-609],[139,-646],[-319,-694],[-91,-585],[-285,-378],[-532,447],[-1193,160],[-615,399],[-872,233],[-552,397],[-555,696],[-95,449],[47,811],[-551,1041],[-240,309],[-636,527],[-561,7],[-527,-182],[-288,-286],[-151,-520],[91,-606],[865,-1568],[378,-341],[374,-211],[1304,-1314],[-397,-2108],[-459,-718],[-538,-45],[-1852,896],[-49,461],[158,732],[-49,1302],[54,590],[-47,244],[-146,157],[-583,216],[-1296,-35],[-209,-64],[-641,-452],[-490,-35],[-1371,351],[-334,267],[-719,289],[-172,-356],[-97,-2420],[20,-311],[383,-904],[-68,-156],[-237,-178],[-1115,-140],[-727,-311],[-963,-619],[-351,-39],[-492,156],[-5,247],[778,630],[54,332],[-345,1066],[-574,501],[-700,139],[-572,-97],[-857,-414],[-659,-562],[-173,-440],[-26,-299],[141,-1397],[185,-836],[-50,-391],[-171,-410],[-35,-502],[38,-1063],[272,-806],[7,-216],[-85,-171],[-243,-163],[-335,-58],[-195,141],[-533,1496],[-428,739],[-602,368],[-821,362],[11,274],[670,612],[311,532],[113,303],[-78,297],[-217,178],[-1200,483],[-302,32],[-178,-94],[-160,-417],[21,-1194],[-182,-749],[-364,-446],[-889,-617],[-228,-269],[-128,-315],[140,-207],[362,-183],[1907,-355],[316,-190],[229,-470],[40,-1057],[-276,-276],[-680,-364],[-1279,-297],[-1041,-24],[-335,452],[-118,988],[-221,435],[-768,564],[-236,106],[-339,10],[-557,-394],[-843,-1200],[3,-839],[160,-457],[-56,-283],[-271,-187],[-286,-60],[-983,145],[-356,152],[-197,255],[-241,1038],[-457,1069],[-7,336],[-311,903],[-381,304],[-1271,-124],[-393,-335],[-101,-380],[317,-1580],[-206,-616],[-193,-323],[-246,-45],[-120,130],[-173,1253],[-262,639],[-389,198],[-1474,-141],[-483,-254],[-278,-475],[-227,-613],[-79,-861],[-267,-375],[-302,-70],[-838,276],[-445,-64],[-1068,-1105],[-440,-180],[-205,118],[-137,219],[-570,525],[-181,653],[18,347],[367,490],[622,1652],[32,616],[-114,235],[-550,622],[-253,133],[-558,46],[-490,168],[-191,7],[-92,-73],[-89,-685],[161,-389],[35,-414],[185,-592],[144,-993],[-51,-167],[-520,-508],[-1329,-798],[-518,-231],[-829,-119],[-907,214],[-798,658],[-330,613],[-90,587],[209,675],[301,504],[731,835],[79,189],[-46,300],[-119,190],[-146,107],[-390,72],[-376,-55],[-326,-147],[-416,-462],[-120,-387],[13,-861],[-160,-601],[63,-494],[-60,-216],[-325,33],[-597,344],[-1011,284],[-713,330],[-712,24],[-263,-321],[-522,-378],[-62,-349],[248,-390],[620,78],[475,-43],[643,-359],[285,-335],[26,-232],[-83,-165],[-660,-765],[-616,-502]],[[3408628,2644940],[-4645,12743],[600,227],[270,353],[-244,78],[-369,301],[-703,373],[-1493,248],[-823,478],[-958,1087],[-407,767],[-363,1043],[-680,702],[-1048,358],[-627,487],[-125,663],[-303,463],[-1143,949],[-455,608],[-575,14],[-557,-253],[-233,-245],[-291,-28],[-282,144],[-503,5],[-263,153],[-89,210],[202,432],[-154,264],[-785,-251],[-250,194],[-348,83],[-1278,-301],[-1075,-27],[-529,152],[-555,46],[-470,384],[-283,131],[-782,29],[-1362,349],[-806,-158],[-605,75],[-310,236],[-50,384],[-237,440],[-161,144],[-294,-28],[-441,-475],[-461,-81],[-152,105],[-436,670],[-1102,673],[-1361,319],[-1108,121],[-153,961],[-160,156],[-767,324],[-386,748],[-472,671],[-769,564],[-2139,1108],[551,1252],[-16,958],[387,2328],[6,866],[-343,1209],[-476,542],[-265,162],[-1159,322],[-1034,84],[-890,208],[-1057,550],[-408,1250],[-633,1359],[-5202,6680],[-881,374],[-468,102],[-234,-48],[-826,-471],[-415,-34],[-214,85],[-347,-5],[-213,747],[-19,393],[-618,2056],[-9,230],[158,243],[-49,391],[-571,633],[71,222],[255,302],[33,232],[-401,1228],[-132,188],[-396,204],[-231,-254],[-18,-387],[-110,-88],[-363,290],[-138,-284],[92,-540],[-158,-257],[-154,15],[-208,323],[-238,-13],[-886,-781],[-845,-32],[-359,-165],[-319,27],[-263,-261],[-313,68],[-391,-276],[-789,-104],[-1005,-642],[-850,-208],[-471,-338],[-1329,-600],[-315,-44],[-137,75],[-161,264],[-166,-17],[-298,-103],[-61,-306],[-124,-20],[-281,147],[-471,-87],[-192,-417],[-151,-51],[-383,222],[-280,-163],[-318,-67],[-109,278],[-145,31],[-676,-414],[-307,-86],[-682,217],[-368,287],[-467,81],[-453,-317],[-40,-292],[-252,43],[-163,169],[-448,-313],[-536,88],[-215,-405],[-372,-133],[-237,-396],[-344,122],[-754,-238],[-477,-38],[-113,-72],[-104,-273],[-141,-69],[-441,0],[-176,-329],[-256,-178],[-82,-235],[-267,-175],[-1066,-321],[-258,35],[0,111],[-5768,8973],[115,644],[-266,851],[-1079,1813],[-198,1073],[13,274],[-1980,-873],[-375,-286],[-702,-165],[-165,-156],[-280,-579],[-170,-152],[-2029,-650],[-77,382],[-892,967],[-805,1065],[-753,1218],[-4849,5699],[-1504,-966],[-1806,-1008],[-1465,-636],[-2071,-547],[-1057,361],[-837,-12],[-729,728],[-489,6813],[2420,6629],[766,-436],[10,-500],[142,-370],[748,-1114],[181,-684],[-16,-707],[149,-933],[411,-824],[170,-768],[106,-186],[316,-237],[99,-43],[240,73],[1344,695],[1436,5],[620,74],[394,203],[1277,110],[959,628],[657,536],[282,351],[263,111],[470,406],[752,351],[601,795],[1238,589],[1131,1665],[770,740],[677,1109],[226,111],[695,73],[263,240],[582,240],[391,903],[23,188],[-168,315],[-33,288],[127,229],[601,203],[145,249],[-458,799],[-14,222],[-931,-87],[-1885,-830],[-626,88],[-303,-35],[-666,-555],[-596,-229],[-703,28],[-445,-327],[-477,-40],[-715,-408],[-761,-230],[-650,-542],[-14303,7110],[-56,939],[-290,1226],[-279,737],[-559,951],[145,1098],[-256,391],[-24,751],[-188,519],[-840,1049],[-740,1561],[-725,1044],[-589,389],[-1546,720],[173,1168],[501,1660],[393,862],[449,515],[-70,592],[-184,440],[-1254,832],[-1160,526],[-5451,335],[2929,6071],[7033,-6055],[569,-232],[193,895],[140,1762],[131,456],[813,1319],[-5516,5822],[-3789,6948],[-6221,-2765],[403,6627],[-2258,1156],[140,331],[26,1114],[236,408],[87,518],[-180,317],[-400,-158],[-279,-252],[-269,120],[-254,-33],[-194,141],[-725,-112],[-80,112],[-207,-58],[-114,124],[-130,33],[-117,-80],[-235,106],[-830,-257],[-298,106],[-722,-392],[-272,405],[-231,585],[-379,290],[-815,1305],[4,228],[178,354],[-50,225],[-1089,1149],[-268,171],[-531,175],[-179,249],[69,379],[154,184],[205,93],[12,104],[-209,98],[-23,154],[185,113],[76,226],[212,134],[136,330],[277,127],[-218,412],[65,168],[188,133],[218,34],[-11,290],[488,-6],[248,429],[-44,236],[-167,166],[-42,-240],[-95,-64],[-188,255],[-5,145],[23,87],[395,220],[35,162],[-100,308],[153,347],[-170,122],[-53,197],[18,180],[247,411],[-70,191],[-230,35],[-606,-289],[-283,-23],[-411,197],[-1374,-2],[-140,149]],[[3408628,2644940],[-339,-331],[-580,-977],[-447,23],[-690,293],[-427,69],[-311,-52],[-120,-329],[-376,153],[-250,-119],[-107,-299],[-428,-644],[-55,-300],[51,-528],[181,-182],[680,-22],[221,-169],[-52,-218],[-390,-305],[-50,-178],[675,-736],[48,-447],[-403,-1010],[-225,-345],[-486,-259],[-118,-609],[-320,-368],[148,-913],[-143,-2],[-646,309],[-204,-104],[-202,-290],[-25,-183],[123,-253],[726,-563],[7,-85],[-469,-112],[-405,154],[-370,38],[-164,-215],[-140,-395],[-371,-245],[-784,-52],[-332,-121],[-253,-283],[-413,202],[-137,-229],[213,-373],[-159,-227],[-708,335],[-335,-53],[-215,-145],[-165,-729],[-158,-243],[-1135,-893],[-169,-853],[-366,-854],[39,-133],[176,-9],[286,156],[257,293],[105,9],[461,-708],[-16,-230],[-100,-150],[-232,-72],[-1206,345],[-1095,-169],[-305,504],[-406,84],[-197,-93],[-35,-107],[121,-918],[-302,-138],[-241,5],[-358,157],[-442,368],[-557,-107],[-226,124],[-359,941],[-6,262],[-112,116],[-290,105],[-52,-102],[-150,2],[-492,254],[-312,-38],[-141,-159],[-18,-190],[145,-739],[-440,-385],[-74,-166],[123,-870],[-149,-238],[-274,-216],[-355,-725],[-246,-93],[-334,21],[-339,226],[-496,12],[-262,280],[-199,22],[-292,-235],[-12,-708],[-79,-147],[-557,-264],[-287,-8],[-316,136],[-277,-105],[-145,-209],[-1,-475],[-294,67],[-416,335],[-250,-32],[-16,-192],[390,-200],[-89,-313],[-510,-171],[-283,-606],[-703,-165],[-114,-166],[-14,-244],[176,-295],[316,-324],[373,-218],[10,-209],[-314,-407],[88,-182],[344,-240],[-120,-238],[-513,-27],[-196,-487],[-357,-18],[-169,525],[-316,444],[-919,527],[-246,1],[-46,-174],[179,-299],[338,-229],[228,-458],[-49,-136],[-773,-92],[-153,54],[-225,488],[98,482],[-153,199],[-882,-209],[-112,-149],[12,-540],[-133,-209],[-630,-59],[-203,-159],[-37,-190],[163,-331],[-77,-404],[-564,-167],[-162,-242],[-25,-251],[62,-110],[529,-131],[104,-618],[-552,-157],[-69,-467],[-126,-113],[-828,-18],[-119,-191],[-69,-353],[-599,-276],[-448,-31],[-275,525],[-894,711],[-67,271],[148,370],[430,266],[116,228],[-100,252],[-304,74],[-418,-140],[-271,-224],[-189,-644],[-136,-204],[-477,-126],[18,-711],[-83,-459],[-328,-455],[-1158,-138],[-99,118],[34,388],[-122,66],[-131,-86],[-259,-448],[-184,-36],[-294,135],[-386,362],[-237,-36],[-319,-1176],[88,-416],[389,-466],[28,-238],[-86,-99],[-257,-6],[-478,459],[-230,12],[-137,-157],[-232,-642],[139,-206],[813,-295],[420,-301],[417,-609],[74,-416],[-85,-426],[-564,-1114],[-376,-242],[-278,-76],[-1254,-45],[-157,126],[-88,256],[41,701],[-63,224],[-211,138],[-225,28],[-422,-176],[-12,-848],[-109,-179],[-195,19],[-376,207],[-143,-66],[-348,-411],[-186,-6],[-277,157],[-178,-54],[-127,-307],[4,-518],[-731,-314],[-288,-330],[-21,-330],[119,-392],[70,-804],[-24,-570],[-128,-601],[-211,-336],[-373,-94],[-618,-378],[-1199,-254],[-118,73],[-182,407],[-559,313],[-527,608],[-218,48],[-434,-73],[-355,130],[-556,50],[-409,181],[-257,-122],[-198,-299],[-202,-1076],[-120,-222],[-304,-138],[-1049,81],[-611,400],[-236,389],[-5,411],[270,326],[-63,226],[-179,19],[-536,-306],[-520,92],[-348,-36],[-11,217],[158,163],[350,119],[445,-49],[130,125],[-157,101],[-444,45],[-527,171],[-36,176],[519,80],[165,330],[-165,198],[-837,446],[-1409,124],[-719,406],[-260,-311],[-31,-556],[-81,-85],[-318,31],[-515,316],[-608,145],[-399,-93],[-336,-342],[-221,-33],[-420,729],[-172,155],[-208,37],[-567,-83],[-208,-404],[-262,-83],[-497,509],[-692,57],[-2018,1172],[-523,425],[-246,107],[-278,-540],[-664,-377],[-164,-246],[34,-177],[604,-536],[136,-541],[-127,-62],[-511,47],[-97,-73],[-891,-2168],[-228,-214],[-960,-529],[-402,-473],[-411,-991],[-173,-739],[-697,-110],[-519,145],[-356,354],[-484,-114],[-318,247],[-299,509],[-170,117],[-655,-143],[-413,169],[-146,-74],[-9,-1388],[-285,-1279],[158,-993],[456,-302],[89,-589],[99,-155],[915,109],[306,-123],[295,-328],[285,-611],[-13,-206],[-600,-100],[-88,-568],[-164,4],[-234,178],[-314,48],[-582,-342],[-230,-15],[-179,103],[-227,-62],[-829,-532],[-215,62],[-77,394],[-260,261],[-172,323],[-345,-30],[-487,-290],[-91,-147],[70,-126],[250,-27],[77,-90],[44,-936],[-65,-93],[-181,26],[-154,347],[-563,608],[-202,-26],[-181,-544],[-98,-97],[-183,85],[-202,430],[-267,57],[-281,-416],[-55,-330],[172,-509],[0,-246],[-255,-305],[-274,-171],[-457,-105],[-196,65],[-153,294],[-404,400],[-1064,14],[-344,-226],[-422,-506],[-290,-691],[20,-485],[-195,-283],[-234,28],[-229,134],[-421,615],[107,613],[529,1077],[0,283],[-139,242],[-603,425],[-710,-74],[-453,150],[-116,-178],[125,-644],[-222,-145],[-198,31],[-188,271],[-445,174],[-109,154],[55,432],[-252,640],[111,164],[206,109],[-9,271],[-592,123],[-677,626],[-365,195],[-208,18],[-105,-99],[-220,-709],[-297,-458],[9,-226],[232,-426],[-111,-612],[19,-543],[-112,-304],[-276,-254],[-501,-252],[-850,-178],[-628,-17],[-124,233],[195,207],[14,171],[-378,154],[-93,214],[17,212],[206,138],[156,237],[35,380],[-168,169],[-410,-144],[-272,487],[-149,123],[-457,-199],[-308,-466],[-112,-27],[-318,341],[77,505],[-132,312],[-374,54],[-230,-159],[-204,-396],[799,-1151],[-110,-352],[-193,-150],[-215,13],[-288,219],[-1223,596],[30,449],[304,706],[-159,35],[-411,-178],[-219,119],[-97,288],[47,292],[382,252],[91,257],[-102,95],[-487,-81],[-218,55],[-40,190],[218,257],[-130,159],[-438,180],[-592,-128],[-381,214],[-777,118],[-395,-47],[-137,98],[-266,456],[-472,74],[21,494],[-183,112],[-480,-26],[-1044,-459],[-669,-186],[-630,139],[-1989,-284],[-1294,-18],[-367,173],[-573,42],[36,234],[-636,-33],[-169,237],[-264,86],[-91,244],[-845,530],[-384,150],[-1015,-29],[-277,167],[-287,407],[-29,466],[53,79],[760,270],[-4,65],[-199,50],[-393,298],[-427,-79],[-254,69],[-317,-135],[-336,157],[-291,-186],[-157,32],[-232,192],[-85,-19],[-72,-246],[-80,-34],[-199,117],[-739,-37],[-321,275],[-26,425],[-486,138],[-130,134],[97,541],[-177,215],[-670,-137],[-935,-429],[-490,49],[-583,290],[-127,208],[7,329],[-915,499],[-336,-29],[-475,-411],[-104,25],[-207,590],[89,65],[476,-15],[15,127],[-634,534],[-408,177],[-53,69],[100,193],[-171,221],[-476,-83],[-298,130],[-251,287],[-96,-379],[-600,61],[-315,-123],[-306,71],[-245,-87],[-248,42],[-166,185],[38,371],[-70,199],[192,414],[-14,165],[-178,99],[-179,-222],[-117,-13],[-29,551],[-175,360],[-201,157],[-251,-73],[-417,-1008],[-447,-402],[-160,-37],[-45,135],[292,654],[-456,423],[345,173],[175,214],[-154,446],[-122,96],[-315,-31],[-1472,-932],[-285,113],[-160,206],[-258,152],[-382,646],[-414,461],[-286,-288],[-72,-236],[421,-83],[-155,-572],[-438,-257],[-122,76],[119,236],[-248,181],[229,301],[-97,148],[-286,78],[-12,418],[-165,271],[-249,-62],[-455,-377],[-342,-154],[-345,217],[-350,-88],[-255,127],[-150,267],[176,422],[-59,68],[-856,-362],[-431,-60],[-169,236],[-368,29],[-277,323],[-213,38],[-239,-183],[13,-144],[145,-152],[-165,-105],[101,-208],[258,-233],[18,-176],[-234,-262],[-304,-179],[-486,-16],[-478,-246],[-871,-141],[-367,717],[-120,-80],[107,-174],[-44,-63],[-366,38],[-119,-133],[0,-200],[-211,-38],[-296,146],[-84,162],[401,371],[-69,350],[-142,138],[-266,-296],[-490,-227],[-318,-472],[-64,-254],[-169,208],[-278,150],[61,320],[-359,59],[-19,338],[-321,280],[-164,-156],[75,-415],[-254,-54],[-249,96],[-140,-371],[-654,385],[-370,14],[-479,472],[-120,-25],[0,-212],[-156,-22],[-72,197],[-209,131],[-22,175],[-89,78],[-155,-153],[-380,181],[-488,79],[-97,146],[-321,-52],[-259,377],[-317,-9],[-383,197],[-558,-12],[-155,425],[-228,84],[-266,-59],[-9,97],[154,176],[-45,97],[-534,324],[304,1013],[847,1215],[-91,161],[-429,264],[-430,731],[-10,191],[152,215],[-82,285],[140,258],[-163,426],[94,249],[-330,176],[-17,348],[-159,427],[-131,42],[-756,-139],[-160,54],[-130,197],[15,368],[-165,213],[483,291],[336,322],[-92,446],[138,245],[-15,173],[-269,341],[-523,120],[-142,271],[-519,14],[-498,184],[4,309],[-221,265],[113,862],[-52,123],[-580,40],[-719,-554],[-198,155],[-123,338],[-158,119],[-571,-141],[-162,-148],[274,-497],[205,-812],[-56,-89],[-333,80],[-723,748],[-273,168],[-184,14],[-249,-126],[-259,-4],[-320,-645],[-293,-280],[-645,-181],[-595,47],[-451,875],[-368,103],[150,427],[-133,77],[-188,-69],[-655,-1289],[-776,-342],[-335,57],[-14,841],[-295,202],[-695,-28],[-684,-416],[-382,-77],[-730,246],[-170,420],[-182,212],[-425,-95],[-190,176],[-98,-226],[-371,295],[-343,-317],[-275,-46],[-12,-171],[126,-242],[-95,-84],[-917,441],[-472,-9],[-1415,-642],[-172,222],[135,689],[-61,91],[-515,-89],[-727,-638],[-731,-1],[-279,129],[-236,387],[56,235],[-88,163],[33,174],[-269,78],[-64,282],[-161,17],[-129,-140],[5,-134],[290,-556],[57,-305],[-62,-155],[-437,-53],[-437,-164],[-742,-535],[-113,42],[-389,500],[-141,36],[-774,-1407],[-126,14],[-80,549],[-673,85],[-56,-78],[130,-661],[-155,-259],[-778,141],[-260,-95],[-236,-235],[-54,-170],[70,-192],[605,-503],[269,-322],[93,-247],[-235,-192],[-656,306],[-395,19],[115,-1178],[-450,-308],[-388,-502],[-670,165],[-296,-129],[-320,-318],[-427,-1084],[-539,63],[-341,220],[-275,-113],[-244,175],[-207,37],[-51,-562],[173,-609],[-86,-293],[-204,-101],[-450,21],[-443,379],[-312,-318],[-72,-189],[-92,-21],[-321,302],[14,406],[-891,292],[77,606],[-85,203],[-175,52],[-52,-355],[-230,-178],[-536,21],[-243,138],[-91,552],[-210,214],[-603,345],[-121,623],[-226,509],[-158,113],[-194,-21],[-13,291],[-395,-6],[-245,233],[-153,745],[23,687],[-274,391],[-381,90],[-515,-335],[-265,561],[-285,273],[-399,124],[-1196,-18],[-19,139],[338,418],[-164,151],[-227,-21],[-1,244],[-363,-119],[-748,-13],[-994,-297],[-83,90],[157,297],[-94,181],[-572,372],[-421,109],[-176,-134],[-436,-113],[128,-339],[-651,210],[-314,-400],[-358,-214],[-261,-50],[-630,553],[-398,173],[-800,-173],[-148,58],[-224,298],[-146,-144],[-263,206],[-616,-151],[-800,105],[-276,-59],[-267,-268],[-67,-243],[-348,-180],[-900,611],[-1279,75],[-1004,589],[-1165,55],[-245,167],[-90,299],[-409,543],[-634,269],[-435,-44],[-505,-510],[-252,-117],[-1223,315],[-533,-183],[-173,-269],[85,-539],[-156,-119],[-1420,424],[-216,293],[-53,331],[-125,18],[-239,-135],[-674,-823],[-149,113],[-56,303],[-361,-21],[-257,-109],[-86,-455],[-277,-352],[-356,-252],[-603,-184],[-26,-113],[212,-249],[-34,-217],[-550,-571],[-238,-21],[-434,125],[-2034,-719],[-63,-122],[232,-280],[-65,-140],[-690,127],[-194,-83],[139,-463],[-177,-383],[-163,44],[-347,323],[-266,-13],[-3,-132],[446,-376],[8,-270],[-244,-220],[-510,2],[-124,-120],[-18,-148],[100,-167],[396,69],[105,-106],[-546,-611],[-266,-536],[-288,1],[-299,-215],[-286,-27],[-251,-123],[-758,-763],[-195,-346],[-288,-36],[-1289,411],[-561,-63],[-361,157],[-724,-327],[-1736,143],[-540,-68],[-672,-220],[-226,89],[-219,220],[-258,85],[-63,-128],[78,-433],[-236,-451],[-250,-112],[-483,-46],[-225,-144],[-282,-369],[-513,-59],[-315,-407],[-332,6],[-302,-704],[-91,-34],[-83,102],[-105,-42],[-125,-387],[-303,174],[-301,-137],[-45,-130],[-190,55],[-214,-426],[93,-125],[-143,-329],[-251,24],[45,-861],[93,-441],[208,3],[-27,-343],[67,-150],[417,-335],[-93,-360],[437,-444],[36,-510],[-354,-384],[15,-300],[172,-298],[430,-185],[241,-194],[78,-1041],[589,10],[138,-158],[-307,-763],[22,-848],[-240,-277],[196,-705],[-73,-346],[157,-289],[-179,-671],[-160,-153],[-261,-64],[-176,-287],[-435,-380],[-384,-44],[-320,-510],[-422,-310],[-1001,15],[-444,-327],[-629,80],[-226,-126],[-369,-31],[-820,536],[-308,66],[-15,193],[-237,258],[-239,110],[-20,188],[-102,90],[66,250],[-103,263],[63,197],[-418,146],[-602,792],[-1159,817],[-541,583],[-279,44],[-384,-143],[-512,305],[-390,-240],[-224,84],[-161,-151],[-156,-338],[-220,-172],[-134,324],[-628,-173],[-500,257],[-188,228],[-127,3],[-404,-423],[-325,-127],[-588,-576],[-136,-7],[-458,244],[-274,-186],[-56,318],[-221,-211],[-153,136],[-210,43],[-517,-581],[-950,-162],[-132,-85],[-17,-140],[-837,-542],[-360,-16],[-383,251],[-199,-124],[-223,59],[-607,-108],[-556,115],[-89,189],[-266,27],[-267,-246],[-457,-20],[-150,225],[-145,57],[-392,-89],[-228,-414],[-251,159],[-64,207],[-243,-32],[-231,241],[-510,-416],[-514,-25],[-66,-106],[40,-250],[-194,3],[-380,-351],[-395,-93],[-504,-492],[-537,67],[-145,-143],[-113,-288],[-326,-270],[-98,-224],[-360,-243],[-323,-2],[-94,-313],[-318,8],[-245,-334],[-582,-336],[-691,-541],[-512,-96],[-255,-284],[-134,-18],[-155,160],[-139,12],[-258,-273],[-616,-88],[-211,43],[55,298],[-94,122],[-367,-121]]]}
